{"type":"Feature","properties":{"name":"Auto-Pédestre Berlé","source":"geoportail"},"geometry":{"type":"MultiLineString","coordinates":[[[5.85516,49.95141],[5.8547,49.95112],[5.8545,49.95088],[5.85381,49.95065],[5.85302,49.95012],[5.8521,49.94965],[5.85169,49.94928],[5.84912,49.94884],[5.84846,49.94903],[5.84811,49.94904],[5.84674,49.94862],[5.84559,49.94848],[5.84491,49.94849],[5.84437,49.94839],[5.84269,49.94783],[5.84248,49.94765],[5.84251,49.94749],[5.8427,49.94736],[5.84326,49.94718],[5.84333,49.94709],[5.84333,49.94697],[5.84302,49.94661],[5.84253,49.94627],[5.84243,49.94588],[5.84232,49.94579],[5.84075,49.94564],[5.83986,49.94573],[5.83912,49.94559],[5.83878,49.94575],[5.83855,49.94599],[5.83856,49.94607],[5.83887,49.94647],[5.83954,49.94762],[5.83981,49.94794],[5.8398,49.94801],[5.83771,49.94672],[5.8376,49.94659],[5.83764,49.94631],[5.83755,49.94607],[5.83737,49.94607],[5.83689,49.9463],[5.83673,49.94647],[5.83675,49.94658],[5.83716,49.94679],[5.83707,49.94699],[5.83775,49.94734],[5.83881,49.94816],[5.83962,49.94853],[5.83981,49.94896],[5.83973,49.94927],[5.83925,49.94996],[5.83923,49.95052],[5.83821,49.95147],[5.83904,49.95174],[5.84084,49.95282],[5.84201,49.95315],[5.84215,49.95329],[5.84197,49.9538],[5.84142,49.95436],[5.84099,49.95456],[5.83942,49.95479],[5.83683,49.95533],[5.83615,49.95558],[5.83543,49.95605],[5.83456,49.95676],[5.8335,49.95745],[5.83324,49.95756],[5.83266,49.95761],[5.83209,49.95776],[5.83081,49.95876],[5.82897,49.95974],[5.82808,49.9605],[5.82764,49.96072],[5.82709,49.96087],[5.82694,49.96104],[5.82689,49.96121],[5.82697,49.96134],[5.82735,49.96148],[5.82774,49.96155],[5.8287,49.96159],[5.82904,49.9618],[5.82921,49.96227],[5.8292,49.96251],[5.82931,49.96281],[5.82972,49.96366],[5.82981,49.96375],[5.83013,49.96397],[5.83108,49.96438],[5.83165,49.96479],[5.83335,49.96566],[5.83351,49.96566],[5.83389,49.96529],[5.83438,49.96493],[5.83535,49.9654],[5.8365,49.96575],[5.83702,49.96535],[5.83732,49.96502],[5.8375,49.96473],[5.83795,49.96364],[5.83938,49.96287],[5.83984,49.96229],[5.84025,49.96203],[5.84041,49.96198],[5.84132,49.96193],[5.84187,49.96217],[5.84234,49.96218],[5.84311,49.96204],[5.844,49.96177],[5.84434,49.96149],[5.84502,49.96006],[5.84558,49.96021],[5.84661,49.96031],[5.84721,49.9606],[5.84737,49.96039],[5.84738,49.96028],[5.84703,49.96012],[5.84715,49.95984],[5.84709,49.95967],[5.84716,49.95917],[5.84747,49.95887],[5.84767,49.95877],[5.84772,49.95867],[5.84782,49.95836],[5.84779,49.95747],[5.84805,49.95708],[5.84832,49.95698],[5.84892,49.95694],[5.84914,49.95687],[5.84969,49.95626],[5.85026,49.956],[5.85085,49.95553],[5.85191,49.95508],[5.85227,49.95484],[5.85251,49.95463],[5.85292,49.95409],[5.85352,49.95367],[5.8547,49.95355],[5.85603,49.95304],[5.85651,49.95276],[5.85654,49.95267],[5.85637,49.95234],[5.85595,49.95214],[5.85564,49.95174],[5.85516,49.95141]]]}}