{"type":"Feature","properties":{"name":"Auto-Pédestre Bettendorf","source":"geoportail"},"geometry":{"type":"MultiLineString","coordinates":[[[6.21747,49.87556],[6.21788,49.87474],[6.21718,49.87436],[6.21733,49.87399],[6.21735,49.87376],[6.21751,49.87352],[6.2178,49.87271],[6.21794,49.87272],[6.21808,49.87239],[6.2183,49.87223],[6.21957,49.87236],[6.22322,49.87326],[6.22536,49.87389],[6.22659,49.87434],[6.22735,49.87453],[6.22837,49.87461],[6.232,49.87462],[6.23237,49.87453],[6.23466,49.87359],[6.23619,49.87247],[6.23744,49.87082],[6.23819,49.86969],[6.23837,49.86932],[6.23848,49.8687],[6.23857,49.86863],[6.23868,49.8682],[6.23864,49.86795],[6.23875,49.86712],[6.23868,49.86701],[6.23844,49.86689],[6.23776,49.86688],[6.23745,49.86697],[6.2373,49.8671],[6.23719,49.86744],[6.23708,49.86747],[6.23683,49.86743],[6.23667,49.86719],[6.23654,49.86713],[6.23551,49.86739],[6.23466,49.8672],[6.23439,49.86704],[6.23428,49.86671],[6.23425,49.86634],[6.23431,49.86538],[6.2345,49.86492],[6.23481,49.86453],[6.23501,49.864],[6.2355,49.86305],[6.23554,49.86282],[6.23545,49.86271],[6.23411,49.86252],[6.23373,49.86234],[6.23228,49.86139],[6.23026,49.85971],[6.22977,49.85884],[6.22973,49.8585],[6.22966,49.85843],[6.22502,49.85635],[6.22055,49.85374],[6.2185,49.85303],[6.2166,49.85315],[6.21623,49.85322],[6.21594,49.85338],[6.21578,49.85365],[6.21562,49.85518],[6.21533,49.85605],[6.21545,49.8565],[6.2154,49.85715],[6.21263,49.85649],[6.21166,49.85656],[6.20988,49.85702],[6.20883,49.85692],[6.20764,49.85671],[6.20626,49.85667],[6.20462,49.85684],[6.20293,49.8567],[6.20209,49.85657],[6.20193,49.85663],[6.2019,49.85694],[6.20172,49.85704],[6.20101,49.85678],[6.20045,49.85672],[6.19983,49.85656],[6.199,49.8562],[6.19862,49.85611],[6.19427,49.85608],[6.1935,49.85655],[6.1922,49.85716],[6.19085,49.85761],[6.19008,49.85826],[6.18978,49.85844],[6.18886,49.85871],[6.18705,49.86029],[6.1867,49.86051],[6.18605,49.86129],[6.18611,49.86152],[6.18632,49.86172],[6.1874,49.86209],[6.1882,49.8622],[6.18951,49.86267],[6.18983,49.86286],[6.19017,49.8632],[6.19148,49.86356],[6.19356,49.864],[6.20002,49.86424],[6.20325,49.86456],[6.20352,49.86454],[6.20368,49.8644],[6.20379,49.86452],[6.20411,49.8646],[6.20434,49.8648],[6.20494,49.86474],[6.2054,49.86483],[6.20615,49.86477],[6.20649,49.86464],[6.20675,49.86425],[6.20682,49.86387],[6.20669,49.86377],[6.20688,49.86371],[6.20846,49.86381],[6.20857,49.86391],[6.20858,49.86412],[6.20842,49.86456],[6.20836,49.86507],[6.20849,49.86525],[6.21182,49.86752],[6.21296,49.86803],[6.21421,49.8684],[6.21606,49.86967],[6.21731,49.86994],[6.21737,49.87016],[6.21726,49.87056],[6.21733,49.87061],[6.21713,49.87091],[6.21708,49.87122],[6.21725,49.87185],[6.2174,49.87208],[6.21733,49.87211],[6.21765,49.87246],[6.21767,49.87269],[6.21781,49.87272],[6.21751,49.87353],[6.21735,49.87376],[6.21733,49.87399],[6.21718,49.87436],[6.21789,49.87474],[6.21747,49.87556]]]}}