{"type":"Feature","properties":{"name":"Auto-Pédestre Boevange","source":"geoportail"},"geometry":{"type":"MultiLineString","coordinates":[[[5.93252,50.04603],[5.93243,50.046],[5.93325,50.04533],[5.93329,50.04524],[5.93416,50.04483],[5.93458,50.04446],[5.93495,50.04426],[5.9357,50.044],[5.93662,50.04315],[5.93753,50.04264],[5.93882,50.04221],[5.94127,50.04183],[5.94199,50.04146],[5.94247,50.04133],[5.94289,50.04129],[5.94318,50.04138],[5.94525,50.04272],[5.94605,50.0429],[5.94728,50.04352],[5.94767,50.0436],[5.94823,50.04352],[5.94837,50.0434],[5.94899,50.04244],[5.95047,50.04055],[5.95122,50.03938],[5.95097,50.03864],[5.95057,50.03798],[5.94946,50.03704],[5.94902,50.03676],[5.94833,50.03644],[5.94441,50.03529],[5.94052,50.03332],[5.94034,50.03306],[5.94032,50.03287],[5.94065,50.03221],[5.9407,50.03199],[5.94066,50.03164],[5.94048,50.03107],[5.93982,50.03031],[5.93922,50.02998],[5.93892,50.02935],[5.93852,50.02887],[5.9375,50.02795],[5.93679,50.02768],[5.93544,50.02737],[5.93428,50.02663],[5.93427,50.02642],[5.93464,50.02596],[5.93485,50.02509],[5.93532,50.02465],[5.93539,50.02373],[5.93523,50.0234],[5.93435,50.0229],[5.93402,50.0228],[5.93374,50.02297],[5.93299,50.02376],[5.93253,50.02413],[5.93176,50.02454],[5.93105,50.02479],[5.93028,50.02525],[5.9294,50.02604],[5.92939,50.02644],[5.92966,50.02694],[5.93011,50.02755],[5.93075,50.02824],[5.93105,50.02889],[5.93104,50.02904],[5.93078,50.02951],[5.93069,50.03063],[5.93041,50.03112],[5.93042,50.03185],[5.93104,50.03273],[5.9313,50.03324],[5.9316,50.03439],[5.93179,50.03471],[5.93427,50.03715],[5.93573,50.0381],[5.93684,50.0387],[5.93754,50.03886],[5.93891,50.03882],[5.93938,50.03896],[5.93971,50.0393],[5.93992,50.04023],[5.94128,50.04064],[5.94147,50.04078],[5.9415,50.04098],[5.94134,50.04181],[5.93867,50.04224],[5.93753,50.04264],[5.93662,50.04315],[5.9357,50.044],[5.93494,50.04426],[5.93458,50.04446],[5.93416,50.04483],[5.93329,50.04524],[5.93325,50.04533],[5.93243,50.046],[5.93252,50.04603]]]}}