{"type":"Feature","properties":{"name":"Auto-Pédestre Bourscheid","source":"geoportail"},"geometry":{"type":"MultiLineString","coordinates":[[[6.06454,49.90988],[6.06305,49.90939],[6.06267,49.9101],[6.06109,49.9099],[6.06075,49.91001],[6.06052,49.91031],[6.06033,49.91099],[6.05972,49.91102],[6.05958,49.91206],[6.05851,49.91323],[6.05834,49.91409],[6.05745,49.91443],[6.05634,49.91456],[6.05584,49.91444],[6.05507,49.91393],[6.0547,49.91396],[6.05455,49.91405],[6.05444,49.91429],[6.05432,49.91516],[6.05463,49.91484],[6.05478,49.91485],[6.0554,49.91586],[6.05558,49.91601],[6.05709,49.91602],[6.0589,49.91656],[6.05909,49.9165],[6.05977,49.91582],[6.05998,49.91577],[6.06035,49.91634],[6.06061,49.91721],[6.06085,49.91764],[6.06109,49.91778],[6.06248,49.91826],[6.06386,49.91912],[6.06449,49.91918],[6.06687,49.91902],[6.06762,49.91918],[6.06806,49.91935],[6.06813,49.91945],[6.06789,49.91948],[6.06801,49.91951],[6.0682,49.91943],[6.06833,49.91908],[6.06855,49.91883],[6.06928,49.91822],[6.06948,49.91813],[6.06946,49.91797],[6.06955,49.91786],[6.07026,49.91768],[6.07124,49.91723],[6.07131,49.91716],[6.07128,49.91695],[6.07142,49.91676],[6.07285,49.91629],[6.07357,49.91602],[6.07374,49.91588],[6.07426,49.9149],[6.07445,49.91421],[6.07449,49.91368],[6.07435,49.91352],[6.07409,49.9134],[6.07276,49.91305],[6.07254,49.91292],[6.07338,49.91266],[6.07369,49.91238],[6.07394,49.91204],[6.0743,49.91098],[6.07427,49.91079],[6.07408,49.91044],[6.07409,49.91017],[6.0742,49.90984],[6.07459,49.90954],[6.07449,49.90919],[6.07457,49.90864],[6.07479,49.90815],[6.07504,49.90798],[6.07513,49.90756],[6.07526,49.90736],[6.07546,49.90716],[6.0776,49.90613],[6.07677,49.90633],[6.07464,49.90641],[6.07249,49.9069],[6.07115,49.9074],[6.07114,49.90753],[6.07043,49.90773],[6.06919,49.90832],[6.06826,49.90867],[6.06535,49.90934],[6.0653,49.90943],[6.06542,49.9095],[6.06532,49.90964],[6.06489,49.9097],[6.06454,49.90988]]]}}