{"type":"Feature","properties":{"name":"Auto-Pédestre Buschdorf","source":"geoportail"},"geometry":{"type":"MultiLineString","coordinates":[[[6.0074,49.75074],[6.00739,49.75068],[6.00814,49.75058],[6.00955,49.75066],[6.01,49.75072],[6.01119,49.75102],[6.01538,49.75149],[6.01563,49.75165],[6.0161,49.75176],[6.01827,49.75162],[6.01872,49.75186],[6.01972,49.75212],[6.02054,49.75201],[6.0219,49.75154],[6.02226,49.75148],[6.02283,49.75149],[6.02325,49.75158],[6.02438,49.7521],[6.02564,49.75221],[6.02613,49.75234],[6.02678,49.75259],[6.02731,49.75289],[6.02751,49.75314],[6.02816,49.75356],[6.02834,49.75382],[6.02815,49.75413],[6.02816,49.75447],[6.0281,49.75463],[6.02701,49.75596],[6.02697,49.75611],[6.02708,49.7564],[6.02731,49.75665],[6.02799,49.75682],[6.0294,49.75742],[6.02955,49.75763],[6.03022,49.75794],[6.03058,49.75817],[6.03075,49.75837],[6.03134,49.75873],[6.03179,49.75884],[6.03204,49.75897],[6.03213,49.75895],[6.03235,49.75917],[6.03239,49.7588],[6.03251,49.75897],[6.03258,49.75875],[6.03273,49.759],[6.03279,49.75898],[6.03262,49.75855],[6.03244,49.75775],[6.032,49.75693],[6.03171,49.75667],[6.03174,49.75628],[6.03196,49.75602],[6.03223,49.756],[6.03215,49.75565],[6.03202,49.75552],[6.0321,49.75534],[6.03273,49.755],[6.03356,49.75475],[6.03373,49.75462],[6.03375,49.75448],[6.03358,49.75432],[6.03343,49.75426],[6.03284,49.75425],[6.03232,49.75409],[6.032,49.75391],[6.03187,49.75378],[6.03149,49.75288],[6.03196,49.75239],[6.03211,49.75213],[6.03291,49.75174],[6.03351,49.75135],[6.03353,49.75196],[6.03366,49.75237],[6.03389,49.75272],[6.03449,49.75338],[6.03489,49.75399],[6.03533,49.75497],[6.03542,49.75475],[6.03551,49.75482],[6.03558,49.75538],[6.03595,49.75606],[6.03631,49.75628],[6.03779,49.75686],[6.03806,49.75728],[6.03925,49.75768],[6.03939,49.75784],[6.03941,49.75799],[6.03886,49.75893],[6.03869,49.75906],[6.03817,49.75918],[6.03638,49.75932],[6.03579,49.75944],[6.03567,49.75941],[6.0345,49.75974],[6.03403,49.75962],[6.03351,49.7603],[6.0328,49.7608],[6.02924,49.75955],[6.02834,49.75906],[6.02709,49.75881],[6.02488,49.75813],[6.02465,49.758],[6.02392,49.75744],[6.02305,49.75651],[6.02224,49.75582],[6.0217,49.75519],[6.02057,49.75483],[6.02012,49.75447],[6.01927,49.75364],[6.01518,49.75293],[6.01473,49.75248],[6.01469,49.75216],[6.01493,49.75185],[6.01533,49.75151],[6.01117,49.75105],[6.01,49.75075],[6.00955,49.75069],[6.00814,49.75062],[6.00751,49.75069],[6.00743,49.75075]]]}}