{"type":"Feature","properties":{"name":"Auto-Pédestre Consdorf-Müllerthal","source":"geoportail"},"geometry":{"type":"MultiLineString","coordinates":[[[6.32791,49.77884],[6.32789,49.77879],[6.32727,49.77871],[6.32725,49.77864],[6.32708,49.7786],[6.32687,49.77861],[6.32647,49.7788],[6.32525,49.77909],[6.3249,49.77925],[6.32353,49.77933],[6.32265,49.77924],[6.32099,49.77937],[6.3203,49.77956],[6.31966,49.77982],[6.31924,49.7801],[6.31904,49.78011],[6.31835,49.78041],[6.31746,49.78101],[6.31691,49.78101],[6.31661,49.78119],[6.31624,49.78121],[6.31555,49.78113],[6.31509,49.78068],[6.31469,49.78045],[6.31453,49.78011],[6.31443,49.78007],[6.31424,49.77981],[6.31397,49.77967],[6.31394,49.77978],[6.31417,49.78],[6.31417,49.78019],[6.31405,49.78039],[6.31423,49.78062],[6.31416,49.78073],[6.31419,49.78079],[6.31446,49.78103],[6.31462,49.78127],[6.3151,49.78154],[6.31535,49.78179],[6.31566,49.78192],[6.31572,49.78206],[6.31592,49.78215],[6.31597,49.78238],[6.31596,49.78253],[6.31585,49.78269],[6.31584,49.78305],[6.3161,49.78324],[6.31614,49.78347],[6.31586,49.78393],[6.31579,49.78419],[6.31581,49.78506],[6.31566,49.78556],[6.31548,49.78574],[6.3154,49.78594],[6.31466,49.78662],[6.31345,49.78712],[6.31306,49.78748],[6.31243,49.7878],[6.31206,49.7879],[6.31162,49.78795],[6.31111,49.78788],[6.3102,49.78762],[6.30937,49.78722],[6.30844,49.7871],[6.3082,49.78698],[6.3071,49.78697],[6.30675,49.78687],[6.30576,49.7863],[6.30489,49.78593],[6.30388,49.78573],[6.30273,49.78526],[6.30221,49.7852],[6.30199,49.78506],[6.30192,49.78513],[6.30126,49.7851],[6.30061,49.78486],[6.30009,49.78482],[6.29938,49.7845],[6.29953,49.78471],[6.29947,49.78503],[6.29907,49.78507],[6.29906,49.78531],[6.29894,49.78551],[6.29907,49.78578],[6.29961,49.78644],[6.29962,49.7866],[6.29987,49.78706],[6.30063,49.78762],[6.30149,49.78814],[6.30142,49.78825],[6.30145,49.78836],[6.3017,49.78841],[6.30201,49.78859],[6.30145,49.78892],[6.3015,49.78901],[6.30136,49.78918],[6.30109,49.78933],[6.30107,49.78952],[6.30126,49.78964],[6.30124,49.78992],[6.30168,49.79036],[6.30177,49.79026],[6.30168,49.79014],[6.30166,49.78985],[6.30174,49.78968],[6.30223,49.7893],[6.30248,49.78927],[6.30257,49.78933],[6.30311,49.78914],[6.30345,49.78919],[6.30373,49.78904],[6.30415,49.7891],[6.30509,49.78948],[6.30529,49.78991],[6.30658,49.79094],[6.30687,49.79068],[6.30735,49.7904],[6.30754,49.79039],[6.30866,49.79118],[6.30903,49.79103],[6.30919,49.79111],[6.30967,49.79076],[6.31013,49.79069],[6.31172,49.79135],[6.31196,49.79154],[6.31223,49.79194],[6.31266,49.79223],[6.31281,49.79202],[6.31295,49.79195],[6.3135,49.79187],[6.31393,49.79166],[6.3143,49.79137],[6.31452,49.79134],[6.31534,49.79145],[6.31589,49.79168],[6.31636,49.79177],[6.31675,49.79193],[6.31735,49.79244],[6.3177,49.7926],[6.31787,49.79283],[6.31951,49.79361],[6.31918,49.7933],[6.31919,49.79312],[6.31908,49.79306],[6.31908,49.79295],[6.31897,49.79295],[6.31887,49.79284],[6.31884,49.79277],[6.31895,49.79261],[6.31888,49.79241],[6.31863,49.79226],[6.31846,49.79206],[6.31848,49.7917],[6.31837,49.79148],[6.31849,49.79124],[6.31837,49.79084],[6.3188,49.79046],[6.31907,49.78994],[6.31979,49.78975],[6.32067,49.78976],[6.32161,49.78992],[6.32263,49.79024],[6.32333,49.79034],[6.32346,49.7903],[6.32345,49.79022],[6.32284,49.79],[6.32257,49.78986],[6.32248,49.78974],[6.32241,49.78962],[6.32257,49.78963],[6.32263,49.78945],[6.32245,49.7894],[6.32224,49.78906],[6.32199,49.78883],[6.32201,49.78849],[6.32159,49.78774],[6.3216,49.78715],[6.32175,49.78691],[6.32215,49.78671],[6.32214,49.78664],[6.32262,49.7867],[6.3223,49.78628],[6.32239,49.7862],[6.32237,49.78579],[6.32225,49.78552],[6.3224,49.78533],[6.32246,49.78513],[6.32228,49.78495],[6.3221,49.78457],[6.32196,49.78355],[6.32211,49.78314],[6.32208,49.78297],[6.32224,49.78266],[6.32221,49.78257],[6.32242,49.78234],[6.32323,49.78192],[6.32376,49.78195],[6.32497,49.78169],[6.32604,49.78134],[6.32676,49.78145],[6.32737,49.78143],[6.32798,49.78156],[6.32942,49.78173],[6.33016,49.78149],[6.33114,49.78157],[6.33247,49.78133],[6.33267,49.78122],[6.3309,49.78088],[6.32973,49.7805],[6.32827,49.78016],[6.32769,49.77989],[6.32708,49.77973],[6.3271,49.77965],[6.32722,49.77958],[6.32814,49.77937],[6.32808,49.7791],[6.3278,49.77914],[6.32759,49.77907],[6.32788,49.77887]]]}}