{"type":"Feature","properties":{"name":"Auto-Pédestre Derenbach","source":"geoportail"},"geometry":{"type":"MultiLineString","coordinates":[[[5.88829,50.01449],[5.88796,50.01417],[5.88797,50.014],[5.88812,50.01374],[5.88831,50.01369],[5.88889,50.0133],[5.88981,50.01294],[5.88985,50.01284],[5.88975,50.01248],[5.88977,50.01232],[5.89,50.01212],[5.89049,50.01186],[5.89064,50.01191],[5.892,50.01293],[5.89269,50.01371],[5.89304,50.01381],[5.89485,50.01375],[5.89782,50.0131],[5.89808,50.01317],[5.8984,50.01337],[5.89874,50.01344],[5.89955,50.01337],[5.90037,50.01322],[5.90273,50.01311],[5.90497,50.01352],[5.9064,50.01363],[5.90647,50.01355],[5.90653,50.0132],[5.90598,50.01265],[5.90508,50.012],[5.90421,50.01123],[5.90353,50.01076],[5.90341,50.01026],[5.90325,50.00997],[5.90316,50.00923],[5.90234,50.00822],[5.9025,50.00793],[5.90284,50.00772],[5.90283,50.00766],[5.90211,50.00734],[5.90128,50.00721],[5.90037,50.00672],[5.90078,50.00632],[5.90058,50.00625],[5.90131,50.00517],[5.90161,50.00446],[5.90097,50.00435],[5.90032,50.0041],[5.90027,50.00403],[5.90024,50.00337],[5.89985,50.00303],[5.89954,50.00265],[5.89938,50.00236],[5.89911,50.00149],[5.89861,50.00097],[5.89844,50.00067],[5.89849,50.00039],[5.89888,50.0],[5.89888,49.99975],[5.89773,49.99846],[5.89702,49.99839],[5.8968,49.99818],[5.89666,49.99816],[5.89632,49.99829],[5.89604,49.9983],[5.89485,49.99871],[5.8933,49.99946],[5.89237,50.00024],[5.88975,50.00179],[5.88954,50.00176],[5.88905,50.00142],[5.8888,50.00132],[5.88733,50.00125],[5.88638,50.00131],[5.88527,50.00193],[5.88514,50.0023],[5.8852,50.00254],[5.8852,50.0032],[5.8854,50.00371],[5.88543,50.00406],[5.88503,50.00491],[5.88497,50.00531],[5.88485,50.00556],[5.88478,50.0061],[5.88487,50.0061],[5.88501,50.00655],[5.88512,50.00726],[5.88509,50.00763],[5.88482,50.00825],[5.88392,50.00947],[5.88372,50.0099],[5.88362,50.00989],[5.88348,50.01044],[5.88335,50.01056],[5.88212,50.01044],[5.88186,50.01046],[5.87999,50.01082],[5.87812,50.01128],[5.87807,50.0112],[5.87815,50.01071],[5.8781,50.01044],[5.87818,50.01012],[5.87831,50.0099],[5.87881,50.00933],[5.87902,50.00917],[5.88033,50.00861],[5.88058,50.00832],[5.88063,50.00813],[5.87941,50.00733],[5.87821,50.00681],[5.87708,50.00619],[5.8765,50.00594],[5.87536,50.00637],[5.87507,50.00621],[5.87506,50.00599],[5.87482,50.00531],[5.87454,50.00502],[5.87385,50.00449],[5.87362,50.00384],[5.87349,50.00372],[5.87301,50.00344],[5.87279,50.00338],[5.87268,50.00339],[5.87259,50.00349],[5.87269,50.00385],[5.87272,50.00512],[5.87243,50.00559],[5.87217,50.00582],[5.87145,50.00626],[5.87132,50.00661],[5.87155,50.00714],[5.87187,50.00756],[5.87235,50.00804],[5.87183,50.00825],[5.87019,50.00838],[5.86886,50.0086],[5.8686,50.00871],[5.86767,50.00934],[5.87207,50.01108],[5.87388,50.0115],[5.87496,50.01167],[5.87516,50.01174],[5.87547,50.01203],[5.87545,50.01211],[5.8743,50.01302],[5.87353,50.01375],[5.87296,50.01401],[5.87195,50.01429],[5.8706,50.01435],[5.86948,50.01427],[5.87062,50.0147],[5.87063,50.01478],[5.87055,50.01484],[5.86816,50.01536],[5.86749,50.0154],[5.86666,50.01534],[5.86595,50.01545],[5.86832,50.01599],[5.86829,50.01603],[5.86911,50.01633],[5.87038,50.01646],[5.87084,50.01657],[5.87124,50.01676],[5.87186,50.01721],[5.87209,50.01729],[5.87251,50.01728],[5.87266,50.01722],[5.87274,50.01711],[5.87279,50.01668],[5.87293,50.0166],[5.87417,50.01646],[5.87572,50.01665],[5.87632,50.01665],[5.87734,50.01624],[5.87894,50.01592],[5.88022,50.01573],[5.88294,50.01553],[5.88316,50.01541],[5.88351,50.01556],[5.88429,50.01547],[5.88477,50.01553],[5.88718,50.01628],[5.88739,50.01584],[5.88752,50.01509],[5.88829,50.01449],[5.88868,50.01459],[5.88928,50.01449]]]}}