{"type":"Feature","properties":{"name":"Auto-Pédestre Echternach / Lac","source":"geoportail"},"geometry":{"type":"MultiLineString","coordinates":[[[6.40817,49.80475],[6.40872,49.80457],[6.4086,49.80425],[6.40861,49.80397],[6.40827,49.80386],[6.40748,49.80377],[6.40658,49.80314],[6.40616,49.8026],[6.40557,49.8016],[6.40443,49.79998],[6.40427,49.79991],[6.40434,49.80028],[6.40432,49.80108],[6.40428,49.80116],[6.40407,49.80119],[6.4037,49.80111],[6.40315,49.80157],[6.40297,49.80163],[6.40285,49.80159],[6.4032,49.80142],[6.40333,49.80086],[6.40325,49.8005],[6.40345,49.80029],[6.40347,49.80007],[6.40334,49.79981],[6.40267,49.7996],[6.40233,49.79941],[6.40213,49.79908],[6.40195,49.79841],[6.40205,49.79509],[6.40254,49.79382],[6.40326,49.79283],[6.40353,49.79232],[6.40488,49.79242],[6.40529,49.79252],[6.40555,49.7925],[6.40691,49.79127],[6.40754,49.79114],[6.40783,49.79089],[6.40834,49.79079],[6.40873,49.79039],[6.40939,49.79025],[6.40955,49.7903],[6.40945,49.79055],[6.40852,49.79133],[6.40838,49.79152],[6.4076,49.792],[6.40727,49.79245],[6.40678,49.79292],[6.40578,49.79369],[6.40519,49.79446],[6.40503,49.79471],[6.40469,49.79613],[6.40475,49.79664],[6.40497,49.79698],[6.40557,49.79628],[6.40617,49.79577],[6.40617,49.7956],[6.40639,49.79546],[6.40649,49.79525],[6.40707,49.79514],[6.40757,49.79492],[6.40856,49.79414],[6.40952,49.79385],[6.41012,49.79355],[6.41035,49.79332],[6.41055,49.79324],[6.41074,49.7933],[6.41075,49.7934],[6.41058,49.79375],[6.40946,49.79464],[6.40941,49.79502],[6.40892,49.79555],[6.4088,49.79624],[6.40887,49.79632],[6.40901,49.79634],[6.41028,49.79601],[6.41051,49.79607],[6.41041,49.79651],[6.41006,49.79725],[6.41102,49.79658],[6.41082,49.79718],[6.41091,49.79733],[6.41069,49.79748],[6.41057,49.79765],[6.41069,49.79777],[6.41134,49.79796],[6.41162,49.79756],[6.41198,49.79744],[6.41194,49.79737],[6.41205,49.79725],[6.41204,49.79703],[6.41228,49.79697],[6.41232,49.79666],[6.41259,49.7965],[6.41293,49.79644],[6.41334,49.79623],[6.41344,49.79604],[6.41333,49.79578],[6.41349,49.79561],[6.41373,49.79518],[6.41387,49.79503],[6.41438,49.79478],[6.41481,49.79445],[6.41511,49.79438],[6.41602,49.7944],[6.4168,49.7943],[6.41724,49.79476],[6.41742,49.79514],[6.41787,49.79562],[6.41793,49.79606],[6.41788,49.79618],[6.41704,49.79673],[6.4167,49.79715],[6.41665,49.79765],[6.41637,49.79796],[6.41642,49.79823],[6.41628,49.79865],[6.41629,49.79879],[6.41645,49.79899],[6.41648,49.79912],[6.41632,49.79942],[6.41598,49.7997],[6.41589,49.79993],[6.41549,49.80047],[6.4156,49.80098],[6.41525,49.80163],[6.41451,49.80201],[6.41423,49.802],[6.41364,49.80228],[6.41314,49.80241],[6.41319,49.80282],[6.41307,49.80308],[6.4124,49.80337],[6.41186,49.80381],[6.41128,49.80415],[6.41058,49.80438],[6.41024,49.80458],[6.41009,49.80458],[6.40984,49.80452],[6.4093,49.8042],[6.40876,49.80401],[6.40867,49.80405],[6.40863,49.80426],[6.40875,49.80458],[6.40815,49.80479]]]}}