{"type":"Feature","properties":{"name":"Auto-Pédestre Ermsdorf","source":"geoportail"},"geometry":{"type":"MultiLineString","coordinates":[[[6.22449,49.82693],[6.22583,49.82643],[6.22604,49.82623],[6.22632,49.82612],[6.2266,49.82586],[6.22696,49.82536],[6.22732,49.8251],[6.22856,49.82467],[6.22889,49.82462],[6.22895,49.82479],[6.22886,49.8256],[6.22892,49.82601],[6.22947,49.8266],[6.23043,49.82737],[6.23108,49.82757],[6.2323,49.82812],[6.23284,49.82848],[6.23326,49.82909],[6.23383,49.82933],[6.23405,49.82935],[6.23573,49.82901],[6.23578,49.82944],[6.23572,49.83017],[6.23543,49.8307],[6.23441,49.83176],[6.23269,49.83312],[6.23231,49.83364],[6.23217,49.83414],[6.2322,49.83459],[6.23259,49.83541],[6.23265,49.8357],[6.23247,49.83669],[6.2324,49.83748],[6.23279,49.83872],[6.23303,49.83903],[6.23387,49.83991],[6.23402,49.83993],[6.23445,49.8398],[6.23469,49.83983],[6.23514,49.84023],[6.23555,49.84079],[6.23618,49.84147],[6.23647,49.84235],[6.2367,49.84262],[6.23697,49.8428],[6.23785,49.84299],[6.23605,49.84292],[6.23423,49.84328],[6.23114,49.84314],[6.23058,49.84297],[6.23015,49.84265],[6.22968,49.84171],[6.22987,49.84108],[6.22976,49.84084],[6.22937,49.84051],[6.22885,49.8404],[6.22864,49.84027],[6.22802,49.83947],[6.22752,49.839],[6.2269,49.83864],[6.22602,49.8383],[6.22433,49.83789],[6.22422,49.83792],[6.22524,49.83869],[6.22547,49.83898],[6.22558,49.8394],[6.22546,49.8394],[6.22477,49.83911],[6.22388,49.83923],[6.22344,49.83905],[6.22285,49.83899],[6.22195,49.83875],[6.22182,49.83839],[6.2215,49.83833],[6.22092,49.83738],[6.22083,49.83734],[6.2195,49.83708],[6.219,49.83692],[6.21676,49.83658],[6.21673,49.83633],[6.2155,49.83592],[6.21738,49.83369],[6.21768,49.83319],[6.2184,49.83283],[6.21858,49.83263],[6.2183,49.83107],[6.21785,49.83006],[6.21943,49.82956],[6.2208,49.82938],[6.22083,49.82924],[6.22064,49.82882],[6.22112,49.82855],[6.22134,49.82851],[6.22206,49.82863],[6.22229,49.82882],[6.22318,49.82921],[6.22326,49.82917],[6.22312,49.82903],[6.22314,49.82893],[6.22328,49.8288],[6.22328,49.82861],[6.22273,49.82771],[6.22268,49.82753],[6.22274,49.82742],[6.22294,49.82732],[6.22378,49.8272],[6.22447,49.82692]]]}}