{"type":"Feature","properties":{"name":"Auto-Pédestre Eschweiler","source":"geoportail"},"geometry":{"type":"MultiLineString","coordinates":[[[5.94793,49.996],[5.94766,49.9957],[5.94758,49.99569],[5.94763,49.99555],[5.94827,49.99485],[5.94822,49.99483],[5.94881,49.99434],[5.94934,49.99332],[5.94998,49.99253],[5.94981,49.99244],[5.94865,49.99227],[5.94732,49.992],[5.9468,49.99197],[5.94662,49.99215],[5.94656,49.99214],[5.94667,49.9919],[5.94658,49.99163],[5.94648,49.99151],[5.94615,49.9914],[5.94609,49.99132],[5.94612,49.99086],[5.94589,49.99009],[5.94588,49.98972],[5.946,49.98943],[5.94624,49.98913],[5.94688,49.98871],[5.94698,49.98847],[5.94773,49.98822],[5.94808,49.98782],[5.94818,49.98754],[5.9481,49.98711],[5.948,49.98703],[5.94749,49.98696],[5.94746,49.98681],[5.94758,49.98663],[5.94806,49.98628],[5.95117,49.98478],[5.95171,49.98441],[5.95195,49.98418],[5.95205,49.98399],[5.95221,49.98336],[5.95217,49.98286],[5.95139,49.98322],[5.95087,49.98335],[5.9499,49.98344],[5.9484,49.98395],[5.94672,49.98402],[5.94571,49.98424],[5.94458,49.98466],[5.94411,49.98492],[5.94271,49.98601],[5.94183,49.9868],[5.94041,49.98737],[5.93888,49.98783],[5.93848,49.98807],[5.93802,49.98849],[5.93747,49.98878],[5.93705,49.98892],[5.93592,49.98912],[5.93352,49.99005],[5.93206,49.99031],[5.9303,49.99085],[5.92926,49.99106],[5.92882,49.99131],[5.9284,49.99166],[5.92646,49.9927],[5.92634,49.99288],[5.92588,49.9931],[5.92552,49.99344],[5.92524,49.99397],[5.92478,49.99431],[5.92343,49.99512],[5.9235,49.9955],[5.92319,49.9961],[5.92468,49.99652],[5.92583,49.99715],[5.92582,49.99728],[5.92535,49.99759],[5.92504,49.99804],[5.92499,49.99857],[5.92504,49.99875],[5.92518,49.99882],[5.92607,49.99841],[5.92766,49.9975],[5.92818,49.9975],[5.92876,49.99759],[5.92945,49.99732],[5.9327,49.99691],[5.93346,49.99671],[5.93465,49.99625],[5.93601,49.99594],[5.93773,49.99526],[5.93859,49.99507],[5.93891,49.99505],[5.93902,49.99511],[5.93902,49.99552],[5.93911,49.99557],[5.93982,49.99531],[5.9414,49.99502],[5.94253,49.99564],[5.94398,49.99621],[5.94585,49.99658],[5.94669,49.99598],[5.94722,49.99598],[5.9476,49.99577],[5.94786,49.99602],[5.94793,49.996]]]}}