{"type":"Feature","properties":{"name":"Auto-Pédestre Esch-sur-Sûre","source":"geoportail"},"geometry":{"type":"MultiLineString","coordinates":[[[5.9368,49.90983],[5.93652,49.90976],[5.93553,49.90987],[5.93524,49.9103],[5.93513,49.91022],[5.93509,49.90993],[5.93565,49.90959],[5.93569,49.90943],[5.93545,49.90937],[5.93504,49.9096],[5.93457,49.90885],[5.93429,49.9087],[5.9342,49.90898],[5.93413,49.90887],[5.93403,49.90776],[5.93337,49.9072],[5.93311,49.90719],[5.93301,49.90747],[5.93246,49.90763],[5.9314,49.90709],[5.9308,49.90693],[5.93014,49.90684],[5.9289,49.90676],[5.92825,49.90679],[5.92759,49.90688],[5.92672,49.90713],[5.92536,49.90772],[5.92469,49.9082],[5.9237,49.90936],[5.92375,49.90948],[5.92354,49.90974],[5.92345,49.90984],[5.9233,49.90986],[5.92281,49.91035],[5.92244,49.91106],[5.92245,49.91129],[5.92265,49.91161],[5.92295,49.91178],[5.92343,49.91188],[5.9239,49.91184],[5.92465,49.91155],[5.92536,49.91096],[5.92596,49.9106],[5.92683,49.91035],[5.92713,49.91031],[5.92716,49.91037],[5.92581,49.91107],[5.92568,49.91123],[5.92553,49.91159],[5.92512,49.91191],[5.92439,49.91224],[5.9238,49.91238],[5.92229,49.91313],[5.92069,49.91344],[5.91943,49.91341],[5.91845,49.91364],[5.918,49.91359],[5.91763,49.91396],[5.91733,49.91453],[5.9172,49.91495],[5.91718,49.9153],[5.91727,49.91581],[5.91724,49.91637],[5.91732,49.91697],[5.91724,49.91704],[5.91657,49.91678],[5.91609,49.91626],[5.91558,49.91616],[5.91521,49.9159],[5.91516,49.91552],[5.9146,49.91458],[5.91445,49.91383],[5.91447,49.91375],[5.91466,49.91368],[5.91483,49.91351],[5.91473,49.91306],[5.91449,49.91262],[5.91468,49.91231],[5.91478,49.91164],[5.9149,49.91131],[5.91451,49.91109],[5.91452,49.91094],[5.91434,49.9108],[5.91436,49.91099],[5.91425,49.91109],[5.91424,49.91135],[5.91402,49.91167],[5.9136,49.91187],[5.91348,49.91216],[5.91301,49.91242],[5.91244,49.91259],[5.91109,49.91281],[5.90886,49.91295],[5.9085,49.91306],[5.90835,49.91323],[5.90963,49.91486],[5.90998,49.91505],[5.91027,49.91537],[5.91057,49.91552],[5.91127,49.91542],[5.91228,49.91568],[5.91232,49.91529],[5.91212,49.91496],[5.91202,49.91463],[5.91221,49.91427],[5.9126,49.91408],[5.91307,49.91398],[5.91362,49.91404],[5.91397,49.91418],[5.91442,49.91533],[5.9144,49.91546],[5.91417,49.91578],[5.91418,49.916],[5.91451,49.91635],[5.91495,49.91666],[5.91501,49.9169],[5.91563,49.91791],[5.91651,49.91881],[5.91617,49.91921],[5.91698,49.91948],[5.91779,49.91988],[5.91826,49.92036],[5.91935,49.92101],[5.92038,49.92139],[5.92306,49.92211],[5.92506,49.92284],[5.92599,49.92328],[5.92679,49.92353],[5.92717,49.92361],[5.92896,49.92372],[5.93011,49.92368],[5.92975,49.92244],[5.9298,49.92207],[5.93017,49.9211],[5.9301,49.92052],[5.92991,49.91992],[5.92986,49.91928],[5.9298,49.91916],[5.92939,49.91882],[5.92925,49.9186],[5.92813,49.91773],[5.92773,49.91711],[5.92743,49.91506],[5.92748,49.91483],[5.92781,49.9145],[5.92811,49.91432],[5.92848,49.91385],[5.92851,49.9137],[5.92844,49.91354],[5.92857,49.91311],[5.92874,49.9129],[5.92934,49.9124],[5.93098,49.91176],[5.93123,49.91176],[5.93215,49.91153],[5.93349,49.91154],[5.93433,49.91179],[5.93488,49.91188],[5.935,49.91181],[5.93503,49.91171],[5.93492,49.91141],[5.93497,49.91101],[5.93524,49.9103],[5.93549,49.90988],[5.93661,49.90976],[5.9368,49.90983]]]}}