{"type":"Feature","properties":{"name":"Auto-Pédestre Goesdorf","source":"geoportail"},"geometry":{"type":"MultiLineString","coordinates":[[[5.97057,49.92069],[5.96895,49.92069],[5.96903,49.9202],[5.97099,49.9189],[5.97281,49.91841],[5.97298,49.91829],[5.97327,49.91778],[5.97305,49.91739],[5.97303,49.91722],[5.97313,49.91678],[5.97339,49.91624],[5.97335,49.91608],[5.9729,49.91528],[5.97267,49.91448],[5.97257,49.91379],[5.97236,49.91346],[5.9717,49.91305],[5.97101,49.91284],[5.97025,49.91281],[5.96979,49.91286],[5.96944,49.913],[5.96935,49.91297],[5.96939,49.91262],[5.96952,49.91242],[5.96969,49.9123],[5.97012,49.91214],[5.97099,49.91212],[5.97208,49.9123],[5.97316,49.9127],[5.97431,49.91304],[5.97506,49.91309],[5.97651,49.91292],[5.97673,49.91335],[5.97685,49.9134],[5.97711,49.91324],[5.97705,49.91343],[5.97721,49.91338],[5.97715,49.91356],[5.97736,49.91349],[5.97739,49.91358],[5.97868,49.91342],[5.9798,49.91285],[5.98059,49.91281],[5.98126,49.913],[5.98168,49.91332],[5.98277,49.91364],[5.98493,49.91465],[5.98552,49.91484],[5.98583,49.91535],[5.9859,49.91581],[5.98603,49.91588],[5.98667,49.91573],[5.98731,49.91537],[5.98786,49.91541],[5.98901,49.91562],[5.99031,49.91597],[5.99052,49.91608],[5.99161,49.9164],[5.99205,49.9167],[5.99357,49.91686],[5.99432,49.91725],[5.9945,49.91746],[5.99455,49.91777],[5.99485,49.91772],[5.99528,49.91751],[5.99632,49.91757],[5.99662,49.91785],[5.99709,49.91793],[5.99738,49.91874],[5.99879,49.92072],[5.99894,49.92084],[5.99943,49.92092],[5.99961,49.92104],[5.99964,49.92119],[5.99786,49.92103],[5.99597,49.92097],[5.99468,49.92111],[5.99239,49.92122],[5.99229,49.92118],[5.99121,49.92141],[5.99047,49.92147],[5.98967,49.92145],[5.98928,49.92134],[5.98926,49.92125],[5.98971,49.92111],[5.99015,49.92108],[5.99022,49.92102],[5.99019,49.92089],[5.99006,49.92076],[5.98948,49.92045],[5.98903,49.92003],[5.98873,49.91989],[5.98799,49.91934],[5.98661,49.91928],[5.98536,49.91931],[5.9854,49.91897],[5.98556,49.91856],[5.98548,49.91846],[5.98318,49.91838],[5.98239,49.91822],[5.98033,49.91805],[5.97873,49.91815],[5.9776,49.91842],[5.97608,49.91896],[5.97424,49.91937],[5.9721,49.91967],[5.97134,49.92005],[5.97048,49.92065],[5.97057,49.92069]]]}}