{"type":"Feature","properties":{"name":"Auto-Pédestre Grevenmacher","source":"geoportail"},"geometry":{"type":"MultiLineString","coordinates":[[[6.44614,49.67853],[6.4458,49.67817],[6.4456,49.67782],[6.44482,49.67714],[6.44443,49.67698],[6.44194,49.67542],[6.44152,49.67522],[6.44113,49.67539],[6.44098,49.67532],[6.44086,49.67543],[6.44063,49.67538],[6.44057,49.6755],[6.44063,49.67561],[6.44046,49.67567],[6.44049,49.67576],[6.44039,49.67585],[6.43754,49.67723],[6.43737,49.6772],[6.43706,49.67735],[6.43639,49.67659],[6.43524,49.67473],[6.43509,49.67466],[6.43494,49.67448],[6.43437,49.67428],[6.43409,49.67409],[6.43259,49.67259],[6.43213,49.6725],[6.43208,49.67241],[6.43217,49.67218],[6.43125,49.67176],[6.43106,49.67177],[6.43097,49.67184],[6.43038,49.67149],[6.42909,49.67088],[6.42753,49.66979],[6.42715,49.66929],[6.42634,49.669],[6.42601,49.66881],[6.42576,49.66836],[6.42441,49.66728],[6.42404,49.66672],[6.42341,49.66616],[6.42312,49.66575],[6.42292,49.66528],[6.42267,49.665],[6.42193,49.66482],[6.42186,49.66475],[6.4221,49.66461],[6.42269,49.6645],[6.42288,49.66418],[6.42303,49.66334],[6.42306,49.66296],[6.42301,49.66265],[6.42315,49.66247],[6.42297,49.66247],[6.4226,49.66275],[6.42279,49.6623],[6.4232,49.66211],[6.42304,49.66158],[6.42296,49.66081],[6.42339,49.6592],[6.42352,49.65891],[6.42363,49.65882],[6.42356,49.65867],[6.42384,49.65831],[6.42381,49.65815],[6.42366,49.65813],[6.42347,49.65821],[6.4231,49.65851],[6.42295,49.65874],[6.4227,49.65888],[6.42255,49.65889],[6.42235,49.65874],[6.4222,49.65871],[6.42157,49.65885],[6.42144,49.65896],[6.42142,49.65948],[6.42117,49.65995],[6.42116,49.66036],[6.42122,49.66145],[6.42158,49.66199],[6.42162,49.66226],[6.42153,49.6626],[6.42118,49.66338],[6.421,49.66356],[6.42101,49.66367],[6.42122,49.66399],[6.42115,49.66403],[6.4214,49.6641],[6.42143,49.66431],[6.42123,49.66437],[6.41991,49.66427],[6.41988,49.66434],[6.42071,49.66479],[6.42036,49.66475],[6.4206,49.66491],[6.421,49.66535],[6.42098,49.66557],[6.42073,49.66589],[6.42102,49.66613],[6.42119,49.6661],[6.42123,49.66629],[6.42147,49.66639],[6.42186,49.66689],[6.42331,49.66824],[6.42368,49.66877],[6.42474,49.66971],[6.42416,49.66989],[6.42422,49.67019],[6.42455,49.67057],[6.42526,49.67105],[6.4261,49.67078],[6.42669,49.67051],[6.42676,49.67053],[6.4296,49.67227],[6.43142,49.67318],[6.43179,49.67346],[6.43253,49.67437],[6.43314,49.67544],[6.43336,49.67597],[6.43304,49.67616],[6.43417,49.6774],[6.43462,49.67801],[6.43576,49.67845],[6.43592,49.67841],[6.43618,49.67857],[6.43624,49.67869],[6.43726,49.67905],[6.43758,49.6793],[6.43804,49.67927],[6.4381,49.67937],[6.43833,49.67931],[6.43848,49.67919],[6.43909,49.67957],[6.43966,49.67921],[6.4401,49.67904],[6.44087,49.6794],[6.44119,49.67939],[6.44193,49.67894],[6.44266,49.6784],[6.44277,49.67839],[6.44398,49.67934],[6.44407,49.67935],[6.44576,49.67851],[6.44585,49.67859],[6.44594,49.67856],[6.44604,49.67869],[6.4462,49.67864],[6.44617,49.67856]]]}}