{"type":"Feature","properties":{"name":"Auto-Pédestre Grundhof","source":"geoportail"},"geometry":{"type":"MultiLineString","coordinates":[[[6.33089,49.8361],[6.33001,49.83592],[6.32801,49.83573],[6.32726,49.83575],[6.32616,49.83595],[6.32483,49.83652],[6.3218,49.8381],[6.32099,49.8386],[6.32013,49.8395],[6.31977,49.8401],[6.3196,49.84057],[6.3194,49.84294],[6.31952,49.84363],[6.31994,49.84514],[6.32031,49.84566],[6.3211,49.84658],[6.32134,49.84707],[6.32136,49.84732],[6.32113,49.84878],[6.32122,49.84887],[6.32157,49.84967],[6.32159,49.85019],[6.32147,49.85086],[6.32171,49.85144],[6.32148,49.8522],[6.32135,49.85227],[6.32079,49.85299],[6.32048,49.85317],[6.31996,49.85314],[6.31958,49.85291],[6.31943,49.85286],[6.31936,49.85294],[6.31927,49.85292],[6.31889,49.85275],[6.31825,49.85298],[6.31651,49.85336],[6.31637,49.85324],[6.31598,49.85208],[6.31465,49.85156],[6.31459,49.85144],[6.31463,49.85135],[6.31525,49.85087],[6.31463,49.85113],[6.3148,49.85071],[6.31482,49.85047],[6.31458,49.8496],[6.31445,49.84876],[6.31475,49.84817],[6.31516,49.84775],[6.31521,49.84758],[6.31513,49.84743],[6.31419,49.84715],[6.31351,49.84714],[6.31265,49.84702],[6.31027,49.84706],[6.30958,49.84697],[6.3076,49.84697],[6.30711,49.84691],[6.30583,49.84656],[6.3054,49.84635],[6.30537,49.84612],[6.30559,49.84618],[6.30525,49.84577],[6.30516,49.84537],[6.30654,49.84545],[6.30753,49.84578],[6.30883,49.84572],[6.30955,49.84547],[6.31079,49.84476],[6.31178,49.84468],[6.31181,49.84444],[6.31231,49.84418],[6.31241,49.84409],[6.31251,49.84385],[6.31287,49.84376],[6.31299,49.84358],[6.31332,49.84344],[6.31316,49.84297],[6.31295,49.8428],[6.31274,49.84249],[6.3121,49.84239],[6.31273,49.8417],[6.31285,49.84144],[6.31311,49.84113],[6.31417,49.84022],[6.31446,49.83991],[6.31478,49.8394],[6.31497,49.83931],[6.31537,49.8389],[6.31544,49.83876],[6.31624,49.83802],[6.31631,49.83785],[6.31626,49.83772],[6.31698,49.83711],[6.31758,49.83643],[6.31813,49.83566],[6.31921,49.83473],[6.32,49.83434],[6.32024,49.83444],[6.3207,49.8344],[6.32132,49.83399],[6.32179,49.83387],[6.32286,49.83341],[6.32361,49.8329],[6.32395,49.83288],[6.32448,49.83295],[6.3245,49.83287],[6.32433,49.83278],[6.32403,49.83272],[6.32365,49.83254],[6.32362,49.83248],[6.32379,49.83234],[6.32382,49.8321],[6.32403,49.8319],[6.3241,49.83191],[6.32402,49.83216],[6.32417,49.83241],[6.32541,49.83268],[6.32625,49.83316],[6.32656,49.8334],[6.3266,49.83351],[6.32623,49.83347],[6.32471,49.83389],[6.32415,49.83416],[6.32369,49.83449],[6.32165,49.83526],[6.32109,49.83556],[6.32067,49.83587],[6.31931,49.8373],[6.31865,49.83811],[6.31818,49.83844],[6.31782,49.83887],[6.31676,49.84123],[6.31639,49.84255],[6.31638,49.84274],[6.3165,49.84305],[6.31675,49.84212],[6.31709,49.84122],[6.31802,49.83993],[6.31868,49.83923],[6.31959,49.83842],[6.32131,49.83719],[6.32297,49.8367],[6.32435,49.83614],[6.32472,49.83606],[6.32565,49.8357],[6.32655,49.83522],[6.32686,49.83511],[6.32728,49.83513],[6.32816,49.83531],[6.32853,49.8353],[6.32885,49.83513],[6.32896,49.83501],[6.32908,49.83463],[6.32917,49.83278],[6.32952,49.83219],[6.32965,49.8318],[6.32977,49.83179],[6.32967,49.8333],[6.32976,49.83377],[6.33007,49.83469],[6.33005,49.835],[6.32985,49.83571],[6.33006,49.8358],[6.33004,49.8359],[6.33092,49.83607]]]}}