{"type":"Feature","properties":{"name":"Auto-Pédestre Harlange","source":"geoportail"},"geometry":{"type":"MultiLineString","coordinates":[[[5.78688,49.93044],[5.7865,49.93045],[5.78592,49.93059],[5.78567,49.93056],[5.78405,49.92952],[5.78297,49.92901],[5.78126,49.92804],[5.78057,49.92744],[5.7801,49.92713],[5.77968,49.92657],[5.77941,49.92601],[5.77946,49.92579],[5.7797,49.92544],[5.77976,49.9249],[5.77972,49.92376],[5.77964,49.92349],[5.77861,49.92308],[5.77817,49.92312],[5.77732,49.92298],[5.77647,49.92269],[5.7754,49.92222],[5.77403,49.92146],[5.77325,49.92076],[5.77326,49.92036],[5.77317,49.91994],[5.77345,49.91935],[5.77485,49.91869],[5.77538,49.91823],[5.77612,49.91811],[5.77517,49.91681],[5.77505,49.9161],[5.77488,49.91561],[5.7745,49.91517],[5.77427,49.91474],[5.77414,49.91431],[5.77484,49.91353],[5.775,49.91323],[5.77556,49.91269],[5.77569,49.91241],[5.77574,49.91196],[5.77611,49.9115],[5.77585,49.91065],[5.77512,49.91021],[5.77506,49.91012],[5.77557,49.91007],[5.77598,49.90969],[5.7769,49.90904],[5.77836,49.90857],[5.77854,49.90847],[5.77877,49.90818],[5.77896,49.90762],[5.77895,49.90743],[5.77848,49.90662],[5.77841,49.90577],[5.77828,49.90581],[5.778,49.90608],[5.77744,49.90694],[5.77717,49.90709],[5.77679,49.90718],[5.77539,49.90721],[5.77391,49.90681],[5.77314,49.90715],[5.77092,49.90789],[5.77033,49.90823],[5.76959,49.90882],[5.76924,49.90935],[5.76912,49.91057],[5.76905,49.91078],[5.76871,49.91114],[5.76798,49.9114],[5.76739,49.91228],[5.76693,49.91271],[5.76686,49.91293],[5.76688,49.91335],[5.76678,49.91389],[5.76627,49.91481],[5.76575,49.91521],[5.76539,49.91536],[5.76448,49.91558],[5.76448,49.91585],[5.76443,49.91593],[5.76384,49.91624],[5.76285,49.91699],[5.76197,49.91746],[5.76172,49.91769],[5.76167,49.91791],[5.76175,49.91821],[5.7624,49.91886],[5.7628,49.91966],[5.76278,49.92044],[5.76289,49.92161],[5.76236,49.92348],[5.76311,49.92383],[5.76455,49.92417],[5.7654,49.92462],[5.76644,49.92503],[5.76716,49.92524],[5.76795,49.92536],[5.76891,49.9258],[5.77327,49.92659],[5.77629,49.92769],[5.77682,49.92783],[5.77978,49.92817],[5.78127,49.92852],[5.78173,49.92867],[5.78234,49.92897],[5.78386,49.92998],[5.78442,49.93016],[5.78508,49.93021],[5.7857,49.93056],[5.78596,49.93059],[5.78652,49.93045],[5.78688,49.93044]]]}}