{"type":"Feature","properties":{"name":"Auto-Pédestre Heiderscheid","source":"geoportail"},"geometry":{"type":"MultiLineString","coordinates":[[[5.97787,49.88692],[5.97716,49.88878],[5.9768,49.88936],[5.97659,49.88955],[5.9741,49.88898],[5.97332,49.8892],[5.97272,49.88951],[5.97162,49.89064],[5.97069,49.89107],[5.96993,49.89161],[5.96805,49.89209],[5.96651,49.89214],[5.96588,49.89228],[5.96499,49.89267],[5.96409,49.89344],[5.96295,49.89427],[5.96236,49.89547],[5.96228,49.89574],[5.96196,49.89887],[5.96198,49.89963],[5.96152,49.9003],[5.96047,49.90077],[5.96013,49.90109],[5.96003,49.90139],[5.96041,49.90281],[5.96142,49.90396],[5.96167,49.90433],[5.96206,49.9047],[5.96269,49.90477],[5.96267,49.90467],[5.9629,49.90461],[5.9631,49.90435],[5.96378,49.90418],[5.96414,49.9042],[5.96562,49.90457],[5.966,49.90471],[5.9669,49.90521],[5.96769,49.90546],[5.96821,49.9058],[5.96847,49.90575],[5.9691,49.90632],[5.96966,49.90663],[5.97161,49.90697],[5.97278,49.90735],[5.97462,49.9077],[5.97571,49.90804],[5.97588,49.90821],[5.97595,49.90842],[5.9759,49.90994],[5.97606,49.91037],[5.97717,49.91058],[5.97797,49.91062],[5.97855,49.91049],[5.979,49.9102],[5.97913,49.90994],[5.97886,49.91016],[5.97851,49.9103],[5.97822,49.91027],[5.97798,49.91011],[5.9779,49.90984],[5.97789,49.90939],[5.97777,49.90901],[5.97727,49.90858],[5.97712,49.90813],[5.97696,49.90792],[5.97572,49.9068],[5.97518,49.90587],[5.97492,49.90554],[5.97413,49.90506],[5.97314,49.90463],[5.9718,49.9045],[5.97121,49.9043],[5.97061,49.90367],[5.96966,49.90322],[5.96922,49.90279],[5.96854,49.90232],[5.96723,49.90116],[5.9664,49.89988],[5.9664,49.89868],[5.96647,49.89775],[5.96654,49.89751],[5.96726,49.89706],[5.96735,49.89692],[5.96727,49.89681],[5.96623,49.89618],[5.96604,49.89598],[5.96617,49.89586],[5.96711,49.89553],[5.96864,49.89382],[5.96946,49.89326],[5.97124,49.89243],[5.97259,49.89207],[5.97379,49.89185],[5.97459,49.8916],[5.97533,49.89124],[5.97618,49.89036],[5.97655,49.88961],[5.97679,49.88936],[5.97717,49.88878],[5.97787,49.88692]]]}}