{"type":"Feature","properties":{"name":"Auto-Pédestre Hoffelt","source":"geoportail"},"geometry":{"type":"MultiLineString","coordinates":[[[5.92176,50.09982],[5.92169,50.09978],[5.92122,50.09996],[5.92097,50.09998],[5.92089,50.10006],[5.92064,50.1001],[5.92041,50.10041],[5.92001,50.10068],[5.91819,50.10091],[5.9177,50.10066],[5.91777,50.10056],[5.91751,50.10043],[5.91602,50.10013],[5.91583,50.10018],[5.91577,50.10008],[5.91543,50.09996],[5.91247,50.09933],[5.91216,50.09931],[5.91065,50.09895],[5.91022,50.09891],[5.90989,50.09897],[5.90964,50.09917],[5.90911,50.09909],[5.90569,50.09945],[5.905,50.09974],[5.90459,50.10023],[5.90434,50.1004],[5.90339,50.10056],[5.90179,50.10027],[5.90144,50.10028],[5.90013,50.09997],[5.89935,50.09998],[5.89902,50.09966],[5.89812,50.0993],[5.89662,50.09854],[5.89628,50.09844],[5.89516,50.09845],[5.89427,50.09827],[5.89348,50.09819],[5.89129,50.09824],[5.89199,50.09929],[5.89381,50.1004],[5.8946,50.10107],[5.89436,50.10218],[5.89434,50.10306],[5.89461,50.10382],[5.89512,50.10464],[5.8953,50.10568],[5.89498,50.1085],[5.89503,50.10937],[5.89546,50.11103],[5.89546,50.1113],[5.89527,50.11207],[5.8955,50.11225],[5.8978,50.11337],[5.89849,50.11379],[5.89862,50.1138],[5.89923,50.1134],[5.90041,50.11289],[5.9021,50.11258],[5.90379,50.11217],[5.90571,50.11155],[5.90677,50.11127],[5.90832,50.111],[5.91024,50.11087],[5.91184,50.11063],[5.91445,50.11043],[5.91558,50.11026],[5.91528,50.11054],[5.91441,50.11098],[5.91196,50.11173],[5.91034,50.11279],[5.90849,50.11323],[5.90839,50.11343],[5.90868,50.11386],[5.90967,50.11453],[5.91141,50.1153],[5.91209,50.11541],[5.91298,50.11567],[5.91524,50.11561],[5.91589,50.11571],[5.91782,50.11659],[5.91927,50.11752],[5.91996,50.11777],[5.92187,50.1181],[5.92245,50.11782],[5.92325,50.11759],[5.9234,50.11744],[5.92396,50.11636],[5.92424,50.1163],[5.92456,50.11445],[5.92451,50.11418],[5.92407,50.11323],[5.92404,50.11145],[5.92412,50.11061],[5.92393,50.10965],[5.92372,50.1093],[5.92383,50.10919],[5.92333,50.10901],[5.92301,50.10882],[5.92287,50.10856],[5.92279,50.10782],[5.92253,50.10779],[5.92247,50.10756],[5.92247,50.10733],[5.92258,50.10719],[5.92252,50.10714],[5.92335,50.10676],[5.92346,50.10665],[5.92376,50.10596],[5.92375,50.10579],[5.92323,50.1047],[5.92302,50.10455],[5.92299,50.10446],[5.92305,50.10439],[5.92279,50.10394],[5.92289,50.10389],[5.92189,50.10283],[5.92138,50.10189],[5.9212,50.10136],[5.92115,50.10101],[5.92123,50.10071],[5.92142,50.10036],[5.92177,50.10007],[5.92177,50.09986]]]}}