{"type":"Feature","properties":{"name":"Auto-Pédestre Machtum","source":"geoportail"},"geometry":{"type":"MultiLineString","coordinates":[[[6.43619,49.6594],[6.43662,49.65928],[6.43701,49.65905],[6.43713,49.65887],[6.4371,49.65876],[6.43649,49.65802],[6.43659,49.65745],[6.43761,49.65527],[6.43756,49.65431],[6.43735,49.65358],[6.43636,49.65256],[6.43578,49.65215],[6.43521,49.65154],[6.43493,49.65133],[6.43457,49.65108],[6.43281,49.65043],[6.43237,49.65007],[6.43226,49.64969],[6.43158,49.64943],[6.43085,49.64894],[6.42975,49.64803],[6.42873,49.64693],[6.42799,49.64643],[6.42701,49.6452],[6.42603,49.6443],[6.42603,49.64414],[6.42573,49.64363],[6.4253,49.64339],[6.42516,49.6431],[6.42504,49.64247],[6.42505,49.64218],[6.4252,49.64182],[6.42502,49.64117],[6.42488,49.63981],[6.4243,49.63819],[6.42386,49.63727],[6.42368,49.63734],[6.42262,49.63725],[6.422,49.63655],[6.42167,49.636],[6.41969,49.63364],[6.4185,49.63195],[6.41768,49.63133],[6.41753,49.63113],[6.41726,49.63107],[6.4172,49.6311],[6.41717,49.63133],[6.41721,49.63223],[6.4177,49.63261],[6.41786,49.63293],[6.41815,49.63327],[6.41816,49.63334],[6.41807,49.63338],[6.41784,49.63336],[6.41936,49.63574],[6.41979,49.63623],[6.42042,49.63678],[6.4206,49.63718],[6.42071,49.63767],[6.42121,49.63825],[6.42095,49.63838],[6.42114,49.63853],[6.42259,49.64032],[6.42282,49.6415],[6.42332,49.64255],[6.42367,49.64267],[6.42387,49.64311],[6.42474,49.64428],[6.42646,49.64586],[6.42784,49.64774],[6.42833,49.64833],[6.42854,49.64906],[6.4286,49.64995],[6.42855,49.65139],[6.42915,49.65156],[6.43067,49.65217],[6.43423,49.65483],[6.43514,49.65544],[6.43373,49.65605],[6.433,49.65657],[6.43182,49.65645],[6.43226,49.65754],[6.43275,49.65809],[6.4328,49.65853],[6.43318,49.65876],[6.43357,49.6594],[6.43397,49.65963],[6.43556,49.65963],[6.43589,49.65956],[6.43619,49.6594]]]}}