{"type":"Feature","properties":{"name":"Auto-Pédestre Moutfort","source":"geoportail"},"geometry":{"type":"MultiLineString","coordinates":[[[6.25791,49.58832],[6.25803,49.58833],[6.25924,49.5874],[6.26003,49.58758],[6.26078,49.5876],[6.26223,49.58727],[6.2624,49.58743],[6.26239,49.58758],[6.26386,49.58907],[6.26405,49.58974],[6.26505,49.59107],[6.26688,49.59295],[6.26756,49.59381],[6.27063,49.59341],[6.27085,49.59343],[6.27129,49.59366],[6.27202,49.59385],[6.27356,49.59402],[6.27458,49.5942],[6.27429,49.59451],[6.27464,49.59474],[6.27607,49.59549],[6.2788,49.59653],[6.27888,49.59668],[6.27938,49.60057],[6.27959,49.60096],[6.27991,49.60121],[6.2803,49.60136],[6.28322,49.6019],[6.28429,49.60195],[6.28531,49.60185],[6.28576,49.60172],[6.28637,49.60136],[6.2865,49.60127],[6.28666,49.60101],[6.28662,49.60068],[6.28645,49.60048],[6.28356,49.59898],[6.28676,49.59799],[6.28747,49.59761],[6.28999,49.5957],[6.29145,49.59564],[6.29209,49.5952],[6.29311,49.59402],[6.29458,49.59299],[6.29473,49.59282],[6.29632,49.58831],[6.29433,49.58806],[6.29198,49.58764],[6.29099,49.58681],[6.29192,49.58655],[6.29098,49.58615],[6.28917,49.5848],[6.28789,49.5834],[6.28687,49.58269],[6.28649,49.58216],[6.28628,49.58168],[6.28604,49.58147],[6.28568,49.58134],[6.28464,49.58121],[6.28267,49.58114],[6.27977,49.58032],[6.27718,49.57983],[6.27695,49.57967],[6.27621,49.57884],[6.27541,49.57814],[6.27528,49.57744],[6.27519,49.57725],[6.27489,49.57705],[6.27423,49.57685],[6.27412,49.57674],[6.2739,49.57694],[6.27343,49.57716],[6.2722,49.57748],[6.27074,49.57804],[6.26956,49.57822],[6.26882,49.57851],[6.26835,49.57882],[6.2681,49.57927],[6.26758,49.57974],[6.26722,49.58055],[6.26798,49.582],[6.2687,49.58298],[6.26873,49.58318],[6.26856,49.58401],[6.26673,49.58455],[6.26423,49.58645],[6.26188,49.58665],[6.26118,49.58594],[6.25804,49.58825],[6.25796,49.58823]]]}}