{"type":"Feature","properties":{"name":"Auto-Pédestre Munshausen","source":"geoportail"},"geometry":{"type":"MultiLineString","coordinates":[[[6.03763,50.03272],[6.03813,50.03276],[6.03818,50.0326],[6.03916,50.03255],[6.03946,50.03248],[6.03954,50.03236],[6.0393,50.0322],[6.03872,50.0321],[6.03776,50.03135],[6.03759,50.0311],[6.03752,50.03087],[6.03743,50.03008],[6.03713,50.02972],[6.03611,50.02942],[6.03487,50.02893],[6.03433,50.02913],[6.035,50.02977],[6.03493,50.02982],[6.03378,50.0297],[6.03314,50.02946],[6.0325,50.02906],[6.03139,50.02823],[6.03089,50.02798],[6.03012,50.02777],[6.02872,50.02769],[6.02788,50.02743],[6.02735,50.02718],[6.02702,50.02693],[6.02682,50.02666],[6.02672,50.02631],[6.02708,50.0258],[6.02744,50.02552],[6.02744,50.02539],[6.02637,50.02526],[6.02613,50.02487],[6.02608,50.02488],[6.02601,50.02564],[6.02562,50.02575],[6.02502,50.02567],[6.02481,50.02512],[6.02328,50.02469],[6.02287,50.02448],[6.02247,50.02406],[6.02238,50.02389],[6.02234,50.02353],[6.02213,50.02322],[6.02063,50.02234],[6.02026,50.02179],[6.02005,50.02122],[6.01979,50.02073],[6.01967,50.02057],[6.0194,50.02039],[6.01903,50.02024],[6.01674,50.01964],[6.01384,50.01847],[6.01271,50.01788],[6.01051,50.01741],[6.00909,50.01694],[6.00989,50.01738],[6.01037,50.01782],[6.01056,50.01816],[6.00927,50.01801],[6.00907,50.01812],[6.00905,50.01835],[6.00913,50.01845],[6.00923,50.0185],[6.00929,50.01837],[6.00943,50.01838],[6.01074,50.01905],[6.01089,50.01916],[6.0109,50.01925],[6.01142,50.01942],[6.0122,50.0199],[6.0125,50.02029],[6.01269,50.02153],[6.01301,50.02254],[6.01301,50.02302],[6.01336,50.02412],[6.01336,50.02493],[6.01364,50.02562],[6.01365,50.02624],[6.01384,50.02674],[6.01378,50.02732],[6.01305,50.02828],[6.01216,50.02852],[6.01207,50.0286],[6.0126,50.0292],[6.01428,50.03004],[6.01564,50.03035],[6.01684,50.03073],[6.01936,50.03136],[6.0208,50.03201],[6.0213,50.03211],[6.02144,50.03223],[6.02159,50.03257],[6.02155,50.03376],[6.02167,50.03397],[6.02208,50.03366],[6.02233,50.03309],[6.0232,50.03181],[6.02402,50.03137],[6.02725,50.03086],[6.02748,50.03114],[6.02768,50.03122],[6.02834,50.03113],[6.02458,50.03283],[6.02425,50.03309],[6.02418,50.03351],[6.02424,50.0338],[6.02467,50.0344],[6.02491,50.03444],[6.02656,50.03514],[6.02859,50.03558],[6.02939,50.03568],[6.0311,50.03572],[6.03199,50.03549],[6.03332,50.03482],[6.03437,50.03501],[6.03457,50.03476],[6.03532,50.03425],[6.03659,50.03359],[6.03695,50.03326],[6.03736,50.0331],[6.0375,50.03294],[6.03744,50.03279],[6.03758,50.03272]]]}}