{"type":"Feature","properties":{"name":"Auto-Pédestre Oberpallen","source":"geoportail"},"geometry":{"type":"MultiLineString","coordinates":[[[5.84274,49.72931],[5.84242,49.72926],[5.84225,49.72936],[5.84241,49.7298],[5.84222,49.73022],[5.84147,49.73005],[5.84096,49.73021],[5.84039,49.73093],[5.83984,49.73092],[5.83963,49.73104],[5.83953,49.73123],[5.83958,49.7315],[5.83894,49.7319],[5.83713,49.73148],[5.83682,49.73099],[5.83693,49.73085],[5.83731,49.73059],[5.83647,49.73022],[5.83518,49.7298],[5.83399,49.72947],[5.83297,49.72928],[5.83151,49.72903],[5.82962,49.72884],[5.82895,49.7285],[5.82784,49.72817],[5.82602,49.72778],[5.82511,49.72748],[5.82399,49.7273],[5.82292,49.72737],[5.81998,49.72777],[5.81499,49.72783],[5.81293,49.72799],[5.81242,49.72762],[5.81183,49.72741],[5.81177,49.72722],[5.8118,49.72684],[5.81084,49.72643],[5.80958,49.72629],[5.80902,49.72648],[5.80894,49.72624],[5.80919,49.72568],[5.80987,49.72589],[5.81061,49.72523],[5.81177,49.72539],[5.81313,49.72492],[5.81348,49.72458],[5.81422,49.72338],[5.81482,49.7226],[5.81634,49.72167],[5.81709,49.72146],[5.818,49.72164],[5.81887,49.72214],[5.81961,49.7224],[5.82384,49.72342],[5.82437,49.72219],[5.82535,49.72045],[5.8257,49.72015],[5.82662,49.71986],[5.82977,49.72275],[5.83029,49.72284],[5.83081,49.72282],[5.83176,49.72266],[5.83255,49.72263],[5.83372,49.72297],[5.83585,49.72285],[5.83612,49.72277],[5.83661,49.72172],[5.83675,49.72166],[5.83772,49.72296],[5.83811,49.72283],[5.83908,49.72223],[5.83962,49.72206],[5.84089,49.72147],[5.8428,49.72129],[5.84447,49.72131],[5.84638,49.71985],[5.84784,49.72071],[5.84802,49.72061],[5.84738,49.71968],[5.84735,49.71951],[5.84801,49.71923],[5.84862,49.71951],[5.8494,49.71909],[5.85063,49.71856],[5.85189,49.71773],[5.85215,49.71782],[5.85387,49.71886],[5.8541,49.71936],[5.85344,49.71998],[5.85344,49.72008],[5.85359,49.72027],[5.85445,49.72078],[5.85615,49.72204],[5.85695,49.72241],[5.85769,49.72309],[5.85768,49.72467],[5.85821,49.72569],[5.85785,49.72635],[5.85702,49.726],[5.85637,49.72562],[5.85571,49.72511],[5.85453,49.72466],[5.8518,49.7244],[5.85045,49.72484],[5.84878,49.72505],[5.84777,49.72572],[5.84606,49.72714],[5.84301,49.72946],[5.84284,49.72947],[5.84278,49.72932]]]}}