{"type":"Feature","properties":{"name":"Auto-Pédestre Oberdonven","source":"geoportail"},"geometry":{"type":"MultiLineString","coordinates":[[[6.39957,49.64988],[6.39947,49.65017],[6.39951,49.65019],[6.39996,49.65018],[6.40112,49.65033],[6.40229,49.65023],[6.40418,49.65037],[6.40647,49.65032],[6.40936,49.65009],[6.41172,49.65023],[6.41194,49.65019],[6.41177,49.64886],[6.41162,49.64827],[6.4115,49.6479],[6.41125,49.64754],[6.4102,49.64668],[6.40973,49.6462],[6.40968,49.64609],[6.40972,49.64602],[6.41033,49.64543],[6.40982,49.64478],[6.40886,49.64402],[6.40653,49.64264],[6.40592,49.64218],[6.40506,49.64116],[6.40492,49.64066],[6.4044,49.64009],[6.40464,49.6399],[6.40505,49.63987],[6.40643,49.64074],[6.40654,49.64075],[6.40662,49.64069],[6.40672,49.6405],[6.40681,49.6402],[6.40584,49.63934],[6.40526,49.63894],[6.40533,49.63869],[6.4057,49.63836],[6.40546,49.63832],[6.40547,49.63824],[6.40531,49.63793],[6.40531,49.63779],[6.40553,49.63717],[6.40555,49.63695],[6.40543,49.63675],[6.40485,49.63628],[6.40354,49.63483],[6.40285,49.63441],[6.40268,49.63438],[6.40107,49.6347],[6.40069,49.6343],[6.39921,49.63362],[6.39815,49.63325],[6.39823,49.63312],[6.39981,49.63292],[6.40064,49.63311],[6.40067,49.63303],[6.40046,49.63264],[6.40191,49.6323],[6.40226,49.63214],[6.40211,49.63197],[6.40203,49.63148],[6.40176,49.63122],[6.40198,49.63092],[6.40203,49.63063],[6.40178,49.63002],[6.40125,49.62979],[6.39998,49.62854],[6.39917,49.62753],[6.39868,49.62703],[6.39641,49.62813],[6.3952,49.62738],[6.394,49.6264],[6.39296,49.62644],[6.39238,49.62656],[6.3914,49.62706],[6.39083,49.62761],[6.39063,49.62807],[6.39058,49.62856],[6.39008,49.62991],[6.38802,49.6305],[6.38781,49.63068],[6.38731,49.63135],[6.38736,49.63162],[6.38752,49.63183],[6.3894,49.63271],[6.38953,49.63279],[6.38984,49.63319],[6.38761,49.63319],[6.38607,49.63334],[6.38574,49.63343],[6.38537,49.63355],[6.38163,49.63561],[6.38092,49.63591],[6.38132,49.63616],[6.38249,49.63715],[6.38468,49.63792],[6.3867,49.63841],[6.38799,49.63925],[6.38838,49.63945],[6.38862,49.6395],[6.39253,49.63993],[6.39346,49.64023],[6.39367,49.64042],[6.39441,49.64038],[6.39506,49.64024],[6.39758,49.63953],[6.39818,49.63944],[6.39809,49.63977],[6.3977,49.64025],[6.39606,49.64169],[6.39555,49.64199],[6.39349,49.64276],[6.39332,49.64291],[6.39332,49.64298],[6.39438,49.64407],[6.39555,49.64503],[6.39813,49.64787],[6.3991,49.64817],[6.39972,49.6485],[6.39983,49.64884],[6.39957,49.64988]]]}}