{"type":"Feature","properties":{"name":"Auto-Pédestre Osweiler","source":"geoportail"},"geometry":{"type":"MultiLineString","coordinates":[[[6.44206,49.78616],[6.44222,49.78605],[6.44135,49.78531],[6.44108,49.78545],[6.44064,49.78529],[6.44028,49.78529],[6.44023,49.78521],[6.4407,49.78415],[6.44149,49.78331],[6.44156,49.78292],[6.44167,49.78272],[6.4421,49.78239],[6.4434,49.78176],[6.44393,49.78131],[6.44423,49.78119],[6.44622,49.78121],[6.44684,49.78128],[6.44804,49.78157],[6.44824,49.78154],[6.44873,49.78046],[6.45,49.77924],[6.45032,49.77873],[6.45051,49.77736],[6.45054,49.77654],[6.45069,49.7762],[6.45123,49.77565],[6.44992,49.77468],[6.44813,49.774],[6.44669,49.77293],[6.44608,49.77256],[6.44402,49.77167],[6.4432,49.77125],[6.44003,49.7687],[6.43956,49.76815],[6.43722,49.76734],[6.43598,49.76675],[6.43565,49.76665],[6.43339,49.7654],[6.43318,49.76523],[6.4331,49.76523],[6.43316,49.76542],[6.43334,49.76559],[6.43364,49.76615],[6.4337,49.76655],[6.43409,49.76693],[6.43403,49.76703],[6.43289,49.76669],[6.43152,49.7664],[6.43061,49.76655],[6.42987,49.76614],[6.42926,49.76603],[6.42688,49.7659],[6.42563,49.76596],[6.42375,49.76643],[6.4234,49.76636],[6.42244,49.76597],[6.42026,49.76587],[6.41961,49.76596],[6.41896,49.76593],[6.41824,49.76569],[6.41777,49.76542],[6.41396,49.76285],[6.41168,49.76176],[6.41149,49.76206],[6.41125,49.76227],[6.41044,49.76285],[6.40962,49.76327],[6.40721,49.76414],[6.40623,49.76464],[6.40402,49.76538],[6.40129,49.76654],[6.40091,49.76659],[6.39978,49.769],[6.3995,49.76975],[6.39907,49.77043],[6.39806,49.77172],[6.39802,49.77189],[6.39752,49.77258],[6.39723,49.77377],[6.39742,49.77468],[6.39852,49.77581],[6.3993,49.77778],[6.40093,49.77804],[6.4022,49.77871],[6.40298,49.77933],[6.40378,49.77966],[6.40441,49.77974],[6.40511,49.77995],[6.40536,49.77986],[6.40577,49.77951],[6.40649,49.77942],[6.40729,49.77959],[6.4082,49.78003],[6.4091,49.78081],[6.40913,49.78097],[6.40902,49.78111],[6.40834,49.78154],[6.40821,49.78165],[6.40811,49.78189],[6.40819,49.78209],[6.40888,49.78305],[6.40913,49.78325],[6.41018,49.78346],[6.41107,49.78378],[6.41342,49.78419],[6.41471,49.78453],[6.41528,49.7846],[6.41594,49.78482],[6.41744,49.7849],[6.41756,49.78482],[6.41777,49.78448],[6.41791,49.78441],[6.41852,49.78436],[6.42097,49.78354],[6.42185,49.78406],[6.42624,49.78472],[6.42761,49.78519],[6.42999,49.78568],[6.43084,49.78592],[6.43347,49.78561],[6.43503,49.78566],[6.43589,49.78559],[6.43873,49.78516],[6.43975,49.78556],[6.44039,49.78547],[6.44089,49.78547],[6.44138,49.78577],[6.44181,49.78617],[6.44287,49.7867],[6.44296,49.78665],[6.44203,49.78618]]]}}