{"type":"Feature","properties":{"name":"Auto-Pédestre Remerschen","source":"geoportail"},"geometry":{"type":"MultiLineString","coordinates":[[[6.362,49.4926],[6.36213,49.4927],[6.36214,49.49294],[6.36168,49.49296],[6.36126,49.49285],[6.36038,49.49286],[6.35926,49.49272],[6.35778,49.49279],[6.35762,49.49286],[6.35757,49.49294],[6.35758,49.49348],[6.35776,49.49366],[6.35812,49.49381],[6.35844,49.49408],[6.35929,49.49452],[6.36027,49.49538],[6.36027,49.49543],[6.36063,49.4955],[6.36094,49.49535],[6.36114,49.49547],[6.36149,49.49618],[6.3615,49.49646],[6.36146,49.49658],[6.36099,49.49681],[6.36217,49.49689],[6.36325,49.49683],[6.36457,49.49662],[6.36512,49.49643],[6.36589,49.49636],[6.36587,49.49652],[6.36563,49.49695],[6.36553,49.49731],[6.36562,49.49773],[6.36558,49.49924],[6.36513,49.49964],[6.3646,49.49999],[6.36449,49.50034],[6.36405,49.50083],[6.36387,49.50128],[6.36188,49.50115],[6.36107,49.50101],[6.36014,49.50056],[6.35993,49.50051],[6.35511,49.50088],[6.35507,49.50067],[6.35399,49.49913],[6.35364,49.49909],[6.35318,49.49993],[6.35307,49.49995],[6.35274,49.49961],[6.35254,49.49938],[6.35201,49.49832],[6.35164,49.49724],[6.35112,49.49607],[6.35013,49.49537],[6.35009,49.49516],[6.34924,49.49496],[6.34809,49.49481],[6.34717,49.49445],[6.34666,49.49434],[6.3463,49.49431],[6.34532,49.4945],[6.34515,49.49444],[6.34505,49.49422],[6.34516,49.49361],[6.34528,49.49341],[6.34672,49.49298],[6.34756,49.49289],[6.34825,49.49309],[6.34792,49.49241],[6.34784,49.49196],[6.34716,49.49145],[6.34692,49.49108],[6.34686,49.49095],[6.34689,49.4903],[6.348,49.4899],[6.34987,49.48946],[6.34999,49.48941],[6.35013,49.48922],[6.35049,49.48914],[6.35066,49.48919],[6.35096,49.48875],[6.35123,49.48773],[6.35157,49.48744],[6.35151,49.48709],[6.35167,49.4842],[6.35182,49.483],[6.352,49.4825],[6.35186,49.48185],[6.35189,49.48157],[6.35228,49.48072],[6.35305,49.48043],[6.35343,49.48012],[6.35435,49.47961],[6.35427,49.47986],[6.35517,49.48049],[6.35555,49.48025],[6.35585,49.47991],[6.35635,49.47966],[6.35648,49.47947],[6.3568,49.47921],[6.35713,49.47907],[6.35786,49.47854],[6.35843,49.47837],[6.35961,49.47813],[6.36083,49.4782],[6.36149,49.47845],[6.36163,49.47825],[6.36134,49.47749],[6.36275,49.47747],[6.3636,49.47726],[6.36392,49.47724],[6.36443,49.47725],[6.36513,49.47743],[6.36526,49.47733],[6.36527,49.47702],[6.36504,49.47642],[6.36522,49.47622],[6.36557,49.47604],[6.36641,49.47594],[6.36677,49.47587],[6.36692,49.47576],[6.36717,49.47576],[6.36704,49.47862],[6.36705,49.48038],[6.3671,49.4814],[6.36736,49.4835],[6.36715,49.48374],[6.36651,49.48409],[6.36677,49.48452],[6.36697,49.48511],[6.36703,49.48617],[6.367,49.48724],[6.3668,49.48933],[6.36605,49.49286],[6.362,49.4926]]]}}