{"type":"Feature","properties":{"name":"Auto-Pédestre Schengen","source":"geoportail"},"geometry":{"type":"MultiLineString","coordinates":[[[6.36672,49.47189],[6.36667,49.47163],[6.36653,49.47154],[6.36643,49.47131],[6.36643,49.47066],[6.36514,49.47071],[6.36536,49.4699],[6.36517,49.46901],[6.3649,49.46875],[6.36476,49.46813],[6.36435,49.46787],[6.36419,49.46757],[6.36392,49.46744],[6.3637,49.46704],[6.36366,49.46661],[6.36351,49.46615],[6.36387,49.46555],[6.36391,49.46522],[6.36383,49.46508],[6.36374,49.46518],[6.36324,49.46535],[6.36304,49.46548],[6.36286,49.46597],[6.36275,49.4661],[6.36207,49.46628],[6.36104,49.46623],[6.35988,49.46544],[6.35974,49.46545],[6.35906,49.46602],[6.35834,49.46689],[6.35801,49.46719],[6.35644,49.4683],[6.35679,49.4688],[6.35748,49.46925],[6.35773,49.46934],[6.35771,49.46938],[6.35853,49.46947],[6.35845,49.46971],[6.35749,49.47088],[6.35702,49.47114],[6.35519,49.47141],[6.35424,49.47163],[6.35338,49.47195],[6.35243,49.47241],[6.35374,49.47307],[6.35598,49.47388],[6.35714,49.47409],[6.35784,49.47414],[6.3585,49.47408],[6.35911,49.47422],[6.36013,49.4747],[6.36092,49.4753],[6.36171,49.47576],[6.36228,49.476],[6.3634,49.47607],[6.36383,49.47595],[6.36412,49.47573],[6.36431,49.47543],[6.36438,49.47514],[6.36349,49.47485],[6.3633,49.47386],[6.36271,49.47375],[6.36221,49.47319],[6.36203,49.47283],[6.36101,49.47208],[6.36055,49.47188],[6.35937,49.4716],[6.35902,49.4714],[6.35844,49.47088],[6.35823,49.47076],[6.35907,49.47072],[6.36054,49.47076],[6.36084,49.47],[6.36147,49.47033],[6.36181,49.47061],[6.36272,49.47098],[6.36336,49.47137],[6.36401,49.47186],[6.36409,49.47207],[6.36402,49.47262],[6.36388,49.47291],[6.3639,49.47306],[6.36497,49.47298],[6.36503,49.47256],[6.365,49.47215],[6.3654,49.47208],[6.36539,49.47199],[6.36579,49.47192],[6.36647,49.47203],[6.36658,49.47214],[6.36673,49.47208],[6.36681,49.47215],[6.36671,49.47192]]]}}