{"type":"Feature","properties":{"name":"Auto-Pédestre Scheidgen","source":"geoportail"},"geometry":{"type":"MultiLineString","coordinates":[[[6.35969,49.78166],[6.35877,49.7813],[6.35878,49.78121],[6.35848,49.78107],[6.35788,49.78035],[6.35781,49.78012],[6.35792,49.77802],[6.35803,49.77777],[6.35819,49.77659],[6.35851,49.77601],[6.35845,49.77589],[6.35822,49.77576],[6.35814,49.77558],[6.35809,49.77524],[6.35809,49.77437],[6.35842,49.77407],[6.35945,49.77365],[6.36052,49.7737],[6.36252,49.77342],[6.36369,49.77299],[6.36385,49.77288],[6.36388,49.77274],[6.36317,49.77275],[6.36221,49.77299],[6.36108,49.77299],[6.35923,49.77328],[6.35773,49.77404],[6.3576,49.77414],[6.35749,49.77439],[6.35742,49.77518],[6.35748,49.7763],[6.35757,49.77672],[6.35749,49.77715],[6.35737,49.77729],[6.35718,49.78005],[6.3572,49.78056],[6.35737,49.78081],[6.35672,49.78091],[6.35563,49.78156],[6.35498,49.78217],[6.35493,49.78225],[6.35498,49.78234],[6.35421,49.7831],[6.35399,49.78315],[6.35326,49.78363],[6.35273,49.78375],[6.35198,49.78377],[6.35201,49.78389],[6.3525,49.7842],[6.35376,49.78474],[6.35392,49.78517],[6.35423,49.7854],[6.35619,49.78625],[6.35627,49.78633],[6.35633,49.78667],[6.35681,49.78693],[6.35703,49.78717],[6.35697,49.78732],[6.35665,49.78765],[6.35659,49.78788],[6.35739,49.7879],[6.36026,49.78817],[6.36064,49.78813],[6.36108,49.78864],[6.36108,49.78874],[6.36153,49.78883],[6.36226,49.78885],[6.3625,49.78899],[6.36263,49.78892],[6.36287,49.78914],[6.36272,49.78946],[6.36272,49.79004],[6.36245,49.79048],[6.36191,49.79079],[6.36035,49.79123],[6.35998,49.79156],[6.35972,49.79202],[6.35976,49.79226],[6.35998,49.79256],[6.36051,49.79309],[6.36085,49.79332],[6.36099,49.79366],[6.36131,49.79385],[6.36149,49.79424],[6.36172,49.79444],[6.36191,49.79485],[6.36236,49.79499],[6.36295,49.79529],[6.36322,49.79527],[6.36339,49.79514],[6.3628,49.79486],[6.36269,49.79471],[6.36254,49.7947],[6.36169,49.79365],[6.36168,49.79352],[6.36099,49.79295],[6.36069,49.79284],[6.36032,49.79248],[6.36019,49.79205],[6.36024,49.79156],[6.36053,49.79138],[6.36068,49.79119],[6.36115,49.79108],[6.36194,49.79124],[6.36233,49.79116],[6.36278,49.79058],[6.36314,49.79029],[6.36332,49.78975],[6.36331,49.78956],[6.36343,49.78925],[6.36357,49.78914],[6.36406,49.789],[6.36493,49.78902],[6.3661,49.78893],[6.36647,49.7888],[6.36652,49.78862],[6.36639,49.78842],[6.36634,49.78809],[6.36581,49.78774],[6.36538,49.78726],[6.36505,49.78629],[6.3642,49.7849],[6.36389,49.78449],[6.36359,49.78421],[6.36316,49.78398],[6.36246,49.78345],[6.36136,49.78298],[6.36066,49.78252],[6.35994,49.78227],[6.35908,49.7818],[6.35897,49.78167],[6.35942,49.78181],[6.35949,49.78172],[6.3597,49.78166]]]}}