{"type":"Feature","properties":{"name":"Auto-Pédestre Schoenfels","source":"geoportail"},"geometry":{"type":"MultiLineString","coordinates":[[[6.09139,49.71914],[6.09093,49.71899],[6.09024,49.71863],[6.08997,49.7186],[6.08936,49.71804],[6.08846,49.71743],[6.08803,49.71693],[6.08756,49.71582],[6.08721,49.71523],[6.08676,49.71466],[6.08631,49.71374],[6.08511,49.71278],[6.08368,49.71191],[6.08325,49.71114],[6.08292,49.71071],[6.08297,49.71055],[6.08336,49.7104],[6.08601,49.70997],[6.08558,49.70994],[6.08367,49.70957],[6.08329,49.70955],[6.08167,49.70987],[6.08111,49.71009],[6.08099,49.71032],[6.08102,49.71078],[6.08132,49.71189],[6.08124,49.71201],[6.08084,49.71225],[6.08081,49.71234],[6.08175,49.71418],[6.0821,49.71461],[6.08258,49.71549],[6.08256,49.71546],[6.08094,49.7158],[6.07866,49.71649],[6.07811,49.7165],[6.07801,49.71639],[6.07747,49.71623],[6.07616,49.71597],[6.07408,49.71537],[6.07192,49.71504],[6.06901,49.71421],[6.06755,49.71397],[6.06716,49.71379],[6.06688,49.71344],[6.06661,49.71328],[6.06535,49.71318],[6.06474,49.71319],[6.06391,49.71331],[6.06282,49.71361],[6.0616,49.71366],[6.06113,49.71391],[6.06071,49.71396],[6.05882,49.71373],[6.05845,49.71347],[6.05845,49.71313],[6.05856,49.71295],[6.05897,49.71269],[6.05993,49.71224],[6.0609,49.71196],[6.06116,49.71181],[6.06037,49.71183],[6.05968,49.71194],[6.05893,49.71213],[6.05843,49.71234],[6.0574,49.71291],[6.05714,49.71319],[6.05708,49.71337],[6.05712,49.71359],[6.05767,49.71419],[6.05792,49.71438],[6.05948,49.71504],[6.05985,49.71546],[6.06088,49.71564],[6.06106,49.71553],[6.06142,49.71544],[6.06255,49.71535],[6.06504,49.71539],[6.06676,49.71562],[6.06887,49.71582],[6.07012,49.71617],[6.07293,49.71643],[6.07323,49.71657],[6.07338,49.7168],[6.07475,49.71678],[6.07506,49.71686],[6.07601,49.71691],[6.07773,49.7175],[6.07875,49.71824],[6.07905,49.71853],[6.08003,49.71888],[6.08039,49.71994],[6.08055,49.72023],[6.08113,49.7208],[6.08207,49.72136],[6.08312,49.72171],[6.08494,49.72211],[6.08646,49.72293],[6.08765,49.72347],[6.08819,49.72387],[6.08945,49.72452],[6.08986,49.72412],[6.09011,49.72354],[6.09132,49.72301],[6.09138,49.72291],[6.09149,49.72244],[6.09138,49.72221],[6.09122,49.72213],[6.0911,49.72194],[6.09108,49.72134],[6.09139,49.72144],[6.09184,49.72148],[6.09243,49.72176],[6.09316,49.72182],[6.09352,49.72209],[6.09413,49.72219],[6.09439,49.72233],[6.09485,49.72241],[6.09564,49.72291],[6.09621,49.72315],[6.09631,49.72337],[6.0966,49.72349],[6.09685,49.72377],[6.09701,49.72379],[6.09705,49.72395],[6.09721,49.72413],[6.09721,49.72458],[6.09744,49.72437],[6.0976,49.72409],[6.0975,49.72347],[6.09728,49.7233],[6.09714,49.72306],[6.09628,49.72231],[6.09558,49.72182],[6.09474,49.72142],[6.09454,49.72126],[6.09436,49.72099],[6.09334,49.72065],[6.09292,49.72045],[6.09234,49.71974],[6.09242,49.71963],[6.09193,49.71933],[6.09143,49.71915]]]}}