{"type":"Feature","properties":{"name":"Auto-Pédestre Septfontaines","source":"geoportail"},"geometry":{"type":"MultiLineString","coordinates":[[[5.96377,49.6998],[5.96259,49.69948],[5.96269,49.69975],[5.96348,49.70046],[5.96347,49.70062],[5.96319,49.70081],[5.96297,49.70087],[5.96195,49.70105],[5.95885,49.70123],[5.95877,49.70128],[5.95612,49.70172],[5.95469,49.70206],[5.95328,49.7025],[5.95263,49.70284],[5.95221,49.70326],[5.95104,49.70416],[5.95098,49.7045],[5.95112,49.70492],[5.95205,49.70589],[5.95295,49.70645],[5.95282,49.70657],[5.95196,49.7068],[5.95187,49.70688],[5.95188,49.7071],[5.95212,49.70741],[5.95229,49.7075],[5.95242,49.70772],[5.95171,49.70837],[5.95072,49.70888],[5.95056,49.70901],[5.95041,49.70926],[5.95041,49.70958],[5.95035,49.70968],[5.95043,49.70977],[5.95078,49.70991],[5.95088,49.70985],[5.95113,49.70989],[5.95115,49.70999],[5.95108,49.71006],[5.95124,49.71021],[5.95155,49.71073],[5.95218,49.71119],[5.95245,49.71122],[5.95239,49.71133],[5.95259,49.71207],[5.95254,49.71231],[5.95226,49.71264],[5.95168,49.7131],[5.95123,49.71332],[5.95132,49.7134],[5.94995,49.71304],[5.94947,49.71279],[5.94893,49.71238],[5.94803,49.71184],[5.94741,49.71106],[5.9474,49.71124],[5.94684,49.71161],[5.94671,49.71178],[5.94678,49.71196],[5.94726,49.71253],[5.94745,49.71307],[5.94731,49.71317],[5.94703,49.71313],[5.94625,49.71253],[5.94426,49.7101],[5.94451,49.71118],[5.94354,49.71013],[5.94318,49.70962],[5.94237,49.7091],[5.94194,49.70898],[5.94134,49.7084],[5.9403,49.70758],[5.93981,49.7073],[5.93965,49.70713],[5.93959,49.70698],[5.93861,49.70631],[5.93813,49.70604],[5.93767,49.70589],[5.93651,49.7052],[5.93509,49.70459],[5.93474,49.7043],[5.93403,49.70421],[5.93359,49.70398],[5.9334,49.70397],[5.93297,49.7041],[5.93277,49.70407],[5.93259,49.70397],[5.93241,49.70362],[5.93222,49.70355],[5.93135,49.70372],[5.93152,49.70298],[5.93203,49.70237],[5.93196,49.70232],[5.93427,49.70145],[5.93547,49.70117],[5.93661,49.70109],[5.94143,49.69999],[5.94288,49.69998],[5.94326,49.69894],[5.94359,49.69866],[5.94305,49.69821],[5.94218,49.69765],[5.94129,49.6972],[5.94045,49.6968],[5.94016,49.69695],[5.9399,49.69683],[5.93944,49.69624],[5.93898,49.69519],[5.9392,49.69434],[5.93964,49.69439],[5.9403,49.69386],[5.94182,49.69311],[5.94241,49.69274],[5.94332,49.69176],[5.94388,49.6915],[5.94455,49.69128],[5.94535,49.69127],[5.94606,49.6914],[5.94805,49.6924],[5.94863,49.69264],[5.95012,49.69305],[5.95087,49.6931],[5.95259,49.69292],[5.95319,49.69303],[5.95331,49.69312],[5.9535,49.69346],[5.95443,49.69436],[5.95456,49.69455],[5.95454,49.69473],[5.95461,49.6949],[5.95552,49.69574],[5.95624,49.69614],[5.95635,49.69663],[5.95624,49.69692],[5.95853,49.69688],[5.95869,49.6968],[5.95959,49.69693],[5.95995,49.69724],[5.96004,49.69762],[5.96024,49.69803],[5.9608,49.69859],[5.96154,49.69906],[5.96376,49.69979]]]}}