{"type":"Feature","properties":{"name":"Auto-Pédestre Stolzembourg","source":"geoportail"},"geometry":{"type":"MultiLineString","coordinates":[[[6.16755,49.96508],[6.16723,49.9656],[6.16713,49.96558],[6.16692,49.96589],[6.16653,49.96662],[6.16541,49.96657],[6.16408,49.96675],[6.16445,49.96644],[6.1646,49.96639],[6.16465,49.9663],[6.16459,49.96626],[6.16372,49.96629],[6.16276,49.96617],[6.16262,49.96611],[6.16265,49.96604],[6.16169,49.96586],[6.16044,49.96548],[6.15987,49.96511],[6.1593,49.96462],[6.15713,49.96324],[6.15678,49.96309],[6.15636,49.96302],[6.15479,49.96234],[6.154,49.9621],[6.15216,49.96108],[6.15102,49.96004],[6.1508,49.95966],[6.15018,49.95899],[6.14993,49.95852],[6.14921,49.95756],[6.14909,49.95749],[6.14794,49.95708],[6.14642,49.95684],[6.14585,49.95669],[6.14447,49.95616],[6.14341,49.95556],[6.14233,49.95515],[6.14025,49.95477],[6.13937,49.95435],[6.13765,49.95376],[6.13712,49.95345],[6.13658,49.953],[6.13646,49.95303],[6.13636,49.95315],[6.13645,49.95433],[6.13729,49.95508],[6.13802,49.95559],[6.13859,49.95627],[6.13851,49.95649],[6.13809,49.95677],[6.13797,49.95696],[6.13802,49.95733],[6.13834,49.95787],[6.13832,49.95813],[6.13874,49.95857],[6.13946,49.95919],[6.14001,49.95945],[6.14,49.95958],[6.14013,49.95969],[6.13999,49.95983],[6.13911,49.96027],[6.13893,49.9605],[6.13886,49.96094],[6.13904,49.9614],[6.13921,49.96155],[6.13947,49.96164],[6.14075,49.96187],[6.14089,49.96202],[6.14091,49.9622],[6.14085,49.96249],[6.14073,49.96265],[6.14048,49.9628],[6.14013,49.96289],[6.13842,49.96288],[6.13754,49.96302],[6.13613,49.96286],[6.13597,49.96304],[6.13616,49.96339],[6.13705,49.96351],[6.13821,49.96352],[6.13978,49.96449],[6.14129,49.96455],[6.14204,49.96451],[6.14408,49.96598],[6.14732,49.96693],[6.1487,49.96746],[6.14904,49.96766],[6.15001,49.96775],[6.15042,49.9677],[6.15213,49.96772],[6.15319,49.968],[6.15367,49.96805],[6.15417,49.96803],[6.15579,49.96776],[6.1568,49.96784],[6.15738,49.96804],[6.15836,49.96855],[6.15922,49.96916],[6.16006,49.96956],[6.16067,49.96971],[6.16131,49.96957],[6.16167,49.96934],[6.16204,49.96891],[6.16244,49.96868],[6.16285,49.96831],[6.1632,49.96772],[6.16356,49.96735],[6.16524,49.9666],[6.16653,49.96662],[6.16691,49.96589],[6.16713,49.96558],[6.16723,49.9656],[6.16755,49.96508]]]}}