{"type":"Feature","properties":{"name":"Auto-Pédestre Surré","source":"geoportail"},"geometry":{"type":"MultiLineString","coordinates":[[[5.77808,49.90223],[5.77809,49.90215],[5.77847,49.90205],[5.77907,49.90208],[5.7792,49.90179],[5.77892,49.9015],[5.77895,49.90137],[5.77991,49.90114],[5.7805,49.90074],[5.78072,49.90041],[5.78073,49.90016],[5.77976,49.89835],[5.77957,49.8977],[5.77971,49.89672],[5.77991,49.89634],[5.78005,49.89574],[5.78006,49.8953],[5.78022,49.89501],[5.78019,49.89409],[5.78012,49.89388],[5.77994,49.89371],[5.77992,49.89359],[5.78018,49.89318],[5.78092,49.89255],[5.78116,49.89202],[5.78105,49.89195],[5.78061,49.89187],[5.78039,49.89165],[5.77936,49.89099],[5.77854,49.89014],[5.77788,49.88933],[5.77771,49.88899],[5.77703,49.88624],[5.7767,49.88563],[5.77656,49.88548],[5.77616,49.88526],[5.77555,49.88509],[5.77436,49.88519],[5.77341,49.88548],[5.77301,49.88571],[5.77271,49.88598],[5.77245,49.88653],[5.77236,49.88691],[5.77239,49.88707],[5.77268,49.88737],[5.77336,49.88771],[5.77364,49.88778],[5.77402,49.88766],[5.77419,49.88723],[5.77429,49.88714],[5.7749,49.88712],[5.77548,49.88725],[5.77561,49.88759],[5.77581,49.88864],[5.77587,49.88982],[5.77572,49.89061],[5.77554,49.8909],[5.77492,49.89144],[5.77387,49.89222],[5.7733,49.89283],[5.7733,49.89308],[5.77348,49.8936],[5.77348,49.89392],[5.77338,49.89435],[5.77304,49.89504],[5.77302,49.89554],[5.77271,49.89641],[5.77265,49.89685],[5.77223,49.89726],[5.77161,49.89858],[5.77136,49.89854],[5.77088,49.89875],[5.77062,49.89879],[5.7691,49.89872],[5.76902,49.89878],[5.76905,49.89888],[5.76948,49.89939],[5.76949,49.89951],[5.76935,49.89964],[5.76712,49.89965],[5.76682,49.89979],[5.76661,49.90018],[5.76624,49.90047],[5.76481,49.90091],[5.76601,49.90102],[5.76776,49.90138],[5.76985,49.9021],[5.77149,49.90276],[5.77347,49.9034],[5.77399,49.90332],[5.77431,49.90313],[5.77435,49.90302],[5.77417,49.90228],[5.77419,49.90218],[5.77431,49.90212],[5.77544,49.90208],[5.77605,49.90196],[5.77727,49.90201],[5.77808,49.90223]]]}}