{"type":"Feature","properties":{"name":"Auto-Pédestre Tadler","source":"geoportail"},"geometry":{"type":"MultiLineString","coordinates":[[[5.99725,49.91145],[5.99697,49.91131],[5.99711,49.91147],[5.9971,49.91159],[5.9969,49.91173],[5.99665,49.9118],[5.99619,49.91174],[5.99578,49.9115],[5.99569,49.91154],[5.99569,49.9116],[5.99608,49.91198],[5.99694,49.91227],[5.99782,49.91285],[5.99908,49.91286],[5.99963,49.91307],[6.00019,49.91289],[6.00129,49.91285],[6.00156,49.91272],[6.00172,49.91255],[6.00187,49.91221],[6.00198,49.91218],[6.00205,49.91225],[6.00202,49.91256],[6.00208,49.91265],[6.00265,49.91276],[6.00461,49.9134],[6.00572,49.91388],[6.00616,49.91416],[6.00708,49.91495],[6.00747,49.91553],[6.00761,49.91553],[6.00751,49.91504],[6.00727,49.91448],[6.00689,49.91414],[6.00631,49.91347],[6.00482,49.91215],[6.00443,49.9117],[6.0044,49.91143],[6.00476,49.91061],[6.00475,49.91027],[6.00441,49.9096],[6.004,49.90901],[6.00383,49.90858],[6.0038,49.90802],[6.00388,49.90746],[6.00481,49.90662],[6.00378,49.90616],[6.00223,49.90512],[6.0022,49.90493],[6.00226,49.90469],[6.00239,49.90458],[6.00308,49.9044],[6.0031,49.90431],[6.00172,49.90395],[6.00158,49.90409],[6.00108,49.90423],[6.00042,49.90467],[6.00009,49.9047],[5.9996,49.90463],[5.99855,49.90417],[5.99835,49.90423],[5.99829,49.90445],[5.99871,49.90504],[6.00021,49.9064],[6.00042,49.90682],[6.00045,49.90709],[6.00032,49.90739],[5.9999,49.90776],[5.99932,49.90855],[5.9992,49.90935],[5.99901,49.90942],[5.99817,49.90942],[5.99811,49.90948],[5.99938,49.91016],[5.99964,49.91024],[5.99969,49.91032],[5.99607,49.91043],[5.9959,49.91046],[5.99572,49.91059],[5.99726,49.91145]]]}}