{"type":"Feature","properties":{"name":"Auto-Pédestre Useldange","source":"geoportail"},"geometry":{"type":"MultiLineString","coordinates":[[[5.98094,49.76877],[5.9807,49.76916],[5.98056,49.76968],[5.98032,49.76973],[5.98054,49.76989],[5.98056,49.77021],[5.98069,49.77022],[5.98087,49.77044],[5.98157,49.77081],[5.9815,49.77085],[5.98204,49.77105],[5.98263,49.77142],[5.98413,49.77196],[5.98432,49.77203],[5.98683,49.77204],[5.98791,49.77199],[5.98916,49.77212],[5.99179,49.77209],[5.99214,49.77217],[5.99243,49.7726],[5.99279,49.77344],[5.99278,49.77426],[5.99289,49.77448],[5.99301,49.77438],[5.99312,49.77405],[5.99323,49.77391],[5.99382,49.77341],[5.99445,49.77319],[5.9947,49.77319],[5.99495,49.7732],[5.99525,49.77332],[5.99797,49.77462],[5.99805,49.77469],[5.99806,49.77509],[5.99824,49.77537],[5.99971,49.77728],[5.99977,49.77822],[5.99911,49.77937],[5.99906,49.77959],[5.99916,49.77972],[6.00034,49.7802],[5.999,49.7811],[5.99644,49.78251],[5.99576,49.78318],[5.99554,49.78359],[5.99507,49.78411],[5.99491,49.78442],[5.99482,49.78479],[5.99472,49.78491],[5.99284,49.78571],[5.99263,49.78604],[5.99209,49.78634],[5.99053,49.78685],[5.98889,49.78751],[5.9876,49.78765],[5.98532,49.78835],[5.98516,49.78836],[5.98435,49.78798],[5.98403,49.78795],[5.98318,49.78844],[5.98099,49.79013],[5.98038,49.79065],[5.97979,49.7913],[5.97841,49.79218],[5.9782,49.79222],[5.97782,49.79216],[5.97677,49.79172],[5.97636,49.7918],[5.97557,49.79219],[5.97513,49.79196],[5.97453,49.79153],[5.97363,49.79132],[5.97266,49.79074],[5.9724,49.79039],[5.97151,49.78995],[5.97022,49.7889],[5.9698,49.78865],[5.96917,49.78775],[5.96892,49.78758],[5.96725,49.78728],[5.9652,49.78671],[5.96448,49.78657],[5.96307,49.78648],[5.96077,49.78581],[5.95929,49.78547],[5.95894,49.78449],[5.95858,49.78317],[5.95811,49.78232],[5.95727,49.78127],[5.95577,49.77959],[5.95536,49.7792],[5.95463,49.7787],[5.95391,49.77803],[5.95335,49.77761],[5.95299,49.77701],[5.95297,49.77672],[5.95309,49.77632],[5.95268,49.77623],[5.95252,49.77609],[5.9526,49.77574],[5.95271,49.7756],[5.95292,49.77553],[5.95285,49.77542],[5.95316,49.77447],[5.95405,49.77389],[5.95475,49.77354],[5.9551,49.77327],[5.95514,49.77318],[5.95506,49.77266],[5.95548,49.77224],[5.95658,49.77147],[5.95799,49.77085],[5.95916,49.77071],[5.95934,49.77063],[5.96046,49.77071],[5.9615,49.77069],[5.96322,49.77027],[5.96345,49.77029],[5.96354,49.77074],[5.96352,49.77084],[5.96336,49.77097],[5.96344,49.77107],[5.96339,49.77118],[5.96375,49.77151],[5.9639,49.7715],[5.96394,49.77141],[5.96464,49.77133],[5.96473,49.77133],[5.96471,49.77142],[5.9652,49.77149],[5.96574,49.77144],[5.96676,49.77099],[5.96704,49.77092],[5.96721,49.77051],[5.96757,49.77038],[5.96907,49.77045],[5.97033,49.77088],[5.971,49.77095],[5.97131,49.77078],[5.97035,49.76991],[5.97032,49.76982],[5.97048,49.76963],[5.97266,49.76898],[5.97393,49.76822],[5.9742,49.76785],[5.97449,49.76764],[5.97711,49.7666],[5.97803,49.76667],[5.97857,49.7671],[5.97976,49.76769],[5.97969,49.76789],[5.97971,49.76811],[5.97963,49.76823],[5.98005,49.76849],[5.98093,49.76878]]]}}