{"type":"Feature","properties":{"name":"Auto-Pédestre Arsdorf","source":"geoportail"},"geometry":{"type":"MultiLineString","coordinates":[[[5.84302,49.86041],[5.84407,49.85995],[5.84434,49.85964],[5.84454,49.85953],[5.84447,49.85947],[5.84494,49.85925],[5.84662,49.85874],[5.84714,49.85866],[5.84807,49.85862],[5.84839,49.8584],[5.84859,49.8578],[5.84868,49.8577],[5.84882,49.85766],[5.84929,49.85879],[5.84963,49.85905],[5.85027,49.85918],[5.85098,49.85943],[5.85254,49.85969],[5.85401,49.86014],[5.85431,49.86047],[5.85441,49.86076],[5.85521,49.862],[5.85521,49.8621],[5.85567,49.86252],[5.85669,49.86312],[5.85677,49.86312],[5.85719,49.86279],[5.85723,49.86309],[5.85747,49.86317],[5.85749,49.86328],[5.85741,49.86429],[5.85747,49.86521],[5.85692,49.86622],[5.85684,49.86648],[5.85664,49.86657],[5.85621,49.86661],[5.85578,49.86727],[5.85573,49.86747],[5.85523,49.86809],[5.85511,49.86833],[5.85498,49.86848],[5.8546,49.8687],[5.85451,49.86938],[5.85425,49.87049],[5.85328,49.87214],[5.85309,49.87229],[5.85186,49.87225],[5.85075,49.87244],[5.85081,49.87257],[5.85072,49.87267],[5.85052,49.87328],[5.85066,49.87389],[5.8505,49.87471],[5.85049,49.87531],[5.85033,49.87581],[5.84995,49.87643],[5.84979,49.87736],[5.84967,49.87756],[5.84922,49.87792],[5.84874,49.87808],[5.84804,49.87846],[5.84775,49.87855],[5.84704,49.87863],[5.84691,49.87902],[5.84639,49.87935],[5.84577,49.87912],[5.84505,49.87934],[5.8449,49.87946],[5.84373,49.87975],[5.84313,49.87983],[5.84282,49.87995],[5.8427,49.88002],[5.8423,49.88066],[5.84215,49.88148],[5.84517,49.88139],[5.84724,49.8816],[5.84968,49.88155],[5.85147,49.88175],[5.85265,49.88173],[5.85274,49.8818],[5.85408,49.88102],[5.85531,49.88042],[5.85599,49.87982],[5.85608,49.87995],[5.8563,49.88079],[5.85661,49.88085],[5.85688,49.8808],[5.85752,49.8805],[5.85777,49.88023],[5.85784,49.88027],[5.85828,49.88064],[5.85981,49.8823],[5.86018,49.8826],[5.86031,49.88255],[5.86047,49.8827],[5.86218,49.88311],[5.86318,49.88314],[5.86417,49.88353],[5.86461,49.88343],[5.86537,49.88356],[5.86556,49.88345],[5.86554,49.88335],[5.86562,49.88324],[5.86633,49.88285],[5.86662,49.88259],[5.86802,49.88194],[5.86835,49.88137],[5.86869,49.88091],[5.86939,49.88027],[5.86754,49.87948],[5.8649,49.87812],[5.86339,49.8776],[5.86141,49.87705],[5.85875,49.87577],[5.85725,49.87482],[5.85644,49.8742],[5.85511,49.87272],[5.85487,49.87229],[5.85478,49.87195],[5.85481,49.87173],[5.85539,49.87061],[5.85522,49.86939],[5.85526,49.86898],[5.85564,49.86801],[5.85578,49.86727],[5.85621,49.86661],[5.85664,49.86657],[5.85684,49.86648],[5.85692,49.86622],[5.85747,49.86521],[5.85741,49.86429],[5.8575,49.86326],[5.85746,49.86317],[5.85723,49.86308],[5.85719,49.86278],[5.85677,49.86312],[5.85669,49.86312],[5.85567,49.86252],[5.85521,49.8621],[5.85521,49.862],[5.8544,49.86076],[5.85431,49.86046],[5.85405,49.86016],[5.85256,49.85969],[5.85098,49.85943],[5.84963,49.85905],[5.84928,49.85878],[5.84882,49.85766],[5.84868,49.85769],[5.84859,49.8578],[5.84839,49.8584],[5.84806,49.85863],[5.84677,49.85871],[5.84491,49.85926],[5.84447,49.85947],[5.84454,49.85953],[5.84432,49.85965],[5.84411,49.85992],[5.84301,49.86041]]]}}