{"type":"Feature","properties":{"name":"Auto-Pédestre Beaufort","source":"geoportail"},"geometry":{"type":"MultiLineString","coordinates":[[[6.28916,49.83971],[6.28932,49.83981],[6.28962,49.8386],[6.28987,49.8379],[6.29026,49.83746],[6.29175,49.8365],[6.29202,49.83623],[6.29224,49.83597],[6.2926,49.83533],[6.29301,49.83416],[6.29392,49.83437],[6.29423,49.83435],[6.2963,49.8349],[6.29796,49.83437],[6.29879,49.83404],[6.29969,49.83316],[6.30022,49.83275],[6.30075,49.83243],[6.30132,49.83226],[6.30547,49.83177],[6.30692,49.83151],[6.30887,49.83145],[6.3097,49.83137],[6.31114,49.83117],[6.31268,49.83084],[6.31385,49.83072],[6.31784,49.83061],[6.31928,49.83069],[6.32233,49.83067],[6.32304,49.83061],[6.32297,49.83],[6.32279,49.82927],[6.32237,49.82868],[6.32218,49.82809],[6.32193,49.82778],[6.3208,49.82589],[6.32044,49.82543],[6.31996,49.82463],[6.31971,49.8237],[6.31942,49.82363],[6.31902,49.82367],[6.31795,49.82437],[6.31764,49.82451],[6.31524,49.82494],[6.31445,49.82468],[6.31397,49.82461],[6.31359,49.82469],[6.31333,49.82459],[6.31261,49.82392],[6.3124,49.82381],[6.31128,49.82373],[6.31089,49.82363],[6.31067,49.82334],[6.31138,49.8233],[6.3114,49.82321],[6.31122,49.82304],[6.31133,49.82291],[6.31121,49.8229],[6.31032,49.82286],[6.30997,49.82295],[6.30954,49.82319],[6.30869,49.82351],[6.30828,49.82383],[6.30791,49.82386],[6.30656,49.82366],[6.30586,49.82342],[6.3055,49.8234],[6.30525,49.82325],[6.30414,49.82312],[6.30392,49.82301],[6.30304,49.82303],[6.30176,49.82279],[6.30114,49.82261],[6.30028,49.82248],[6.29799,49.82232],[6.29726,49.82238],[6.29665,49.82259],[6.29626,49.82295],[6.29613,49.82328],[6.29625,49.82404],[6.29639,49.8245],[6.29681,49.82484],[6.29716,49.82496],[6.29766,49.82535],[6.29798,49.82603],[6.29815,49.82654],[6.298,49.82679],[6.29798,49.82702],[6.29778,49.82719],[6.29751,49.82719],[6.29698,49.82758],[6.29687,49.82774],[6.29609,49.82804],[6.29531,49.82845],[6.29477,49.82851],[6.29383,49.82889],[6.29277,49.82944],[6.29167,49.82978],[6.29129,49.83001],[6.29114,49.83025],[6.29085,49.83041],[6.29073,49.83055],[6.28967,49.8312],[6.28857,49.83153],[6.28766,49.83202],[6.28708,49.83248],[6.28681,49.83287],[6.28686,49.8331],[6.28698,49.83317],[6.28736,49.83321],[6.28763,49.83345],[6.28781,49.83375],[6.28766,49.83418],[6.28662,49.83518],[6.28643,49.83554],[6.28581,49.83632],[6.28645,49.83616],[6.28673,49.83618],[6.28677,49.83625],[6.28616,49.83647],[6.2859,49.83669],[6.28574,49.83698],[6.28582,49.83703],[6.28668,49.83668],[6.28731,49.8367],[6.28688,49.83686],[6.28659,49.83713],[6.28635,49.83744],[6.28631,49.83769],[6.28692,49.83803],[6.28776,49.83873],[6.28821,49.83896],[6.28884,49.83919],[6.28873,49.83961],[6.28916,49.8397]]]}}