{"type":"Feature","properties":{"name":"Auto-Pédestre Berdorf","source":"geoportail"},"geometry":{"type":"MultiLineString","coordinates":[[[6.35133,49.82301],[6.35329,49.82383],[6.35459,49.8234],[6.3562,49.82309],[6.35906,49.82318],[6.36037,49.8231],[6.36282,49.82324],[6.36303,49.82321],[6.36405,49.82227],[6.36535,49.82075],[6.36593,49.82023],[6.36835,49.81765],[6.3684,49.81749],[6.3699,49.81819],[6.37104,49.81827],[6.37225,49.8185],[6.37257,49.81868],[6.37275,49.81887],[6.37289,49.81916],[6.37293,49.81972],[6.37241,49.82019],[6.37241,49.82047],[6.37255,49.8207],[6.37253,49.8214],[6.37249,49.82157],[6.37227,49.82189],[6.37232,49.82215],[6.37262,49.82246],[6.37274,49.82281],[6.37299,49.82303],[6.37306,49.82329],[6.37334,49.82359],[6.37338,49.82376],[6.37325,49.824],[6.37303,49.82418],[6.37287,49.82441],[6.37234,49.82483],[6.3721,49.82523],[6.37212,49.82546],[6.3722,49.82519],[6.37237,49.82512],[6.37255,49.82517],[6.37311,49.8248],[6.37316,49.82473],[6.37311,49.82459],[6.37318,49.8245],[6.37342,49.82434],[6.37398,49.82376],[6.37395,49.82349],[6.37356,49.82301],[6.37355,49.82291],[6.37321,49.82256],[6.37319,49.82234],[6.37325,49.82221],[6.37333,49.82218],[6.37322,49.82201],[6.37324,49.8219],[6.37354,49.8217],[6.37373,49.82145],[6.37371,49.82122],[6.37378,49.82106],[6.37372,49.8206],[6.37429,49.81982],[6.37441,49.81941],[6.37443,49.81907],[6.37494,49.81863],[6.37511,49.81827],[6.37539,49.81808],[6.37582,49.81802],[6.3758,49.81783],[6.37512,49.81787],[6.37507,49.8178],[6.37458,49.81782],[6.37354,49.81771],[6.37282,49.8177],[6.37147,49.81741],[6.37059,49.81712],[6.37025,49.81694],[6.37018,49.81677],[6.36995,49.81663],[6.36959,49.81655],[6.36904,49.81628],[6.36843,49.81616],[6.36794,49.8159],[6.36723,49.81579],[6.36714,49.81585],[6.36672,49.81577],[6.36634,49.81578],[6.3659,49.81564],[6.36553,49.81561],[6.36525,49.81569],[6.3648,49.81565],[6.36424,49.81544],[6.36381,49.81557],[6.36351,49.81546],[6.36297,49.81549],[6.36248,49.81531],[6.3615,49.81532],[6.36077,49.81517],[6.3602,49.81521],[6.35958,49.81513],[6.35885,49.81517],[6.35931,49.81528],[6.3589,49.81534],[6.35891,49.81549],[6.35874,49.8156],[6.35863,49.81584],[6.35886,49.816],[6.35902,49.81629],[6.35784,49.81606],[6.35743,49.81615],[6.35633,49.81602],[6.35579,49.81606],[6.35573,49.81621],[6.35308,49.81852],[6.35017,49.81996],[6.35002,49.82009],[6.34963,49.82072],[6.3493,49.82072],[6.34932,49.82105],[6.3492,49.82106],[6.34917,49.82133],[6.34903,49.82146],[6.34909,49.82152],[6.34942,49.82155],[6.35008,49.82225],[6.3513,49.823]]]}}