{"type":"Feature","properties":{"name":"Auto-Pédestre Betzdorf","source":"geoportail"},"geometry":{"type":"MultiLineString","coordinates":[[[6.34934,49.68891],[6.34938,49.68892],[6.34928,49.68906],[6.34882,49.68962],[6.34906,49.69056],[6.34913,49.69139],[6.34936,49.6916],[6.34979,49.69183],[6.35192,49.69258],[6.35185,49.69389],[6.35189,49.69426],[6.35253,49.69576],[6.35281,49.69614],[6.3532,49.69636],[6.35329,49.69657],[6.35326,49.69689],[6.35303,49.69738],[6.35309,49.6977],[6.35306,49.69802],[6.35281,49.69857],[6.35254,49.69966],[6.35217,49.70073],[6.35205,49.70094],[6.35168,49.70123],[6.3509,49.70161],[6.35042,49.70156],[6.34949,49.70132],[6.34865,49.70124],[6.34832,49.70127],[6.34814,49.70137],[6.34741,49.70234],[6.3472,49.70244],[6.34544,49.7023],[6.34425,49.7028],[6.34356,49.70291],[6.34122,49.70268],[6.34033,49.70245],[6.33883,49.70367],[6.33816,49.70447],[6.33811,49.70462],[6.33608,49.70427],[6.3336,49.70396],[6.33218,49.70411],[6.33205,49.70397],[6.33205,49.70385],[6.3322,49.70353],[6.33227,49.70301],[6.33194,49.70294],[6.33024,49.70196],[6.3301,49.70182],[6.32946,49.69922],[6.3293,49.6991],[6.32893,49.69901],[6.32876,49.69886],[6.3288,49.69852],[6.32962,49.69699],[6.32948,49.69679],[6.32911,49.69654],[6.32897,49.69619],[6.32827,49.69522],[6.32769,49.6942],[6.32526,49.69462],[6.32391,49.69462],[6.32338,49.69457],[6.3231,49.69411],[6.32313,49.69394],[6.32336,49.69381],[6.32663,49.6927],[6.32739,49.69215],[6.32803,49.69196],[6.32891,49.69118],[6.32917,49.69105],[6.32937,49.69108],[6.32984,49.69131],[6.33015,49.69154],[6.33022,49.6917],[6.33035,49.69173],[6.33041,49.69183],[6.33077,49.69187],[6.33176,49.69224],[6.33249,49.6924],[6.33349,49.6911],[6.33371,49.69092],[6.33393,49.69083],[6.33494,49.69065],[6.3356,49.69064],[6.33566,49.69078],[6.33641,49.69031],[6.3374,49.68897],[6.33774,49.68835],[6.33942,49.68812],[6.34119,49.68826],[6.3413,49.68846],[6.34128,49.6888],[6.34103,49.68915],[6.34076,49.68972],[6.34013,49.69065],[6.34006,49.69242],[6.33981,49.69371],[6.33962,49.69424],[6.33926,49.6949],[6.33884,49.69601],[6.33811,49.69709],[6.33762,49.69724],[6.33701,49.69716],[6.33685,49.69754],[6.33633,49.69954],[6.33648,49.7002],[6.33688,49.70108],[6.33696,49.70115],[6.33726,49.70117],[6.33938,49.70025],[6.34011,49.69965],[6.34146,49.69878],[6.34277,49.69747],[6.34335,49.6971],[6.34411,49.69601],[6.34407,49.69591],[6.34375,49.69578],[6.34371,49.69565],[6.34436,49.69431],[6.344,49.69418],[6.34396,49.69411],[6.34475,49.69286],[6.34496,49.69238],[6.34537,49.69203],[6.34606,49.69159],[6.34755,49.69091],[6.34787,49.69058],[6.34827,49.69],[6.3488,49.68961],[6.34932,49.68892]]]}}