{"type":"Feature","properties":{"name":"Auto-Pédestre Bigonville","source":"geoportail"},"geometry":{"type":"MultiLineString","coordinates":[[[5.79151,49.84896],[5.79156,49.8497],[5.79144,49.84969],[5.79111,49.85],[5.79086,49.85011],[5.78749,49.85074],[5.78681,49.851],[5.78586,49.85157],[5.78555,49.85166],[5.78323,49.85205],[5.78257,49.85204],[5.78192,49.85194],[5.78106,49.85162],[5.78049,49.8513],[5.78011,49.85118],[5.77963,49.85114],[5.77847,49.85121],[5.7768,49.85115],[5.77648,49.85143],[5.77488,49.85242],[5.77242,49.85339],[5.7719,49.85381],[5.77157,49.85431],[5.77136,49.85484],[5.77134,49.85522],[5.77222,49.8557],[5.77497,49.85696],[5.77519,49.85718],[5.77505,49.85744],[5.77511,49.85756],[5.776,49.85808],[5.77668,49.85842],[5.77771,49.8588],[5.77917,49.8592],[5.77931,49.85912],[5.77949,49.85884],[5.77961,49.85791],[5.77971,49.85781],[5.7823,49.85845],[5.78172,49.85879],[5.7808,49.85963],[5.78033,49.85991],[5.77998,49.86003],[5.7793,49.86017],[5.77626,49.86024],[5.77553,49.86033],[5.7749,49.86056],[5.77392,49.86073],[5.77122,49.86175],[5.76903,49.86233],[5.76683,49.86379],[5.7665,49.86411],[5.76537,49.86551],[5.76445,49.86621],[5.76295,49.86672],[5.76193,49.86691],[5.75994,49.86753],[5.75851,49.86804],[5.75819,49.86824],[5.757,49.8676],[5.75701,49.86736],[5.75725,49.86707],[5.75764,49.867],[5.75836,49.86632],[5.75894,49.86599],[5.75989,49.86519],[5.7602,49.8647],[5.76023,49.86405],[5.76034,49.86387],[5.7607,49.86357],[5.76077,49.86338],[5.76046,49.86292],[5.76017,49.86202],[5.76002,49.86194],[5.76011,49.86167],[5.7603,49.86132],[5.76056,49.86108],[5.76101,49.86084],[5.76111,49.86061],[5.76163,49.86046],[5.76209,49.86017],[5.76212,49.86002],[5.76232,49.85971],[5.76228,49.85955],[5.76219,49.85946],[5.76091,49.85915],[5.76076,49.85902],[5.76092,49.85892],[5.76102,49.85876],[5.76102,49.8584],[5.76109,49.85832],[5.7616,49.85808],[5.76152,49.85782],[5.76098,49.85714],[5.76144,49.85698],[5.76146,49.85687],[5.76131,49.85676],[5.76154,49.85665],[5.76128,49.85655],[5.76113,49.85633],[5.76089,49.85626],[5.76073,49.85598],[5.76039,49.85586],[5.76178,49.85576],[5.76412,49.85574],[5.76512,49.85546],[5.76525,49.85521],[5.76518,49.85456],[5.76608,49.85341],[5.76576,49.85347],[5.76485,49.85391],[5.76316,49.85395],[5.76165,49.85431],[5.76064,49.85435],[5.75939,49.85409],[5.7576,49.8533],[5.75749,49.85317],[5.75739,49.85286],[5.75742,49.85273],[5.76,49.85228],[5.76158,49.8519],[5.7625,49.85141],[5.76275,49.85117],[5.76289,49.85087],[5.76279,49.84998],[5.76296,49.84959],[5.76326,49.8493],[5.76435,49.84872],[5.76483,49.84831],[5.76518,49.84782],[5.76557,49.847],[5.76598,49.84637],[5.76702,49.84697],[5.76816,49.84777],[5.76872,49.84827],[5.76908,49.84893],[5.76959,49.84927],[5.77027,49.84961],[5.77161,49.84898],[5.77197,49.84912],[5.77253,49.84947],[5.77299,49.84944],[5.77315,49.84957],[5.77343,49.8496],[5.77336,49.84953],[5.77338,49.84945],[5.77359,49.84936],[5.77452,49.84946],[5.77495,49.84926],[5.77577,49.848],[5.77697,49.84702],[5.77713,49.84673],[5.77686,49.84651],[5.77685,49.84638],[5.77783,49.84548],[5.77863,49.84508],[5.77984,49.84467],[5.78145,49.84431],[5.78274,49.8442],[5.78278,49.84417],[5.78268,49.84392],[5.783,49.84379],[5.78395,49.84372],[5.78555,49.84378],[5.78708,49.84395],[5.78749,49.84414],[5.78826,49.84465],[5.78919,49.84496],[5.79004,49.84543],[5.79061,49.84566],[5.79155,49.84631],[5.79169,49.84634],[5.79226,49.84609],[5.79258,49.84645],[5.79284,49.84691],[5.79291,49.84854],[5.79274,49.84867],[5.79171,49.84873],[5.79157,49.84879],[5.79151,49.84891]]]}}