{"type":"Feature","properties":{"name":"Auto-Pédestre Binsfeld","source":"geoportail"},"geometry":{"type":"MultiLineString","coordinates":[[[6.036,50.11736],[6.03668,50.1172],[6.03685,50.11724],[6.03689,50.11802],[6.03701,50.11802],[6.037,50.11958],[6.0372,50.1197],[6.03827,50.11959],[6.04014,50.11973],[6.04008,50.11899],[6.04166,50.11892],[6.04392,50.11839],[6.0469,50.11833],[6.04774,50.11849],[6.04801,50.11815],[6.04836,50.1174],[6.04829,50.11707],[6.04795,50.11672],[6.04795,50.11657],[6.04825,50.11647],[6.04906,50.11651],[6.04811,50.11578],[6.04773,50.11533],[6.04761,50.11508],[6.04752,50.11456],[6.04755,50.11435],[6.04766,50.11414],[6.04776,50.11417],[6.04789,50.11434],[6.04856,50.11422],[6.04878,50.11406],[6.04898,50.11369],[6.04902,50.1133],[6.04861,50.1125],[6.0487,50.11241],[6.04931,50.11223],[6.0484,50.11173],[6.04601,50.11119],[6.04769,50.11105],[6.04645,50.11074],[6.0464,50.11054],[6.04645,50.11048],[6.04627,50.11019],[6.04616,50.10975],[6.04578,50.10907],[6.04535,50.10866],[6.04395,50.10758],[6.04346,50.10702],[6.0435,50.10646],[6.04375,50.10605],[6.04257,50.10683],[6.04182,50.10641],[6.04174,50.10627],[6.04138,50.10458],[6.04125,50.10429],[6.04104,50.10408],[6.04039,50.10381],[6.03744,50.10327],[6.03556,50.10195],[6.03464,50.10162],[6.03367,50.10144],[6.03294,50.10094],[6.03214,50.09999],[6.03147,50.09952],[6.03169,50.09906],[6.03215,50.09867],[6.03231,50.09831],[6.03215,50.09822],[6.03204,50.09825],[6.03131,50.0988],[6.03105,50.09891],[6.03059,50.09891],[6.03015,50.0988],[6.02952,50.09852],[6.029,50.09817],[6.02833,50.09765],[6.02785,50.09717],[6.02684,50.09694],[6.02622,50.09547],[6.02613,50.09549],[6.02602,50.09524],[6.02591,50.09515],[6.02565,50.0951],[6.02439,50.09521],[6.0238,50.09537],[6.02348,50.09563],[6.02353,50.09612],[6.02333,50.0968],[6.02416,50.09588],[6.02474,50.09574],[6.02503,50.09577],[6.02511,50.09588],[6.02469,50.09648],[6.02459,50.09691],[6.02483,50.09761],[6.02574,50.09905],[6.02581,50.09938],[6.02696,50.10023],[6.02972,50.10339],[6.03108,50.10424],[6.03176,50.105],[6.03238,50.10543],[6.0324,50.10572],[6.03204,50.10647],[6.03199,50.10696],[6.03157,50.10859],[6.03124,50.10941],[6.03142,50.11068],[6.03143,50.11138],[6.03133,50.11186],[6.03107,50.11221],[6.03255,50.11361],[6.03359,50.11498],[6.03395,50.11518],[6.03477,50.11545],[6.03572,50.11591],[6.03584,50.11589],[6.03678,50.1165],[6.03695,50.11677],[6.03688,50.11705],[6.03656,50.11724],[6.036,50.11734]]]}}