{"type":"Feature","properties":{"name":"Auto-Pédestre Bollendorf-Pont","source":"geoportail"},"geometry":{"type":"MultiLineString","coordinates":[[[6.358,49.84998],[6.35759,49.84979],[6.35758,49.84971],[6.35809,49.84947],[6.35815,49.84937],[6.35838,49.84922],[6.35888,49.84905],[6.35955,49.84839],[6.35942,49.84755],[6.35925,49.84723],[6.35902,49.847],[6.3591,49.84673],[6.35965,49.84648],[6.35967,49.84637],[6.35949,49.84627],[6.35699,49.84639],[6.35525,49.84625],[6.3554,49.84612],[6.35606,49.84598],[6.35686,49.84595],[6.35706,49.84582],[6.35706,49.84564],[6.35647,49.84503],[6.35601,49.84469],[6.3559,49.84446],[6.35619,49.84442],[6.35615,49.84427],[6.35626,49.84409],[6.35624,49.84386],[6.35612,49.84372],[6.35583,49.84356],[6.35581,49.84343],[6.35555,49.84332],[6.35551,49.84313],[6.35532,49.84301],[6.35525,49.84271],[6.35529,49.84263],[6.35515,49.84234],[6.35541,49.84213],[6.35541,49.84198],[6.35439,49.84141],[6.35363,49.84115],[6.3534,49.84099],[6.35372,49.84096],[6.35414,49.84112],[6.35473,49.8411],[6.3556,49.84122],[6.35631,49.84148],[6.35654,49.84163],[6.35693,49.84163],[6.3575,49.84204],[6.35769,49.84201],[6.35812,49.8421],[6.35899,49.84212],[6.35943,49.84204],[6.35953,49.84191],[6.36076,49.84176],[6.36117,49.8419],[6.36166,49.84192],[6.36226,49.84156],[6.36238,49.84112],[6.36262,49.84083],[6.36272,49.84047],[6.36319,49.83993],[6.36335,49.83988],[6.36362,49.83961],[6.36456,49.83932],[6.36531,49.83886],[6.36579,49.83842],[6.36629,49.83822],[6.36751,49.83799],[6.36925,49.83744],[6.37031,49.83747],[6.37115,49.83721],[6.37142,49.83724],[6.37168,49.83698],[6.37334,49.83622],[6.37348,49.83607],[6.37389,49.83586],[6.37413,49.83548],[6.37462,49.83504],[6.37531,49.83457],[6.37617,49.83375],[6.37686,49.83287],[6.37749,49.83236],[6.37761,49.83203],[6.3789,49.83138],[6.37976,49.83119],[6.38001,49.83104],[6.3803,49.83068],[6.38033,49.83029],[6.38094,49.83034],[6.38167,49.83019],[6.38175,49.8303],[6.38142,49.83057],[6.3815,49.83071],[6.38192,49.83091],[6.38203,49.83088],[6.3823,49.83055],[6.38247,49.83056],[6.38258,49.83071],[6.38296,49.83075],[6.38334,49.8306],[6.38337,49.83064],[6.38316,49.83083],[6.38289,49.83096],[6.38292,49.83103],[6.38279,49.8312],[6.38286,49.83132],[6.38272,49.83166],[6.38295,49.8318],[6.38319,49.83179],[6.38352,49.83163],[6.38368,49.83163],[6.38432,49.83134],[6.38556,49.83115],[6.38644,49.83085],[6.38677,49.8308],[6.38689,49.83087],[6.38405,49.83269],[6.38379,49.833],[6.38352,49.83349],[6.38457,49.83385],[6.38401,49.83434],[6.38258,49.83596],[6.38198,49.8365],[6.38106,49.83725],[6.37986,49.83775],[6.37936,49.83815],[6.37877,49.83914],[6.378,49.84011],[6.37746,49.84045],[6.37678,49.8406],[6.37423,49.8418],[6.3729,49.84268],[6.37258,49.84305],[6.37281,49.84321],[6.37221,49.84374],[6.37186,49.84397],[6.37124,49.84503],[6.36939,49.84669],[6.3681,49.84802],[6.3681,49.84817],[6.36662,49.84996],[6.36616,49.85018],[6.36579,49.85027],[6.36459,49.85089],[6.36411,49.85105],[6.36298,49.85118],[6.36296,49.85126],[6.36281,49.85126],[6.35839,49.85123],[6.3583,49.85114],[6.35832,49.85045],[6.35835,49.85025],[6.3585,49.85018],[6.35853,49.8501],[6.35803,49.84998]]]}}