{"type":"Feature","properties":{"name":"Auto-Pédestre Brouch","source":"geoportail"},"geometry":{"type":"MultiLineString","coordinates":[[[6.02057,49.73525],[6.02085,49.73537],[6.02081,49.73542],[6.02089,49.73549],[6.02061,49.73689],[6.02049,49.73706],[6.02206,49.73738],[6.02166,49.73801],[6.0214,49.73816],[6.02111,49.73863],[6.02137,49.73871],[6.02121,49.73899],[6.02019,49.73946],[6.02009,49.73959],[6.02011,49.7397],[6.02035,49.73992],[6.02095,49.74018],[6.02034,49.74111],[6.02073,49.74166],[6.02042,49.74188],[6.02088,49.742],[6.02107,49.74216],[6.02067,49.7422],[6.02092,49.7423],[6.02068,49.7423],[6.02047,49.74242],[6.02038,49.74259],[6.02038,49.74282],[6.0206,49.7429],[6.02256,49.74299],[6.02245,49.7431],[6.02232,49.7434],[6.02216,49.7435],[6.02081,49.74382],[6.0196,49.74375],[6.02004,49.744],[6.02044,49.74416],[6.02163,49.74435],[6.0223,49.74438],[6.0228,49.74432],[6.02305,49.74408],[6.02318,49.74407],[6.02421,49.74427],[6.02509,49.74457],[6.02631,49.74486],[6.02702,49.74498],[6.0274,49.74499],[6.02794,49.74477],[6.03083,49.74402],[6.03218,49.74301],[6.03238,49.74292],[6.03242,49.74262],[6.03295,49.74238],[6.03489,49.74082],[6.03711,49.74039],[6.03866,49.74019],[6.0394,49.73971],[6.03995,49.73968],[6.04066,49.73882],[6.04126,49.73916],[6.04155,49.73953],[6.04134,49.73969],[6.04227,49.74023],[6.04359,49.74083],[6.04396,49.74113],[6.04489,49.74137],[6.04614,49.74184],[6.0471,49.74197],[6.04759,49.74195],[6.04792,49.74181],[6.04811,49.7416],[6.04842,49.74081],[6.04871,49.74048],[6.04951,49.74011],[6.05064,49.73989],[6.05243,49.73879],[6.0521,49.73879],[6.05177,49.73864],[6.05073,49.73765],[6.05024,49.73689],[6.04938,49.73624],[6.04858,49.73484],[6.0474,49.73332],[6.0456,49.73218],[6.04503,49.7319],[6.04445,49.73186],[6.04373,49.7322],[6.04439,49.73158],[6.04564,49.73099],[6.04614,49.73051],[6.04464,49.7302],[6.0435,49.73013],[6.04261,49.72983],[6.04262,49.72953],[6.04288,49.72909],[6.04362,49.72898],[6.0442,49.7288],[6.04453,49.72863],[6.04458,49.72836],[6.04126,49.72837],[6.04139,49.72838],[6.04138,49.72852],[6.04075,49.72884],[6.03991,49.72974],[6.0398,49.73032],[6.03954,49.73089],[6.03885,49.7313],[6.03827,49.73189],[6.03821,49.73206],[6.03829,49.7324],[6.03822,49.73247],[6.03757,49.73242],[6.03727,49.7326],[6.03638,49.73257],[6.03533,49.73316],[6.0345,49.7331],[6.0337,49.73283],[6.03307,49.73277],[6.03177,49.73314],[6.03006,49.7333],[6.02834,49.73375],[6.02799,49.73398],[6.0276,49.73439],[6.02751,49.73462],[6.02752,49.73481],[6.02764,49.73515],[6.02864,49.73642],[6.0287,49.73682],[6.02857,49.73698],[6.02843,49.73704],[6.02733,49.73738],[6.02477,49.73682],[6.02061,49.73525]]]}}