{"type":"Feature","properties":{"name":"Auto-Pédestre Büderscheid","source":"geoportail"},"geometry":{"type":"MultiLineString","coordinates":[[[5.93663,49.93453],[5.93663,49.93447],[5.93601,49.93453],[5.93537,49.93488],[5.93434,49.93509],[5.93326,49.93518],[5.93248,49.93532],[5.93021,49.93541],[5.92957,49.93553],[5.92912,49.9357],[5.92904,49.93614],[5.92889,49.93645],[5.92853,49.93678],[5.92816,49.93695],[5.92586,49.93719],[5.92465,49.93747],[5.92367,49.93781],[5.92264,49.93837],[5.92238,49.93863],[5.92193,49.93939],[5.92183,49.9401],[5.92099,49.94041],[5.91992,49.94104],[5.91909,49.94173],[5.91836,49.94245],[5.91791,49.94272],[5.91774,49.94315],[5.91766,49.94385],[5.9178,49.94432],[5.91827,49.94488],[5.91912,49.94566],[5.91988,49.94625],[5.92014,49.94665],[5.92034,49.9472],[5.92187,49.94627],[5.92214,49.94627],[5.92393,49.94662],[5.92421,49.94658],[5.92447,49.94644],[5.92483,49.94594],[5.92525,49.94514],[5.92621,49.94453],[5.92675,49.94399],[5.92753,49.94358],[5.92767,49.94345],[5.9278,49.94315],[5.92803,49.94209],[5.92811,49.94195],[5.92845,49.94172],[5.92891,49.94097],[5.93024,49.93996],[5.93181,49.93923],[5.93184,49.93905],[5.93196,49.93888],[5.93196,49.93871],[5.93236,49.93805],[5.93276,49.93745],[5.9333,49.93696],[5.93304,49.93697],[5.93343,49.93678],[5.93599,49.9361],[5.93663,49.93607],[5.93674,49.93616],[5.93688,49.93612],[5.93691,49.93607],[5.93625,49.93583],[5.93618,49.93575],[5.93624,49.93553],[5.93645,49.9353],[5.93727,49.93506],[5.93725,49.93502],[5.93674,49.93507],[5.93657,49.93501],[5.93641,49.93463],[5.93663,49.93453]]]}}