{"type":"Feature","properties":{"name":"Auto-Pédestre Canach","source":"geoportail"},"geometry":{"type":"MultiLineString","coordinates":[[[6.32468,49.61076],[6.32504,49.61088],[6.32535,49.61108],[6.32649,49.61091],[6.32663,49.61193],[6.3264,49.613],[6.32621,49.61371],[6.32564,49.61418],[6.32566,49.61434],[6.32609,49.61489],[6.32595,49.61496],[6.32619,49.61526],[6.32673,49.61576],[6.32727,49.61614],[6.32734,49.61623],[6.32733,49.61636],[6.32721,49.61659],[6.32744,49.61667],[6.32761,49.61657],[6.32766,49.61645],[6.32786,49.61641],[6.32789,49.61617],[6.32767,49.61562],[6.32701,49.61456],[6.32696,49.61429],[6.32729,49.61382],[6.32806,49.61306],[6.3283,49.6129],[6.32853,49.61285],[6.32904,49.61288],[6.3312,49.61329],[6.33577,49.61389],[6.33767,49.61446],[6.33918,49.61477],[6.34055,49.61514],[6.3423,49.61534],[6.34233,49.61537],[6.34208,49.61557],[6.34333,49.61571],[6.34639,49.61632],[6.3474,49.61632],[6.34796,49.61648],[6.3488,49.61658],[6.34966,49.61687],[6.34986,49.61687],[6.35049,49.61653],[6.35127,49.61635],[6.35236,49.61585],[6.35243,49.61571],[6.3524,49.61499],[6.35248,49.61466],[6.35319,49.61353],[6.35359,49.61316],[6.35416,49.61281],[6.3555,49.61261],[6.35601,49.61247],[6.35754,49.61172],[6.35769,49.61123],[6.35779,49.61058],[6.35893,49.6089],[6.35893,49.60842],[6.35901,49.608],[6.35873,49.60757],[6.35851,49.60681],[6.35822,49.60644],[6.3578,49.60561],[6.35777,49.6052],[6.35794,49.60499],[6.35859,49.60475],[6.35869,49.60494],[6.35895,49.60508],[6.35917,49.60471],[6.35951,49.60436],[6.36006,49.604],[6.36042,49.60361],[6.36083,49.60341],[6.36155,49.60321],[6.36251,49.60325],[6.3641,49.60373],[6.36527,49.60422],[6.36643,49.6048],[6.36688,49.60516],[6.367,49.6055],[6.36799,49.60636],[6.36799,49.60592],[6.36751,49.60465],[6.36743,49.60414],[6.368,49.60331],[6.36788,49.60287],[6.36794,49.60248],[6.36794,49.6012],[6.36786,49.60094],[6.36736,49.60086],[6.36691,49.60068],[6.3656,49.60074],[6.36546,49.60065],[6.36483,49.60048],[6.36417,49.60048],[6.3636,49.60057],[6.36332,49.60053],[6.36134,49.60071],[6.36057,49.60051],[6.36013,49.60047],[6.3599,49.60051],[6.35897,49.60088],[6.35709,49.60127],[6.35541,49.60173],[6.35481,49.60182],[6.35393,49.60176],[6.3532,49.60154],[6.35166,49.60086],[6.34929,49.60026],[6.34748,49.5992],[6.34642,49.59841],[6.34549,49.59788],[6.34474,49.59755],[6.34409,49.59717],[6.34267,49.59669],[6.34163,49.59648],[6.33714,49.59607],[6.33306,49.5955],[6.33097,49.59512],[6.32972,49.59477],[6.32926,49.59494],[6.32897,49.59531],[6.32896,49.5959],[6.32907,49.59643],[6.3294,49.59668],[6.3294,49.59678],[6.3292,49.5972],[6.32893,49.59747],[6.32871,49.59781],[6.32858,49.59842],[6.32898,49.5988],[6.32892,49.59908],[6.32898,49.59924],[6.32866,49.59958],[6.32869,49.59969],[6.32844,49.60024],[6.32817,49.60045],[6.328,49.6005],[6.32791,49.60076],[6.32796,49.60117],[6.3281,49.60158],[6.3283,49.60176],[6.32814,49.60189],[6.32713,49.60235],[6.32686,49.60255],[6.3262,49.60262],[6.32585,49.60286],[6.32582,49.60303],[6.32565,49.60321],[6.32573,49.60369],[6.32566,49.60383],[6.32574,49.60409],[6.32591,49.60428],[6.32599,49.6047],[6.32621,49.60484],[6.32621,49.60516],[6.32615,49.60528],[6.32584,49.60529],[6.3255,49.60513],[6.32498,49.60502],[6.32487,49.60493],[6.32468,49.60428],[6.32453,49.60408],[6.32455,49.60381],[6.32446,49.60369],[6.32449,49.60358],[6.3244,49.60337],[6.32452,49.60321],[6.3245,49.60308],[6.32457,49.60298],[6.3244,49.60258],[6.32443,49.60249],[6.32493,49.60212],[6.32539,49.6021],[6.32547,49.60206],[6.32558,49.60186],[6.32584,49.60187],[6.32602,49.60178],[6.32616,49.60156],[6.32596,49.60133],[6.32592,49.6012],[6.32539,49.60101],[6.32447,49.60092],[6.3242,49.60091],[6.32304,49.60109],[6.32316,49.60127],[6.32321,49.60152],[6.32265,49.60262],[6.32243,49.60329],[6.32243,49.6035],[6.32283,49.60467],[6.32289,49.60549],[6.32307,49.60582],[6.32394,49.60678],[6.3251,49.60766],[6.32527,49.60829],[6.32546,49.60851],[6.32549,49.60926],[6.32541,49.60951],[6.3248,49.60943],[6.32472,49.60966],[6.32428,49.61001],[6.32359,49.61014],[6.32366,49.61057],[6.32468,49.61076]]]}}