{"type":"Feature","properties":{"name":"Auto-Pédestre Colmar-Berg","source":"geoportail"},"geometry":{"type":"MultiLineString","coordinates":[[[6.09277,49.80945],[6.09254,49.80969],[6.09233,49.80977],[6.09188,49.80977],[6.09157,49.80986],[6.09076,49.80983],[6.08962,49.81012],[6.08851,49.81016],[6.0886,49.80893],[6.08877,49.8079],[6.08872,49.80749],[6.08883,49.80712],[6.08894,49.80694],[6.09012,49.80573],[6.09062,49.80477],[6.09109,49.80421],[6.09067,49.80377],[6.09048,49.80374],[6.08937,49.80394],[6.08926,49.80384],[6.08904,49.80378],[6.08891,49.80383],[6.08868,49.80411],[6.08813,49.80433],[6.08764,49.80441],[6.08666,49.80439],[6.08613,49.8045],[6.08577,49.80477],[6.08538,49.80578],[6.08518,49.80606],[6.08482,49.80625],[6.08384,49.80654],[6.08265,49.8066],[6.08138,49.80678],[6.07996,49.80732],[6.07838,49.80772],[6.07763,49.80771],[6.07654,49.80749],[6.07511,49.80736],[6.07434,49.80742],[6.0737,49.80761],[6.0711,49.80871],[6.07092,49.80893],[6.07055,49.80892],[6.06956,49.80926],[6.06928,49.80942],[6.06808,49.81067],[6.06748,49.81113],[6.06734,49.8117],[6.06759,49.81266],[6.06758,49.81372],[6.06741,49.81454],[6.06672,49.81582],[6.06678,49.81736],[6.06664,49.81794],[6.06645,49.81829],[6.06619,49.81989],[6.06625,49.82036],[6.06662,49.8209],[6.0676,49.82023],[6.0682,49.81954],[6.06863,49.81934],[6.06992,49.81924],[6.0726,49.81925],[6.07532,49.8189],[6.07624,49.81871],[6.07734,49.81792],[6.07765,49.8176],[6.07807,49.81695],[6.07868,49.8162],[6.07885,49.81579],[6.07867,49.81526],[6.07869,49.81506],[6.07941,49.81384],[6.07987,49.81343],[6.08069,49.81333],[6.08219,49.81299],[6.08377,49.81227],[6.08423,49.81241],[6.0844,49.81241],[6.08546,49.81203],[6.08591,49.81244],[6.08644,49.81343],[6.08702,49.81366],[6.08763,49.81323],[6.08902,49.81259],[6.08858,49.81115],[6.0884,49.81016],[6.08962,49.81012],[6.09073,49.80984],[6.09157,49.80986],[6.09183,49.80977],[6.09238,49.80976],[6.09261,49.80964],[6.09276,49.80945]]]}}