{"type":"Feature","properties":{"name":"Auto-Pédestre Hobscheid","source":"geoportail"},"geometry":{"type":"MultiLineString","coordinates":[[[5.91394,49.68837],[5.91382,49.68832],[5.91387,49.6882],[5.91379,49.68804],[5.91346,49.68798],[5.91352,49.6879],[5.91342,49.68787],[5.9135,49.68773],[5.91344,49.68766],[5.91212,49.68737],[5.91047,49.68748],[5.90654,49.68715],[5.90631,49.68722],[5.90518,49.68721],[5.90491,49.68734],[5.90467,49.68768],[5.90383,49.68794],[5.90282,49.68807],[5.90234,49.68831],[5.90222,49.68859],[5.90216,49.68908],[5.90243,49.6906],[5.90344,49.69223],[5.90407,49.69275],[5.90432,49.69313],[5.90467,49.69348],[5.90525,49.69423],[5.90438,49.69509],[5.90411,49.69552],[5.90403,49.69589],[5.90413,49.6966],[5.9041,49.6969],[5.90383,49.69715],[5.90374,49.69755],[5.90345,49.69763],[5.90274,49.7015],[5.90155,49.70732],[5.90064,49.70692],[5.90043,49.7069],[5.89992,49.70706],[5.89953,49.70706],[5.89908,49.70691],[5.89871,49.70659],[5.89823,49.70637],[5.8979,49.70611],[5.89672,49.70592],[5.89671,49.7057],[5.89651,49.70554],[5.89693,49.70529],[5.89761,49.70517],[5.89828,49.70518],[5.89945,49.70552],[5.89959,49.70547],[5.89993,49.70508],[5.90026,49.70491],[5.90085,49.70478],[5.90131,49.70478],[5.90211,49.70494],[5.90379,49.70554],[5.90449,49.70569],[5.90525,49.70578],[5.90594,49.70615],[5.9064,49.7062],[5.90669,49.70641],[5.9071,49.70655],[5.90858,49.70744],[5.90835,49.70701],[5.90806,49.70676],[5.90656,49.70583],[5.90481,49.70522],[5.90435,49.705],[5.90369,49.70452],[5.90306,49.7045],[5.90257,49.70433],[5.90195,49.70422],[5.90143,49.704],[5.90155,49.70382],[5.90236,49.70352],[5.90307,49.70354],[5.90388,49.70366],[5.90461,49.70356],[5.90564,49.7036],[5.90712,49.70377],[5.90921,49.70372],[5.91079,49.7038],[5.91148,49.70373],[5.91252,49.70328],[5.91314,49.70325],[5.91356,49.70333],[5.91395,49.70299],[5.91548,49.70126],[5.91737,49.69961],[5.91756,49.69925],[5.91763,49.69897],[5.91758,49.69863],[5.91607,49.69777],[5.91588,49.69758],[5.91579,49.69729],[5.91393,49.69605],[5.91384,49.69587],[5.91402,49.69566],[5.91405,49.69557],[5.91397,49.69549],[5.91157,49.69375],[5.90964,49.69267],[5.90927,49.69238],[5.90747,49.69151],[5.90751,49.69141],[5.90788,49.69109],[5.90943,49.69039],[5.91036,49.68972],[5.91086,49.68951],[5.91127,49.68888],[5.91129,49.68878],[5.91101,49.68839],[5.91115,49.68827],[5.91146,49.68829],[5.9123,49.6885],[5.91276,49.68882],[5.91294,49.68878],[5.91315,49.6884],[5.91367,49.68836],[5.9139,49.6884]]]}}