{"type":"Feature","properties":{"name":"Auto-Pédestre Hollenfels","source":"geoportail"},"geometry":{"type":"MultiLineString","coordinates":[[[6.04815,49.71188],[6.04822,49.71185],[6.04811,49.71167],[6.04811,49.71155],[6.04835,49.71129],[6.05005,49.7107],[6.05025,49.71067],[6.05055,49.71082],[6.05044,49.7113],[6.05054,49.71144],[6.05076,49.7114],[6.05076,49.71098],[6.05087,49.71108],[6.05102,49.71111],[6.05214,49.71106],[6.05293,49.7113],[6.05301,49.71102],[6.05312,49.71089],[6.05369,49.71065],[6.05472,49.71004],[6.05496,49.71007],[6.05541,49.70997],[6.05628,49.71023],[6.05623,49.71025],[6.05626,49.71031],[6.05596,49.71032],[6.05613,49.71046],[6.05592,49.7105],[6.05591,49.71064],[6.05637,49.71075],[6.05662,49.71091],[6.05676,49.71089],[6.0566,49.71132],[6.05632,49.71168],[6.05588,49.71205],[6.05507,49.7126],[6.05467,49.71271],[6.05385,49.71275],[6.05387,49.71308],[6.05416,49.71322],[6.05427,49.71344],[6.05435,49.71428],[6.05464,49.71486],[6.05529,49.71561],[6.05541,49.71563],[6.05561,49.71581],[6.05616,49.71603],[6.05761,49.71619],[6.06015,49.71666],[6.06079,49.71689],[6.06104,49.71718],[6.06093,49.71752],[6.05975,49.71881],[6.05989,49.71901],[6.06013,49.71918],[6.06046,49.71928],[6.0596,49.72008],[6.05963,49.72029],[6.05949,49.72042],[6.0594,49.72064],[6.05927,49.72072],[6.05925,49.72081],[6.05905,49.721],[6.05887,49.72106],[6.05893,49.7213],[6.05881,49.72142],[6.05869,49.72145],[6.0587,49.72169],[6.05813,49.72225],[6.05769,49.72232],[6.05676,49.72216],[6.05468,49.72228],[6.05344,49.72259],[6.05204,49.72276],[6.05145,49.72291],[6.05012,49.72297],[6.04938,49.72307],[6.04722,49.72361],[6.04478,49.72384],[6.04208,49.72397],[6.04132,49.72416],[6.04064,49.7242],[6.03841,49.72459],[6.03804,49.72478],[6.0381,49.72526],[6.03826,49.72577],[6.03848,49.72638],[6.03873,49.72682],[6.0388,49.72825],[6.03733,49.72829],[6.03584,49.72818],[6.03288,49.72753],[6.03114,49.72704],[6.02874,49.72625],[6.02742,49.72567],[6.0251,49.72446],[6.0241,49.72401],[6.02636,49.72111],[6.0315,49.72169],[6.03573,49.72155],[6.03616,49.72147],[6.03744,49.72106],[6.0386,49.7206],[6.03993,49.72027],[6.04117,49.71984],[6.04218,49.71919],[6.04327,49.71861],[6.04438,49.71788],[6.04454,49.71762],[6.04496,49.71541],[6.04596,49.7138],[6.0462,49.71351],[6.04614,49.71347],[6.04692,49.71309],[6.04847,49.71257],[6.0484,49.7123],[6.04818,49.71192]]]}}