{"type":"Feature","properties":{"name":"Auto-Pédestre Holtz","source":"geoportail"},"geometry":{"type":"MultiLineString","coordinates":[[[5.79035,49.80656],[5.78988,49.80651],[5.78898,49.80614],[5.78892,49.80605],[5.78868,49.80592],[5.78881,49.80538],[5.7887,49.80519],[5.78839,49.80498],[5.78718,49.80441],[5.78698,49.80423],[5.78688,49.80396],[5.78695,49.80346],[5.78737,49.80273],[5.78824,49.80177],[5.78827,49.8015],[5.78757,49.80041],[5.78691,49.80051],[5.78627,49.80027],[5.78591,49.79989],[5.78538,49.79919],[5.78509,49.79854],[5.78526,49.79779],[5.78544,49.79756],[5.78528,49.79734],[5.78532,49.79712],[5.78518,49.79704],[5.78462,49.79727],[5.78453,49.79697],[5.78447,49.79695],[5.78411,49.79735],[5.78386,49.79795],[5.7838,49.79845],[5.78402,49.79959],[5.78403,49.80008],[5.78388,49.80122],[5.78391,49.80143],[5.78421,49.80205],[5.78428,49.8024],[5.78426,49.80263],[5.78378,49.8036],[5.7836,49.80434],[5.78358,49.80476],[5.78396,49.80566],[5.78405,49.80615],[5.78383,49.80663],[5.78361,49.80752],[5.78382,49.80815],[5.78365,49.80845],[5.78378,49.80864],[5.7839,49.80912],[5.78346,49.8093],[5.783,49.80905],[5.78284,49.80901],[5.78257,49.80908],[5.7824,49.80919],[5.78149,49.81021],[5.78056,49.81071],[5.77932,49.81121],[5.77808,49.81158],[5.77623,49.81187],[5.77553,49.81211],[5.7743,49.81258],[5.77402,49.81277],[5.77349,49.81335],[5.77374,49.81393],[5.77412,49.81418],[5.77693,49.81535],[5.77645,49.81478],[5.77557,49.81426],[5.77507,49.81373],[5.7751,49.81367],[5.77628,49.81418],[5.77732,49.81448],[5.77849,49.81498],[5.78012,49.81595],[5.78074,49.81642],[5.781,49.81674],[5.78142,49.81789],[5.78153,49.81804],[5.78223,49.81866],[5.78265,49.81912],[5.78295,49.81958],[5.78348,49.82001],[5.78437,49.82093],[5.78491,49.82131],[5.78549,49.82159],[5.78619,49.82181],[5.7897,49.82238],[5.79062,49.82218],[5.79166,49.8221],[5.79242,49.82195],[5.79318,49.82171],[5.79346,49.82131],[5.79349,49.82044],[5.7942,49.81899],[5.79482,49.81866],[5.79666,49.81793],[5.79697,49.81771],[5.79592,49.81728],[5.79494,49.81643],[5.79242,49.81559],[5.78983,49.81434],[5.78897,49.81415],[5.78644,49.81423],[5.78605,49.81405],[5.78578,49.81339],[5.78544,49.81288],[5.78494,49.81143],[5.78443,49.81058],[5.78443,49.80972],[5.78396,49.80914],[5.78442,49.80926],[5.78478,49.80927],[5.78562,49.80915],[5.78747,49.80916],[5.78997,49.80836],[5.79028,49.80822],[5.79045,49.80806],[5.79068,49.80766],[5.7908,49.80709],[5.79091,49.80696],[5.79071,49.80667],[5.79036,49.80656]]]}}