{"type":"Feature","properties":{"name":"Auto-Pédestre Howald","source":"geoportail"},"geometry":{"type":"MultiLineString","coordinates":[[[6.14099,49.58323],[6.14111,49.58313],[6.14118,49.58292],[6.14013,49.58262],[6.13941,49.58264],[6.13939,49.58256],[6.14069,49.58192],[6.14075,49.58166],[6.14071,49.58113],[6.14134,49.57998],[6.14092,49.57947],[6.14094,49.57925],[6.14108,49.57899],[6.14114,49.57935],[6.14136,49.57923],[6.14127,49.57878],[6.14247,49.57824],[6.14289,49.57843],[6.14433,49.57876],[6.1446,49.57829],[6.14525,49.57772],[6.14766,49.57731],[6.14796,49.57715],[6.14839,49.57704],[6.1486,49.57703],[6.14913,49.57716],[6.14999,49.57749],[6.15131,49.57787],[6.15155,49.57781],[6.15179,49.57758],[6.15221,49.57697],[6.1521,49.57671],[6.15074,49.57642],[6.1484,49.57629],[6.14892,49.57602],[6.15011,49.57565],[6.15058,49.57554],[6.15187,49.57549],[6.15206,49.57544],[6.15206,49.57535],[6.1512,49.57524],[6.14892,49.57537],[6.14782,49.57534],[6.14587,49.57508],[6.14462,49.57502],[6.14449,49.57467],[6.14268,49.5748],[6.14163,49.57534],[6.14122,49.57563],[6.14052,49.57629],[6.14033,49.57689],[6.14036,49.57735],[6.14007,49.5775],[6.13962,49.57742],[6.13947,49.57752],[6.14034,49.5787],[6.14036,49.57937],[6.14046,49.57978],[6.14046,49.58],[6.14028,49.5806],[6.14019,49.58081],[6.13992,49.58093],[6.13989,49.58133],[6.13951,49.58139],[6.13885,49.58111],[6.13838,49.58118],[6.13737,49.58117],[6.13694,49.58167],[6.1369,49.58207],[6.13702,49.58248],[6.13733,49.58253],[6.13813,49.58248],[6.13953,49.58208],[6.13981,49.58196],[6.13993,49.58183],[6.14026,49.58211],[6.13933,49.58257],[6.13933,49.58266],[6.14003,49.58265],[6.1409,49.58289],[6.14105,49.58298],[6.14098,49.58323]]]}}