{"type":"Feature","properties":{"name":"Auto-Pédestre Junglinster","source":"geoportail"},"geometry":{"type":"MultiLineString","coordinates":[[[6.24993,49.71535],[6.25008,49.71519],[6.25063,49.71503],[6.25048,49.71483],[6.25049,49.71441],[6.25066,49.71422],[6.25024,49.71407],[6.2499,49.71419],[6.24942,49.71389],[6.24946,49.71378],[6.24988,49.71346],[6.25047,49.71225],[6.25018,49.71209],[6.25017,49.71189],[6.24978,49.71173],[6.24893,49.71152],[6.24939,49.71069],[6.24945,49.71029],[6.24907,49.71026],[6.24698,49.7095],[6.24667,49.70931],[6.24659,49.70914],[6.24658,49.70881],[6.24679,49.70872],[6.24528,49.70817],[6.24581,49.7077],[6.2458,49.70763],[6.24536,49.70731],[6.24524,49.70714],[6.24494,49.70708],[6.24416,49.70664],[6.24393,49.7061],[6.24363,49.70574],[6.24325,49.70541],[6.24235,49.70489],[6.24204,49.70457],[6.2422,49.70409],[6.24276,49.7037],[6.24286,49.70348],[6.24285,49.7033],[6.24222,49.70338],[6.24149,49.70314],[6.24083,49.70309],[6.23832,49.70328],[6.23789,49.70323],[6.23728,49.70297],[6.23638,49.70283],[6.23589,49.70288],[6.2354,49.70304],[6.23515,49.70324],[6.2348,49.70393],[6.23472,49.70411],[6.23472,49.70439],[6.23544,49.70512],[6.23613,49.70533],[6.23662,49.70569],[6.2367,49.70594],[6.23655,49.70634],[6.23702,49.70677],[6.23701,49.70687],[6.23673,49.70713],[6.23622,49.70738],[6.23484,49.70782],[6.23463,49.70798],[6.23423,49.7085],[6.23415,49.70881],[6.23417,49.70941],[6.23405,49.70952],[6.23348,49.70912],[6.23319,49.70879],[6.23269,49.70856],[6.23223,49.70843],[6.23122,49.70837],[6.23057,49.70824],[6.22873,49.70733],[6.22712,49.70707],[6.22678,49.70696],[6.22666,49.70688],[6.22669,49.70679],[6.22628,49.70721],[6.22576,49.70759],[6.22568,49.70773],[6.22554,49.70835],[6.2257,49.70865],[6.22606,49.70898],[6.22618,49.70931],[6.22621,49.70963],[6.22701,49.7101],[6.2273,49.71037],[6.22729,49.7106],[6.22711,49.71101],[6.22715,49.71175],[6.22703,49.71284],[6.22632,49.71439],[6.22587,49.71498],[6.22589,49.71515],[6.22638,49.71599],[6.22636,49.71649],[6.22643,49.71666],[6.22664,49.71683],[6.22707,49.71749],[6.22719,49.71785],[6.22778,49.71843],[6.22794,49.71872],[6.22821,49.71896],[6.22834,49.7194],[6.2287,49.71991],[6.22895,49.71985],[6.22931,49.7199],[6.22981,49.72044],[6.23008,49.72061],[6.23181,49.7221],[6.23238,49.72458],[6.2323,49.72485],[6.23249,49.72511],[6.2328,49.72612],[6.23324,49.72689],[6.23345,49.72758],[6.23348,49.72801],[6.23342,49.72834],[6.23347,49.72962],[6.23338,49.73034],[6.23452,49.72945],[6.23574,49.72821],[6.23714,49.7264],[6.23732,49.72608],[6.23753,49.72497],[6.23781,49.72395],[6.23802,49.72384],[6.23978,49.72371],[6.24206,49.72311],[6.24335,49.72245],[6.24403,49.72182],[6.24499,49.7212],[6.2456,49.72087],[6.24589,49.71964],[6.24608,49.71915],[6.24621,49.71886],[6.24667,49.71822],[6.24747,49.7163],[6.24793,49.7156],[6.24804,49.71564],[6.24818,49.71547],[6.2484,49.71539],[6.24907,49.71542],[6.24985,49.71531],[6.24992,49.71536]]]}}