{"type":"Feature","properties":{"name":"Auto-Pédestre Kaundorf","source":"geoportail"},"geometry":{"type":"MultiLineString","coordinates":[[[5.90708,49.91825],[5.90765,49.91756],[5.90792,49.91732],[5.90681,49.91701],[5.90549,49.91653],[5.90519,49.91623],[5.90488,49.91611],[5.90299,49.91587],[5.90137,49.91526],[5.90128,49.91525],[5.90105,49.91548],[5.90077,49.91559],[5.89951,49.91599],[5.8995,49.91614],[5.89963,49.91632],[5.89923,49.91746],[5.89927,49.9179],[5.89748,49.91758],[5.89617,49.91708],[5.89547,49.91706],[5.89514,49.91697],[5.89481,49.91671],[5.89427,49.91601],[5.89292,49.91535],[5.89269,49.91541],[5.89268,49.9155],[5.89383,49.91623],[5.8941,49.91648],[5.89444,49.91709],[5.89463,49.91728],[5.89564,49.91763],[5.89719,49.91798],[5.89767,49.91821],[5.89777,49.91843],[5.8978,49.9192],[5.89556,49.91958],[5.89466,49.91983],[5.89368,49.92],[5.89301,49.92021],[5.89172,49.92042],[5.89117,49.92066],[5.89188,49.92085],[5.89305,49.92134],[5.89436,49.92169],[5.89525,49.92208],[5.89615,49.92231],[5.89749,49.92301],[5.89802,49.92339],[5.89803,49.9235],[5.89791,49.92353],[5.89679,49.92334],[5.89851,49.92437],[5.89931,49.92535],[5.8992,49.92552],[5.8974,49.9272],[5.89672,49.92793],[5.89687,49.92797],[5.89696,49.92839],[5.89757,49.92915],[5.89828,49.92966],[5.89849,49.92989],[5.89863,49.93009],[5.89876,49.9305],[5.90037,49.93108],[5.9012,49.93145],[5.90268,49.9317],[5.90444,49.93218],[5.90567,49.9324],[5.90715,49.93252],[5.90778,49.9325],[5.90827,49.93232],[5.90866,49.93183],[5.90917,49.93167],[5.90983,49.93156],[5.91077,49.93152],[5.91138,49.93159],[5.91283,49.93144],[5.91326,49.93161],[5.91449,49.93178],[5.91586,49.9322],[5.91673,49.9322],[5.91562,49.93174],[5.91498,49.93157],[5.91279,49.93139],[5.91056,49.9309],[5.90999,49.93073],[5.90882,49.93024],[5.90853,49.92996],[5.90849,49.92975],[5.90859,49.92949],[5.90983,49.92932],[5.90991,49.92924],[5.90797,49.92868],[5.90709,49.92817],[5.90677,49.92772],[5.90503,49.92637],[5.90503,49.92597],[5.90494,49.9257],[5.90434,49.92501],[5.90414,49.92486],[5.90303,49.92442],[5.90193,49.92358],[5.90166,49.92279],[5.90153,49.92269],[5.90167,49.92243],[5.9017,49.92212],[5.90137,49.92123],[5.90118,49.92105],[5.90094,49.92095],[5.90099,49.92089],[5.90023,49.92072],[5.90018,49.92066],[5.90063,49.92067],[5.90073,49.92059],[5.90071,49.9204],[5.90157,49.92035],[5.90222,49.92014],[5.90342,49.91994],[5.90417,49.9196],[5.90443,49.91965],[5.90532,49.91945],[5.90583,49.91918],[5.90661,49.9186],[5.9071,49.9184],[5.90703,49.91833],[5.90708,49.91825]]]}}