{"type":"Feature","properties":{"name":"Auto-Pédestre Larochette","source":"geoportail"},"geometry":{"type":"MultiLineString","coordinates":[[[6.21939,49.78414],[6.2184,49.78311],[6.21837,49.78296],[6.21771,49.78192],[6.21755,49.78112],[6.21727,49.78087],[6.21722,49.78073],[6.21721,49.7795],[6.21743,49.77901],[6.21707,49.77883],[6.21681,49.77877],[6.21599,49.77877],[6.21539,49.77887],[6.21496,49.77914],[6.2148,49.77935],[6.21474,49.77932],[6.21446,49.7795],[6.21487,49.77945],[6.21534,49.7793],[6.21623,49.77918],[6.21652,49.77918],[6.21669,49.77926],[6.21679,49.77962],[6.21674,49.77987],[6.21661,49.77996],[6.21654,49.78012],[6.21655,49.78025],[6.21647,49.78036],[6.21652,49.78075],[6.21617,49.78107],[6.21634,49.78142],[6.21621,49.78168],[6.21621,49.78177],[6.21637,49.78192],[6.21626,49.78209],[6.21661,49.78228],[6.2165,49.78244],[6.21657,49.78263],[6.21697,49.78272],[6.21709,49.78291],[6.21732,49.78303],[6.21741,49.78332],[6.21718,49.78325],[6.21726,49.78348],[6.21776,49.78359],[6.2178,49.78371],[6.21742,49.78372],[6.21701,49.78384],[6.21673,49.78378],[6.21657,49.78387],[6.21575,49.78399],[6.2154,49.78418],[6.21471,49.78436],[6.21428,49.78455],[6.21364,49.78452],[6.21329,49.78474],[6.21295,49.78485],[6.2128,49.78497],[6.21276,49.78516],[6.21252,49.78528],[6.21177,49.78537],[6.21155,49.78547],[6.21159,49.78534],[6.21151,49.78536],[6.21136,49.7857],[6.2112,49.78585],[6.2103,49.78592],[6.21015,49.78598],[6.2099,49.78624],[6.20945,49.78639],[6.20911,49.78681],[6.20811,49.7865],[6.20768,49.78647],[6.20557,49.78682],[6.20556,49.78694],[6.20567,49.787],[6.20628,49.78678],[6.20635,49.78696],[6.20675,49.78691],[6.20757,49.78711],[6.20847,49.78748],[6.20851,49.78797],[6.20876,49.78804],[6.20968,49.78774],[6.21095,49.78709],[6.21131,49.78704],[6.21328,49.78608],[6.21549,49.78517],[6.21556,49.78533],[6.21516,49.78564],[6.21464,49.78587],[6.21414,49.78623],[6.21381,49.78633],[6.21374,49.7864],[6.21373,49.78658],[6.21434,49.78639],[6.21525,49.786],[6.21605,49.78589],[6.21636,49.78618],[6.21653,49.78623],[6.21664,49.78611],[6.21679,49.78616],[6.21667,49.78649],[6.21614,49.78732],[6.21594,49.7878],[6.21589,49.7881],[6.21598,49.78876],[6.21425,49.7896],[6.21256,49.79078],[6.21195,49.79128],[6.21185,49.79146],[6.21157,49.79168],[6.21123,49.79171],[6.21143,49.79191],[6.20999,49.79246],[6.20924,49.79315],[6.20918,49.79337],[6.20885,49.79359],[6.20797,49.794],[6.20834,49.7941],[6.20929,49.79376],[6.21053,49.79269],[6.21277,49.79173],[6.21495,49.79088],[6.21577,49.79063],[6.21716,49.7903],[6.21836,49.79012],[6.21836,49.79],[6.21812,49.7894],[6.21869,49.7893],[6.21929,49.7892],[6.21954,49.78972],[6.22038,49.78953],[6.22151,49.79036],[6.22277,49.79083],[6.2233,49.79083],[6.22562,49.79111],[6.22585,49.79102],[6.22618,49.79102],[6.22636,49.79098],[6.22461,49.79036],[6.22315,49.79007],[6.22236,49.78943],[6.22183,49.78879],[6.22173,49.78851],[6.22109,49.78805],[6.22086,49.78781],[6.22072,49.78745],[6.2208,49.78732],[6.22106,49.78713],[6.22155,49.78701],[6.22306,49.78717],[6.22366,49.78684],[6.22363,49.78673],[6.22349,49.78665],[6.22299,49.7865],[6.22239,49.78614],[6.22239,49.78602],[6.22284,49.78536],[6.22277,49.78498],[6.22242,49.7844],[6.2221,49.78409],[6.22168,49.78392],[6.22144,49.78372],[6.22133,49.78371],[6.22128,49.78405],[6.22076,49.78378],[6.2202,49.78383],[6.21998,49.78399],[6.21945,49.78418],[6.21939,49.78414]]]}}