{"type":"Feature","properties":{"name":"Auto-Pédestre Lieler","source":"geoportail"},"geometry":{"type":"MultiLineString","coordinates":[[[6.11104,50.12496],[6.11122,50.12503],[6.11117,50.1251],[6.11138,50.12521],[6.11105,50.12557],[6.1106,50.12571],[6.10978,50.12567],[6.1084,50.12528],[6.1065,50.12459],[6.10572,50.12438],[6.10516,50.12407],[6.10411,50.1241],[6.10415,50.1242],[6.10487,50.12473],[6.10507,50.12499],[6.10508,50.12509],[6.10396,50.12598],[6.104,50.12629],[6.10394,50.12637],[6.1036,50.12664],[6.10314,50.12685],[6.10301,50.12753],[6.1028,50.12799],[6.10281,50.12831],[6.10296,50.12854],[6.10392,50.12916],[6.10452,50.12967],[6.10475,50.13053],[6.10486,50.13134],[6.10498,50.13171],[6.10523,50.13205],[6.10566,50.13249],[6.10663,50.13319],[6.10731,50.13435],[6.10789,50.13459],[6.10856,50.1351],[6.10944,50.13514],[6.11124,50.13548],[6.11181,50.13548],[6.11216,50.13572],[6.11267,50.13589],[6.11351,50.13607],[6.11424,50.13614],[6.11525,50.13613],[6.11826,50.13586],[6.11976,50.13583],[6.12048,50.13591],[6.12091,50.13589],[6.12175,50.13558],[6.12337,50.13472],[6.12402,50.13444],[6.12406,50.13436],[6.12398,50.13424],[6.12406,50.13411],[6.12478,50.1341],[6.1254,50.13395],[6.12604,50.13366],[6.1263,50.13346],[6.1272,50.13239],[6.12764,50.13158],[6.12794,50.13153],[6.12821,50.1314],[6.12954,50.13029],[6.13034,50.12971],[6.13124,50.12937],[6.13235,50.12924],[6.1334,50.12928],[6.13516,50.12974],[6.13564,50.12972],[6.13616,50.12995],[6.1367,50.13074],[6.13709,50.13083],[6.13729,50.12972],[6.13719,50.12914],[6.13693,50.1286],[6.13688,50.12825],[6.1371,50.12759],[6.13713,50.12727],[6.13703,50.127],[6.13667,50.1265],[6.13644,50.12551],[6.13628,50.12533],[6.13609,50.12472],[6.1359,50.12439],[6.13573,50.1242],[6.13525,50.12384],[6.13444,50.12351],[6.13367,50.1233],[6.13164,50.12292],[6.13021,50.12254],[6.12995,50.12226],[6.12952,50.12198],[6.12917,50.12132],[6.12915,50.12087],[6.12898,50.1204],[6.12845,50.11956],[6.12777,50.11875],[6.12753,50.11873],[6.12685,50.11893],[6.12432,50.11912],[6.12335,50.119],[6.12141,50.11856],[6.12081,50.11854],[6.1204,50.11861],[6.11974,50.119],[6.11904,50.11962],[6.1183,50.11996],[6.11807,50.12018],[6.1177,50.12078],[6.11691,50.12154],[6.11596,50.12233],[6.11489,50.12295],[6.11423,50.12354],[6.1132,50.12406],[6.11196,50.12417],[6.11149,50.12457],[6.11139,50.12474],[6.11105,50.12496]]]}}