{"type":"Feature","properties":{"name":"Auto-Pédestre Manternach","source":"geoportail"},"geometry":{"type":"MultiLineString","coordinates":[[[6.42381,49.70673],[6.42393,49.70671],[6.42411,49.70549],[6.4243,49.70524],[6.4274,49.70592],[6.42725,49.70626],[6.42853,49.70646],[6.4288,49.70615],[6.42938,49.70629],[6.43088,49.70645],[6.43132,49.70638],[6.43133,49.70622],[6.43242,49.70626],[6.43377,49.706],[6.43476,49.70599],[6.43573,49.70632],[6.43583,49.70645],[6.43618,49.70655],[6.43683,49.70691],[6.43715,49.70724],[6.43727,49.70764],[6.43708,49.70765],[6.43686,49.70744],[6.43695,49.70808],[6.43681,49.70825],[6.43679,49.70857],[6.43694,49.70931],[6.43723,49.70972],[6.43783,49.71007],[6.43842,49.71028],[6.43857,49.71086],[6.43936,49.71085],[6.43937,49.71091],[6.44018,49.71086],[6.44049,49.711],[6.44098,49.71136],[6.44131,49.71204],[6.44145,49.71216],[6.44204,49.71244],[6.44188,49.71262],[6.4417,49.71263],[6.44149,49.71291],[6.44172,49.71307],[6.44154,49.71311],[6.44062,49.71267],[6.44025,49.71234],[6.43969,49.71231],[6.43946,49.71241],[6.43927,49.71235],[6.4393,49.71244],[6.44018,49.71321],[6.44089,49.71365],[6.44095,49.71397],[6.4414,49.7145],[6.44244,49.71437],[6.44373,49.71411],[6.44439,49.71408],[6.44546,49.71415],[6.44788,49.714],[6.44941,49.71404],[6.45171,49.7139],[6.45193,49.71394],[6.45206,49.71409],[6.4513,49.71447],[6.45066,49.71578],[6.45019,49.71622],[6.44729,49.71829],[6.44366,49.72015],[6.44312,49.72027],[6.4423,49.72029],[6.44135,49.72045],[6.43967,49.72101],[6.43811,49.72098],[6.43581,49.72129],[6.43582,49.7214],[6.43412,49.72249],[6.43173,49.72291],[6.4309,49.72342],[6.42943,49.72419],[6.42854,49.72455],[6.42549,49.72508],[6.42417,49.72513],[6.42397,49.7249],[6.42381,49.72448],[6.42385,49.72339],[6.42368,49.72292],[6.4235,49.7227],[6.42247,49.72181],[6.42135,49.72096],[6.42248,49.72028],[6.42325,49.71999],[6.42358,49.71898],[6.42383,49.7187],[6.42439,49.71827],[6.42528,49.71803],[6.42563,49.71807],[6.42602,49.7184],[6.42664,49.7186],[6.42962,49.71894],[6.43155,49.71946],[6.43209,49.7197],[6.4341,49.72033],[6.43498,49.72009],[6.43435,49.71904],[6.43408,49.71872],[6.43126,49.71686],[6.43141,49.71562],[6.43223,49.71333],[6.43469,49.71175],[6.43338,49.7111],[6.43235,49.71048],[6.43229,49.71035],[6.4323,49.7101],[6.43246,49.70986],[6.43242,49.70974],[6.43228,49.70974],[6.43168,49.71004],[6.43087,49.70995],[6.42973,49.71019],[6.42955,49.7101],[6.42938,49.70992],[6.42925,49.70971],[6.42941,49.70951],[6.43142,49.70866],[6.43157,49.70856],[6.43157,49.70842],[6.43129,49.70839],[6.43005,49.70854],[6.42743,49.70847],[6.42483,49.70744],[6.42386,49.70739],[6.42375,49.70723],[6.42387,49.70687],[6.42381,49.70673]]]}}