{"type":"Feature","properties":{"name":"Auto-Pédestre Mertert","source":"geoportail"},"geometry":{"type":"MultiLineString","coordinates":[[[6.47662,49.70281],[6.4776,49.70227],[6.47739,49.70213],[6.4774,49.70203],[6.47753,49.70172],[6.47778,49.70152],[6.47781,49.70143],[6.47767,49.70122],[6.47766,49.70106],[6.4779,49.70062],[6.47787,49.7005],[6.47757,49.70031],[6.47684,49.69998],[6.47677,49.69981],[6.47806,49.69915],[6.4779,49.699],[6.47436,49.70074],[6.47375,49.7014],[6.47369,49.70154],[6.47373,49.70176],[6.47356,49.70189],[6.47364,49.70215],[6.4736,49.70232],[6.47337,49.70247],[6.47324,49.70223],[6.47336,49.70216],[6.47392,49.70252],[6.47336,49.70303],[6.47249,49.70352],[6.4722,49.70375],[6.4706,49.70448],[6.47041,49.70433],[6.46969,49.70455],[6.46901,49.70387],[6.46821,49.70421],[6.46659,49.70455],[6.46467,49.7046],[6.4641,49.70472],[6.46322,49.70478],[6.46155,49.70466],[6.45953,49.70473],[6.45804,49.7053],[6.45758,49.70534],[6.45659,49.70481],[6.45626,49.70443],[6.4551,49.70399],[6.45265,49.70348],[6.45208,49.7033],[6.44975,49.70278],[6.45047,49.70344],[6.45083,49.704],[6.45146,49.70477],[6.45259,49.70583],[6.4531,49.70622],[6.45331,49.70647],[6.45358,49.70707],[6.45359,49.70737],[6.45351,49.70763],[6.45329,49.70784],[6.45245,49.70832],[6.45057,49.7091],[6.44972,49.70954],[6.44884,49.7099],[6.44865,49.7099],[6.44847,49.71018],[6.44791,49.71044],[6.44705,49.71048],[6.44628,49.71065],[6.44644,49.7111],[6.44622,49.71109],[6.44604,49.71117],[6.44565,49.71165],[6.44547,49.71173],[6.44531,49.71211],[6.44514,49.71226],[6.44537,49.71238],[6.44599,49.71252],[6.44587,49.71259],[6.44581,49.71276],[6.44518,49.71312],[6.44561,49.71328],[6.44639,49.71333],[6.44662,49.71325],[6.44701,49.71321],[6.44811,49.71332],[6.44906,49.71351],[6.45071,49.71318],[6.45164,49.71322],[6.45206,49.71318],[6.4524,49.71306],[6.45346,49.71243],[6.45375,49.71234],[6.45385,49.71221],[6.4544,49.71191],[6.45475,49.71154],[6.4552,49.71136],[6.45523,49.71144],[6.45536,49.71149],[6.45531,49.71159],[6.45501,49.71175],[6.45511,49.71187],[6.45518,49.7118],[6.45542,49.71181],[6.45593,49.71194],[6.45622,49.71216],[6.45735,49.71217],[6.45826,49.71205],[6.45891,49.71205],[6.45932,49.71179],[6.4596,49.71177],[6.45976,49.71164],[6.45982,49.71187],[6.45945,49.71241],[6.45844,49.7126],[6.45808,49.71286],[6.45776,49.7129],[6.45716,49.71362],[6.45685,49.71381],[6.45674,49.71411],[6.45642,49.71436],[6.45659,49.71445],[6.45576,49.71489],[6.45548,49.71586],[6.4555,49.71617],[6.45566,49.71654],[6.45563,49.7169],[6.45525,49.71739],[6.45485,49.71759],[6.45454,49.71766],[6.45374,49.71766],[6.45344,49.71776],[6.45343,49.71783],[6.45359,49.71788],[6.45349,49.71798],[6.4536,49.71804],[6.45369,49.71821],[6.4541,49.71812],[6.45462,49.71819],[6.45511,49.71845],[6.45653,49.71898],[6.45788,49.71934],[6.45916,49.71826],[6.46053,49.7175],[6.46071,49.71745],[6.46175,49.71809],[6.46246,49.71836],[6.46292,49.7187],[6.46454,49.7191],[6.46464,49.71895],[6.46452,49.71875],[6.46455,49.71847],[6.46434,49.7179],[6.4642,49.71695],[6.46452,49.71644],[6.46542,49.71564],[6.46576,49.7152],[6.46593,49.71479],[6.46601,49.7142],[6.46604,49.71358],[6.4654,49.71225],[6.46629,49.71183],[6.46674,49.71187],[6.46743,49.71166],[6.46845,49.71161],[6.46859,49.71155],[6.46899,49.71093],[6.46967,49.71055],[6.46981,49.71031],[6.46999,49.71052],[6.47026,49.71063],[6.47075,49.7107],[6.47152,49.71066],[6.47161,49.71052],[6.47162,49.70989],[6.47257,49.7093],[6.47346,49.70886],[6.47438,49.70813],[6.47581,49.70756],[6.47651,49.70758],[6.47729,49.70509],[6.47735,49.70429],[6.47803,49.70397],[6.47669,49.70367],[6.47675,49.70355],[6.4766,49.70346],[6.47652,49.70323],[6.47637,49.70318],[6.47663,49.70281]]]}}