{"type":"Feature","properties":{"name":"Auto-Pédestre Mertzig","source":"geoportail"},"geometry":{"type":"MultiLineString","coordinates":[[[6.00593,49.83444],[6.0062,49.83375],[6.00641,49.83372],[6.00666,49.83381],[6.00672,49.83374],[6.00755,49.83398],[6.0085,49.83434],[6.00881,49.8343],[6.00923,49.83406],[6.00959,49.83353],[6.00984,49.83335],[6.00958,49.8331],[6.00763,49.83243],[6.00677,49.83243],[6.00655,49.83224],[6.00625,49.83227],[6.00514,49.83199],[6.00409,49.83208],[6.00393,49.8318],[6.0037,49.83153],[6.00354,49.83145],[6.00339,49.83153],[6.00224,49.83141],[6.00182,49.83144],[6.00166,49.83138],[6.00157,49.83125],[6.00136,49.83127],[6.00088,49.83105],[6.0008,49.83113],[6.00062,49.83108],[6.00012,49.8317],[5.99987,49.8319],[5.99925,49.83217],[5.99661,49.8336],[5.996,49.83381],[5.9945,49.83403],[5.99367,49.83425],[5.99218,49.83502],[5.99091,49.83556],[5.98722,49.83756],[5.98587,49.83813],[5.9835,49.83886],[5.98261,49.83939],[5.98175,49.83978],[5.98087,49.84084],[5.97992,49.84125],[5.97922,49.84172],[5.97869,49.84195],[5.97768,49.8422],[5.97727,49.84254],[5.97719,49.8428],[5.97774,49.84306],[5.97969,49.84343],[5.98055,49.84353],[5.9808,49.84384],[5.98147,49.84408],[5.98177,49.84431],[5.9821,49.84468],[5.98304,49.8453],[5.9836,49.84557],[5.98426,49.84568],[5.98572,49.84553],[5.98593,49.84564],[5.98598,49.84587],[5.98579,49.84619],[5.9857,49.84675],[5.98572,49.84723],[5.98581,49.84747],[5.98515,49.84777],[5.98466,49.84811],[5.98459,49.84848],[5.98417,49.84927],[5.98436,49.84962],[5.98459,49.8497],[5.98405,49.85045],[5.98397,49.85066],[5.98411,49.85089],[5.98441,49.85105],[5.98523,49.85048],[5.98554,49.85003],[5.98586,49.84975],[5.98621,49.84898],[5.98657,49.84872],[5.98656,49.84855],[5.98632,49.8485],[5.98646,49.84844],[5.98652,49.84833],[5.98646,49.84802],[5.9865,49.84778],[5.98673,49.84781],[5.98687,49.84797],[5.98698,49.84868],[5.98681,49.84904],[5.98687,49.84929],[5.98703,49.84944],[5.98834,49.85012],[5.98845,49.85037],[5.989,49.85013],[5.99073,49.84998],[5.99181,49.84964],[5.99194,49.84939],[5.99199,49.84895],[5.99209,49.84878],[5.99326,49.84795],[5.99391,49.84778],[5.99433,49.84726],[5.99546,49.84737],[5.99698,49.84773],[5.99758,49.84774],[6.00004,49.84759],[6.00147,49.84739],[6.00211,49.84722],[6.00263,49.8472],[6.00235,49.84662],[6.00184,49.84636],[6.00189,49.84604],[6.00186,49.84564],[6.00157,49.84466],[6.00097,49.84374],[6.00043,49.84323],[6.00029,49.843],[6.00025,49.84271],[6.00045,49.84223],[5.99966,49.84223],[5.99931,49.84214],[6.00179,49.84006],[6.00283,49.83901],[6.00387,49.83836],[6.00506,49.83777],[6.00532,49.83755],[6.00546,49.8373],[6.0055,49.83674],[6.00566,49.83627],[6.00651,49.83535],[6.00635,49.83495],[6.00604,49.83469],[6.00593,49.83444]]]}}