{"type":"Feature","properties":{"name":"Auto-Pédestre Moersdorf","source":"geoportail"},"geometry":{"type":"MultiLineString","coordinates":[[[6.50061,49.74554],[6.50095,49.74572],[6.50076,49.74619],[6.50031,49.74614],[6.49968,49.74597],[6.4997,49.74604],[6.49961,49.74611],[6.49904,49.74617],[6.49862,49.74632],[6.49839,49.74648],[6.49835,49.74657],[6.4984,49.74677],[6.49833,49.74691],[6.49715,49.74756],[6.49715,49.74782],[6.49755,49.74869],[6.49779,49.74902],[6.49787,49.74946],[6.49762,49.75002],[6.49689,49.75032],[6.49673,49.74992],[6.49653,49.74988],[6.49644,49.74994],[6.49637,49.75],[6.49612,49.75066],[6.49584,49.75091],[6.49567,49.75093],[6.49553,49.75061],[6.49551,49.75039],[6.49529,49.75053],[6.49504,49.75057],[6.49482,49.7502],[6.49468,49.74981],[6.49473,49.74965],[6.49494,49.74944],[6.49491,49.74935],[6.49463,49.74917],[6.49429,49.74906],[6.49413,49.74892],[6.49409,49.74868],[6.49411,49.74802],[6.49401,49.74772],[6.49401,49.74743],[6.4939,49.74728],[6.49387,49.74708],[6.49408,49.74667],[6.49394,49.7467],[6.4929,49.74652],[6.49198,49.74609],[6.49197,49.74617],[6.49232,49.74647],[6.49237,49.74668],[6.49219,49.74746],[6.49296,49.74779],[6.49243,49.74789],[6.49199,49.74807],[6.49171,49.74835],[6.49147,49.74871],[6.49137,49.74888],[6.49135,49.74926],[6.49148,49.74982],[6.49146,49.75024],[6.49142,49.75041],[6.4912,49.75069],[6.49048,49.74956],[6.49016,49.74882],[6.49015,49.74872],[6.49039,49.74816],[6.4902,49.74761],[6.48979,49.74735],[6.48748,49.74669],[6.48687,49.74667],[6.48642,49.74674],[6.48579,49.74712],[6.48469,49.74747],[6.48312,49.74819],[6.48219,49.74887],[6.482,49.74894],[6.48086,49.74894],[6.4806,49.74873],[6.48063,49.7486],[6.48056,49.74845],[6.4801,49.74816],[6.47953,49.74748],[6.4793,49.74731],[6.47939,49.74674],[6.47929,49.74596],[6.47936,49.74579],[6.47972,49.74538],[6.48037,49.7448],[6.48027,49.74439],[6.48122,49.74311],[6.47972,49.74277],[6.48069,49.74109],[6.48111,49.74098],[6.4806,49.74074],[6.4809,49.74066],[6.48091,49.73995],[6.48096,49.7398],[6.48113,49.73964],[6.48133,49.73953],[6.48314,49.73915],[6.48712,49.73858],[6.48973,49.7385],[6.49078,49.73829],[6.49127,49.73834],[6.49152,49.73846],[6.49191,49.73884],[6.49252,49.7401],[6.49351,49.73969],[6.49401,49.73975],[6.4948,49.73951],[6.49492,49.74074],[6.49552,49.74154],[6.49556,49.74248],[6.49598,49.74312],[6.49615,49.74321],[6.49659,49.74372],[6.49728,49.74431],[6.49758,49.74475],[6.49779,49.74513],[6.49736,49.74519],[6.49803,49.74522],[6.49803,49.74528],[6.49842,49.7454],[6.49891,49.7454],[6.49966,49.74569],[6.4998,49.7455],[6.50061,49.74554]]]}}