{"type":"Feature","properties":{"name":"Auto-Pédestre Moesdorf","source":"geoportail"},"geometry":{"type":"MultiLineString","coordinates":[[[6.11478,49.76878],[6.11485,49.76879],[6.11496,49.76858],[6.11513,49.76808],[6.11498,49.7671],[6.11532,49.76706],[6.11563,49.76683],[6.11719,49.76673],[6.11734,49.76709],[6.1176,49.76714],[6.11902,49.76714],[6.11979,49.76707],[6.12291,49.76665],[6.12307,49.76687],[6.12333,49.76693],[6.12359,49.76688],[6.12464,49.76644],[6.12543,49.76598],[6.12574,49.76587],[6.12598,49.76586],[6.12669,49.76602],[6.12723,49.76606],[6.12919,49.76558],[6.13029,49.76552],[6.13103,49.7654],[6.13316,49.76585],[6.13389,49.76658],[6.1347,49.76689],[6.13516,49.76715],[6.13614,49.76737],[6.13787,49.76762],[6.14111,49.76882],[6.1419,49.76917],[6.14215,49.76921],[6.14225,49.76931],[6.14018,49.76903],[6.13996,49.76916],[6.13981,49.7695],[6.13965,49.76952],[6.13939,49.76937],[6.13897,49.76889],[6.13861,49.76876],[6.13833,49.76882],[6.13828,49.76915],[6.13822,49.76921],[6.13761,49.76941],[6.13656,49.76935],[6.13567,49.76909],[6.13537,49.7691],[6.13502,49.76941],[6.13481,49.76989],[6.13427,49.77038],[6.13404,49.77079],[6.13397,49.77105],[6.13411,49.77117],[6.13455,49.77134],[6.13484,49.77166],[6.13584,49.77225],[6.13348,49.77362],[6.13317,49.77386],[6.13034,49.77533],[6.12868,49.77498],[6.12699,49.77474],[6.12621,49.77431],[6.12501,49.77385],[6.12472,49.77379],[6.12443,49.77385],[6.12575,49.77472],[6.12704,49.77588],[6.1273,49.77628],[6.1277,49.77661],[6.12846,49.77708],[6.12943,49.77748],[6.12972,49.77796],[6.12866,49.77897],[6.12853,49.77929],[6.12855,49.77955],[6.12894,49.78074],[6.1293,49.78141],[6.12916,49.78151],[6.12887,49.78156],[6.12824,49.78159],[6.12762,49.78157],[6.12684,49.78068],[6.12624,49.77976],[6.12557,49.77893],[6.12562,49.77866],[6.12598,49.77845],[6.12599,49.77838],[6.12484,49.77798],[6.12428,49.77753],[6.12376,49.77688],[6.12377,49.77642],[6.12367,49.77608],[6.1216,49.7755],[6.12062,49.77494],[6.11837,49.77305],[6.11766,49.77255],[6.11633,49.77179],[6.11573,49.77085],[6.1157,49.77059],[6.11578,49.77018],[6.11548,49.77015],[6.11502,49.77029],[6.11492,49.77023],[6.11484,49.76984],[6.11499,49.76931],[6.11493,49.76904],[6.1148,49.76892],[6.11485,49.76881],[6.1148,49.76881]]]}}