{"type":"Feature","properties":{"name":"Auto-Pédestre Nommern","source":"geoportail"},"geometry":{"type":"MultiLineString","coordinates":[[[6.16773,49.78601],[6.16681,49.78542],[6.16638,49.78524],[6.16508,49.78494],[6.1655,49.78428],[6.16572,49.78411],[6.16613,49.78395],[6.16587,49.78322],[6.16562,49.78274],[6.16436,49.78267],[6.16444,49.7825],[6.1644,49.78216],[6.16423,49.78201],[6.16407,49.78198],[6.1645,49.78179],[6.16487,49.78141],[6.16536,49.78063],[6.16532,49.78014],[6.16547,49.78003],[6.16596,49.78015],[6.16617,49.78094],[6.16654,49.78115],[6.16643,49.78117],[6.16638,49.78106],[6.16647,49.78103],[6.16665,49.78114],[6.1667,49.781],[6.16695,49.78083],[6.16758,49.78054],[6.16774,49.7799],[6.16859,49.78037],[6.16892,49.78063],[6.16905,49.78062],[6.16987,49.78023],[6.17017,49.78027],[6.17043,49.7805],[6.171,49.78043],[6.17137,49.78056],[6.17162,49.78057],[6.17186,49.78067],[6.17203,49.78083],[6.17196,49.78113],[6.17288,49.78127],[6.17292,49.78133],[6.17267,49.78162],[6.1727,49.7817],[6.17329,49.78178],[6.17358,49.7819],[6.17433,49.78187],[6.17451,49.78194],[6.17459,49.78206],[6.17441,49.78237],[6.17399,49.78263],[6.17367,49.78268],[6.17348,49.78279],[6.17345,49.78307],[6.17378,49.78337],[6.17428,49.78337],[6.17489,49.78323],[6.17549,49.78295],[6.17565,49.78298],[6.17592,49.78321],[6.17719,49.78344],[6.17744,49.7837],[6.17818,49.78392],[6.17889,49.78401],[6.17986,49.78438],[6.18084,49.78492],[6.18156,49.78508],[6.18161,49.78517],[6.1814,49.78525],[6.18023,49.78526],[6.18002,49.78529],[6.17976,49.78547],[6.17942,49.78551],[6.17908,49.78544],[6.17868,49.78522],[6.1784,49.78519],[6.17829,49.78526],[6.1783,49.78552],[6.1782,49.78557],[6.17786,49.78527],[6.17701,49.78478],[6.17586,49.78453],[6.17507,49.78462],[6.17488,49.78475],[6.17455,49.78476],[6.17431,49.78466],[6.174,49.78469],[6.17403,49.78452],[6.17433,49.78438],[6.17496,49.78426],[6.17571,49.78396],[6.17542,49.78382],[6.1751,49.78376],[6.17474,49.7838],[6.1744,49.78371],[6.17362,49.78377],[6.17294,49.78393],[6.17224,49.78381],[6.17213,49.78365],[6.17217,49.7833],[6.17197,49.78307],[6.17184,49.78266],[6.1719,49.78256],[6.17242,49.78233],[6.17256,49.78219],[6.17173,49.78213],[6.17144,49.78192],[6.1715,49.78173],[6.1714,49.78159],[6.17108,49.78137],[6.17069,49.7813],[6.17056,49.78143],[6.17057,49.78165],[6.17025,49.78213],[6.17039,49.78231],[6.17043,49.78256],[6.17037,49.78267],[6.17023,49.78278],[6.17012,49.78303],[6.16981,49.78317],[6.16951,49.78305],[6.16939,49.78287],[6.16914,49.78288],[6.16898,49.78275],[6.16864,49.78274],[6.16834,49.78299],[6.16804,49.78304],[6.16778,49.78298],[6.16745,49.78277],[6.16736,49.78263],[6.16738,49.78254],[6.16756,49.78228],[6.16757,49.78209],[6.16792,49.78172],[6.16787,49.78162],[6.16678,49.78201],[6.16662,49.78239],[6.16664,49.78262],[6.16705,49.78314],[6.16796,49.78363],[6.16883,49.7838],[6.16915,49.78401],[6.16829,49.78501],[6.16797,49.78598],[6.16779,49.78608]]]}}