{"type":"Feature","properties":{"name":"Auto-Pédestre Rambrouch","source":"geoportail"},"geometry":{"type":"MultiLineString","coordinates":[[[5.82792,49.83864],[5.82852,49.83901],[5.83354,49.83966],[5.83689,49.83955],[5.83766,49.83944],[5.83834,49.8391],[5.83857,49.83872],[5.8391,49.83882],[5.83936,49.83874],[5.84093,49.83701],[5.8419,49.83606],[5.84362,49.83575],[5.84481,49.83537],[5.84557,49.83501],[5.84647,49.8347],[5.84716,49.83434],[5.84711,49.83428],[5.84775,49.83416],[5.84958,49.83316],[5.85099,49.83276],[5.85135,49.83258],[5.85241,49.83174],[5.85227,49.83101],[5.85202,49.83042],[5.8518,49.83024],[5.85156,49.83014],[5.8506,49.83002],[5.84985,49.83001],[5.84893,49.83016],[5.84894,49.83007],[5.84365,49.82991],[5.84278,49.8297],[5.84212,49.82947],[5.84018,49.82851],[5.83982,49.82844],[5.8387,49.82845],[5.83808,49.82837],[5.83776,49.82827],[5.83697,49.82774],[5.8359,49.82742],[5.83499,49.82743],[5.83435,49.82756],[5.83391,49.82756],[5.8325,49.82717],[5.82865,49.82671],[5.8273,49.82644],[5.82506,49.82657],[5.82385,49.8263],[5.82308,49.82573],[5.8225,49.82515],[5.82162,49.82447],[5.82142,49.82396],[5.8213,49.82381],[5.82139,49.82206],[5.82121,49.82081],[5.82119,49.82019],[5.82123,49.81983],[5.82141,49.81953],[5.82151,49.81913],[5.82145,49.81887],[5.82091,49.81834],[5.81973,49.81776],[5.81943,49.81752],[5.81919,49.81715],[5.81978,49.81752],[5.81994,49.81755],[5.81988,49.81739],[5.81937,49.81669],[5.81886,49.81579],[5.81775,49.81476],[5.81621,49.81351],[5.81388,49.81197],[5.81205,49.81262],[5.81107,49.81305],[5.80998,49.81395],[5.80971,49.81436],[5.80974,49.81489],[5.80994,49.81563],[5.81019,49.81621],[5.81046,49.8166],[5.81115,49.81724],[5.81169,49.81801],[5.8117,49.81792],[5.81146,49.81723],[5.81106,49.81664],[5.8108,49.81596],[5.81073,49.8153],[5.81081,49.81485],[5.81091,49.81481],[5.81098,49.81487],[5.81104,49.81514],[5.81127,49.81545],[5.81181,49.81585],[5.81367,49.81691],[5.8142,49.81709],[5.81549,49.81732],[5.81588,49.81769],[5.81612,49.81805],[5.81672,49.81948],[5.81666,49.82124],[5.81634,49.82168],[5.81635,49.82187],[5.81685,49.8228],[5.81779,49.82375],[5.81788,49.82392],[5.81788,49.82452],[5.81815,49.82522],[5.81832,49.82633],[5.81861,49.82717],[5.8187,49.82784],[5.81906,49.82881],[5.8197,49.8298],[5.82028,49.83045],[5.821,49.83168],[5.82112,49.83183],[5.82186,49.8323],[5.82256,49.83308],[5.8227,49.83335],[5.82264,49.834],[5.82278,49.83459],[5.82298,49.83491],[5.8235,49.83627],[5.82365,49.83644],[5.82473,49.83719],[5.82499,49.83746],[5.82655,49.83799],[5.82792,49.83865]]]}}