{"type":"Feature","properties":{"name":"Auto-Pédestre Saeul","source":"geoportail"},"geometry":{"type":"MultiLineString","coordinates":[[[5.98514,49.72679],[5.98475,49.72717],[5.98415,49.72679],[5.98413,49.7267],[5.98376,49.72663],[5.98304,49.72636],[5.98277,49.72642],[5.98228,49.72674],[5.98234,49.72703],[5.98246,49.72724],[5.98332,49.7278],[5.9834,49.72801],[5.98332,49.72837],[5.98321,49.72858],[5.98277,49.729],[5.98257,49.72912],[5.98167,49.72943],[5.98082,49.72943],[5.97969,49.72954],[5.97918,49.72965],[5.97834,49.73022],[5.9781,49.73046],[5.97807,49.73064],[5.97813,49.73086],[5.97832,49.73109],[5.97921,49.73116],[5.98011,49.73158],[5.98124,49.73175],[5.98102,49.73204],[5.9812,49.73231],[5.98133,49.73216],[5.98148,49.73222],[5.98146,49.73228],[5.98025,49.73358],[5.9799,49.73367],[5.9798,49.73382],[5.97926,49.73402],[5.97905,49.73397],[5.97847,49.73359],[5.9783,49.73335],[5.97832,49.73323],[5.97849,49.73303],[5.97843,49.73268],[5.97851,49.73244],[5.97836,49.73213],[5.97823,49.73202],[5.97782,49.73185],[5.97776,49.73176],[5.97785,49.73144],[5.9776,49.73085],[5.97754,49.7305],[5.97739,49.73074],[5.97739,49.73093],[5.97761,49.73127],[5.97764,49.73183],[5.97777,49.73199],[5.97795,49.73206],[5.97824,49.73232],[5.97827,49.73246],[5.97816,49.73278],[5.97795,49.73295],[5.97763,49.73307],[5.97714,49.73358],[5.97637,49.73344],[5.97561,49.73317],[5.97346,49.732],[5.97134,49.73095],[5.96959,49.73019],[5.96876,49.72965],[5.96839,49.72921],[5.96788,49.72878],[5.96775,49.72853],[5.96775,49.72812],[5.96809,49.72764],[5.96833,49.72748],[5.96887,49.72739],[5.96985,49.72741],[5.97037,49.72748],[5.9722,49.72739],[5.97268,49.72718],[5.97271,49.727],[5.97264,49.72687],[5.97229,49.72651],[5.97132,49.72597],[5.9711,49.72565],[5.97057,49.72528],[5.97003,49.72454],[5.96933,49.72402],[5.9688,49.72372],[5.96868,49.7234],[5.96877,49.72263],[5.9687,49.72233],[5.96848,49.72191],[5.96781,49.72104],[5.96774,49.72073],[5.96762,49.72056],[5.96648,49.72027],[5.96625,49.72012],[5.96583,49.71966],[5.96525,49.71935],[5.96441,49.7192],[5.96403,49.71905],[5.96383,49.71889],[5.9635,49.71844],[5.96249,49.71831],[5.96221,49.71816],[5.96191,49.7179],[5.96133,49.71689],[5.96055,49.71642],[5.96011,49.71595],[5.95991,49.71539],[5.96037,49.71609],[5.96153,49.71677],[5.96225,49.71772],[5.96264,49.71801],[5.96353,49.71808],[5.9638,49.71816],[5.96446,49.7186],[5.96488,49.71881],[5.96598,49.71906],[5.96631,49.71926],[5.96678,49.71975],[5.967,49.71989],[5.96799,49.72006],[5.96834,49.72022],[5.96985,49.72219],[5.97001,49.72266],[5.9701,49.72335],[5.97109,49.72399],[5.97166,49.7242],[5.97215,49.72365],[5.97261,49.72327],[5.97261,49.7228],[5.97643,49.72513],[5.97805,49.72559],[5.97864,49.72584],[5.97995,49.72707],[5.98009,49.72734],[5.98009,49.72742],[5.97995,49.72759],[5.98019,49.72771],[5.98043,49.72804],[5.98104,49.72836],[5.98218,49.72836],[5.98244,49.72827],[5.98247,49.72812],[5.98228,49.72785],[5.98232,49.7278],[5.98289,49.7279],[5.98292,49.72814],[5.98267,49.72851],[5.98167,49.72898],[5.98252,49.72886],[5.98296,49.7287],[5.98313,49.72861],[5.98333,49.72827],[5.98337,49.72795],[5.98331,49.72784],[5.98243,49.72725],[5.98222,49.72681],[5.98223,49.72673],[5.98243,49.72657],[5.98291,49.72633],[5.98305,49.72632],[5.98419,49.72668],[5.9842,49.72678],[5.98475,49.72715],[5.98513,49.72677]]]}}