{"type":"Feature","properties":{"name":"Auto-Pédestre Schimpach","source":"geoportail"},"geometry":{"type":"MultiLineString","coordinates":[[[5.84889,50.00993],[5.84988,50.01031],[5.85068,50.01027],[5.85086,50.01044],[5.85091,50.01087],[5.85066,50.01121],[5.85,50.01164],[5.84916,50.01206],[5.84855,50.01277],[5.84808,50.01286],[5.84805,50.01291],[5.85023,50.01357],[5.85112,50.01317],[5.85291,50.01255],[5.85502,50.01126],[5.85648,50.0108],[5.8566,50.0109],[5.8571,50.01074],[5.85782,50.01041],[5.85835,50.01007],[5.85881,50.00996],[5.85912,50.00998],[5.86035,50.0103],[5.86051,50.0105],[5.86192,50.01085],[5.86375,50.01094],[5.86582,50.01166],[5.86629,50.01104],[5.86638,50.01077],[5.86636,50.01055],[5.86583,50.00969],[5.86502,50.00967],[5.86424,50.00954],[5.86218,50.00863],[5.8598,50.00801],[5.85851,50.00783],[5.8576,50.00786],[5.85737,50.00769],[5.85645,50.00731],[5.85599,50.00692],[5.8559,50.00667],[5.85588,50.00627],[5.856,50.00571],[5.8563,50.00542],[5.85677,50.00516],[5.85771,50.00423],[5.85793,50.00376],[5.85791,50.00348],[5.85804,50.00302],[5.85816,50.00283],[5.85848,50.00254],[5.85939,50.00197],[5.86055,50.00138],[5.85896,49.99923],[5.85843,49.99864],[5.85829,49.99842],[5.85822,49.99802],[5.85799,49.99758],[5.85763,49.99722],[5.85763,49.99768],[5.85737,49.99818],[5.85745,49.99856],[5.85725,49.99882],[5.85684,49.99895],[5.85506,49.99921],[5.85415,49.99941],[5.85293,49.9993],[5.85147,49.99941],[5.85066,49.99928],[5.85046,49.99944],[5.84992,50.0002],[5.84971,50.00054],[5.84959,50.00089],[5.84956,50.00176],[5.84943,50.00203],[5.8492,50.00227],[5.84919,50.00236],[5.84999,50.0032],[5.85074,50.00415],[5.85157,50.00459],[5.85254,50.00487],[5.85265,50.00499],[5.8526,50.00509],[5.85179,50.00511],[5.85019,50.00491],[5.84882,50.00507],[5.84791,50.00492],[5.84701,50.00488],[5.84652,50.00497],[5.84613,50.00523],[5.84525,50.00504],[5.84462,50.00496],[5.8445,50.00501],[5.84449,50.00511],[5.84457,50.0052],[5.84561,50.00583],[5.84723,50.00642],[5.84822,50.00745],[5.84885,50.00794],[5.84986,50.00858],[5.85028,50.00904],[5.85077,50.00979],[5.85067,50.01026],[5.85016,50.01033],[5.84988,50.0103],[5.84889,50.00993]]]}}