{"type":"Feature","properties":{"name":"Auto-Pédestre Vianden","source":"geoportail"},"geometry":{"type":"MultiLineString","coordinates":[[[6.20398,49.93827],[6.20388,49.93823],[6.20383,49.93837],[6.2039,49.93882],[6.20338,49.93805],[6.203,49.93709],[6.20197,49.9359],[6.20166,49.93574],[6.20076,49.93574],[6.20033,49.93565],[6.20063,49.93535],[6.20045,49.9352],[6.20042,49.9351],[6.20056,49.93398],[6.20085,49.93332],[6.20132,49.93253],[6.20141,49.93148],[6.20134,49.93148],[6.2011,49.93124],[6.19796,49.93037],[6.19733,49.92996],[6.19642,49.92958],[6.19583,49.9295],[6.19457,49.92956],[6.19441,49.92945],[6.19412,49.929],[6.19393,49.92887],[6.19337,49.92865],[6.19263,49.92847],[6.18864,49.92779],[6.18732,49.92781],[6.18704,49.92791],[6.18661,49.92819],[6.18558,49.92907],[6.18484,49.92959],[6.18453,49.93],[6.18463,49.9301],[6.18759,49.93052],[6.18799,49.9305],[6.1884,49.93019],[6.18865,49.93016],[6.19111,49.93051],[6.19422,49.9314],[6.19623,49.9318],[6.19772,49.93231],[6.1986,49.93224],[6.19878,49.93252],[6.19867,49.93278],[6.1987,49.93282],[6.19941,49.93236],[6.1995,49.93221],[6.19953,49.93195],[6.1996,49.93195],[6.19989,49.93219],[6.19992,49.93236],[6.19986,49.93251],[6.19946,49.93296],[6.1991,49.93364],[6.19893,49.93412],[6.19895,49.93429],[6.19919,49.9342],[6.19921,49.93434],[6.19939,49.93428],[6.19932,49.9344],[6.19916,49.93452],[6.19928,49.9346],[6.19897,49.93487],[6.1985,49.93483],[6.19794,49.93441],[6.1976,49.93426],[6.19647,49.93396],[6.1949,49.93375],[6.19335,49.93369],[6.19385,49.93383],[6.19478,49.93425],[6.19544,49.93461],[6.19569,49.93481],[6.19564,49.93501],[6.19509,49.93551],[6.19494,49.93581],[6.19498,49.93599],[6.19587,49.93629],[6.19731,49.93699],[6.19767,49.93725],[6.19866,49.93718],[6.20093,49.93719],[6.20089,49.93723],[6.20071,49.9372],[6.20068,49.93736],[6.20053,49.9375],[6.20004,49.93738],[6.20006,49.93758],[6.2,49.93773],[6.1994,49.93814],[6.19844,49.93832],[6.1962,49.93919],[6.19552,49.93918],[6.19543,49.94059],[6.19527,49.94098],[6.19513,49.94107],[6.19512,49.94122],[6.19521,49.94129],[6.19518,49.94162],[6.19549,49.94199],[6.19551,49.94215],[6.1957,49.94244],[6.19588,49.94254],[6.19583,49.94278],[6.19598,49.94308],[6.1962,49.9432],[6.19678,49.94394],[6.19692,49.94395],[6.19712,49.94284],[6.19756,49.94259],[6.19789,49.94306],[6.1996,49.94423],[6.19984,49.94428],[6.20013,49.94404],[6.20028,49.94406],[6.20152,49.94338],[6.2041,49.94233],[6.20422,49.94211],[6.20411,49.94192],[6.20412,49.94181],[6.20436,49.94137],[6.20449,49.94095],[6.20451,49.9408],[6.2044,49.94056],[6.20454,49.93983],[6.20463,49.93969],[6.20451,49.93951],[6.20454,49.93925],[6.20398,49.93826]]]}}