{"type":"Feature","properties":{"name":"Auto-Pédestre Wasserbillig","source":"geoportail"},"geometry":{"type":"MultiLineString","coordinates":[[[6.49892,49.71287],[6.49895,49.7128],[6.4987,49.7127],[6.49874,49.71264],[6.4989,49.7127],[6.49917,49.71241],[6.49981,49.71262],[6.49991,49.71252],[6.50131,49.71297],[6.50345,49.71342],[6.50367,49.71353],[6.50464,49.71361],[6.506,49.71358],[6.50615,49.71368],[6.50619,49.71378],[6.5062,49.71425],[6.50612,49.71432],[6.50627,49.71522],[6.50622,49.71558],[6.50609,49.7159],[6.50586,49.71629],[6.50562,49.71651],[6.50543,49.71665],[6.50092,49.71893],[6.50017,49.71941],[6.49874,49.72055],[6.49886,49.71961],[6.49799,49.7194],[6.498,49.71935],[6.49779,49.7194],[6.49771,49.71909],[6.4976,49.71906],[6.49769,49.71885],[6.49763,49.71869],[6.49694,49.71805],[6.4959,49.71749],[6.49478,49.71659],[6.49406,49.7161],[6.4937,49.71595],[6.49346,49.71602],[6.49348,49.71609],[6.49381,49.71632],[6.49374,49.71646],[6.49353,49.71647],[6.49302,49.71624],[6.49282,49.71622],[6.49283,49.71627],[6.49563,49.71839],[6.49628,49.71895],[6.49644,49.71913],[6.49662,49.71957],[6.49663,49.71997],[6.4964,49.71995],[6.49596,49.72002],[6.49597,49.71993],[6.49597,49.72002],[6.49586,49.71977],[6.49501,49.71901],[6.49284,49.71778],[6.49275,49.71777],[6.49143,49.71908],[6.49123,49.71908],[6.48876,49.71766],[6.48855,49.71738],[6.48791,49.7155],[6.48814,49.71521],[6.48836,49.71519],[6.48912,49.71477],[6.49016,49.71477],[6.49016,49.71471],[6.4895,49.71442],[6.48928,49.71441],[6.489,49.71417],[6.48836,49.71407],[6.48659,49.71327],[6.48604,49.71277],[6.48401,49.71059],[6.48212,49.7094],[6.48133,49.70848],[6.48102,49.70792],[6.48088,49.70755],[6.48043,49.70552],[6.48059,49.70532],[6.48069,49.70529],[6.48074,49.70534],[6.48088,49.70587],[6.48179,49.70672],[6.48201,49.70743],[6.48216,49.70767],[6.48323,49.7086],[6.48424,49.70934],[6.48545,49.71064],[6.48659,49.71204],[6.48694,49.71236],[6.48745,49.71276],[6.48818,49.71318],[6.48893,49.71358],[6.48953,49.71374],[6.48981,49.71388],[6.49029,49.71423],[6.49074,49.71469],[6.49098,49.71479],[6.49186,49.71543],[6.49215,49.71549],[6.49288,49.71547],[6.49371,49.71535],[6.49466,49.71547],[6.49533,49.71548],[6.49615,49.7154],[6.49621,49.71531],[6.49561,49.71481],[6.49791,49.71317],[6.49795,49.71292],[6.49871,49.71314],[6.49892,49.71287]]]}}