{"type":"Feature","properties":{"name":"Auto-Pédestre Weiswampach","source":"geoportail"},"geometry":{"type":"MultiLineString","coordinates":[[[6.07803,50.14121],[6.07875,50.14187],[6.07921,50.14238],[6.0799,50.14296],[6.08047,50.14385],[6.08158,50.14481],[6.08238,50.14525],[6.08344,50.1457],[6.0857,50.14749],[6.08638,50.14779],[6.08743,50.14845],[6.08826,50.14876],[6.08893,50.14893],[6.08985,50.14905],[6.0911,50.1491],[6.09285,50.14959],[6.09594,50.15],[6.09802,50.15048],[6.09926,50.151],[6.09987,50.15144],[6.10053,50.15175],[6.10121,50.15237],[6.1008,50.15252],[6.09943,50.15281],[6.09933,50.15288],[6.09949,50.15307],[6.09988,50.15306],[6.10036,50.15315],[6.10235,50.15383],[6.10307,50.15427],[6.10395,50.15498],[6.10457,50.15534],[6.1056,50.15553],[6.10647,50.15577],[6.10747,50.15558],[6.10835,50.15597],[6.10914,50.1566],[6.10916,50.1569],[6.10905,50.15717],[6.10834,50.158],[6.10793,50.15835],[6.10738,50.15854],[6.10658,50.15866],[6.10629,50.1588],[6.10635,50.15925],[6.10643,50.15938],[6.10722,50.15977],[6.10772,50.16009],[6.10824,50.16028],[6.11133,50.15982],[6.11169,50.15987],[6.1118,50.15994],[6.11195,50.1602],[6.11219,50.16021],[6.11235,50.16004],[6.11236,50.15975],[6.11201,50.15913],[6.11177,50.15845],[6.11175,50.15751],[6.11218,50.15701],[6.11315,50.15614],[6.11334,50.15589],[6.11353,50.15533],[6.11372,50.15516],[6.11268,50.15462],[6.11191,50.15407],[6.11058,50.15336],[6.10983,50.15304],[6.10811,50.15247],[6.1075,50.15236],[6.10714,50.15239],[6.10693,50.15201],[6.10727,50.15178],[6.10669,50.15162],[6.10476,50.15144],[6.10433,50.15131],[6.10392,50.151],[6.10359,50.15056],[6.10288,50.14981],[6.1023,50.1493],[6.1016,50.14887],[6.09948,50.14779],[6.09925,50.14782],[6.0986,50.14835],[6.09832,50.14837],[6.09752,50.14805],[6.09507,50.14738],[6.09207,50.14634],[6.08769,50.14531],[6.08747,50.14507],[6.08753,50.1447],[6.08746,50.14455],[6.08657,50.14385],[6.08638,50.14358],[6.08602,50.14256],[6.08569,50.14211],[6.08507,50.14158],[6.08461,50.14054],[6.08358,50.14016],[6.08223,50.13989],[6.08062,50.13979],[6.07967,50.13962],[6.07846,50.14086],[6.07803,50.14121],[6.07735,50.14159],[6.07623,50.1419],[6.07628,50.142]]]}}