{"type":"Feature","properties":{"name":"Auto-Pédestre Wilwerwiltz","source":"geoportail"},"geometry":{"type":"MultiLineString","coordinates":[[[5.9982,49.98786],[5.99824,49.9877],[5.9988,49.98741],[5.99929,49.98721],[6.00041,49.98694],[6.00047,49.98681],[6.00054,49.98614],[6.00095,49.98553],[6.00139,49.98445],[6.0013,49.98431],[6.00072,49.98409],[6.00072,49.9839],[6.00113,49.98333],[6.00151,49.98307],[6.00181,49.98307],[6.00306,49.98356],[6.00381,49.984],[6.0049,49.98442],[6.00519,49.9845],[6.00568,49.98451],[6.00602,49.98475],[6.00656,49.98484],[6.00898,49.9855],[6.00997,49.98543],[6.01053,49.98475],[6.01112,49.98428],[6.01146,49.98385],[6.0125,49.98306],[6.01303,49.98315],[6.01336,49.98327],[6.01389,49.98366],[6.01414,49.98375],[6.0137,49.98377],[6.01359,49.98387],[6.01421,49.98407],[6.01426,49.98415],[6.01352,49.98436],[6.01349,49.98446],[6.01447,49.98463],[6.0148,49.98454],[6.01522,49.98455],[6.01572,49.98464],[6.0159,49.98479],[6.01665,49.986],[6.01734,49.98681],[6.01755,49.98714],[6.01754,49.98741],[6.01739,49.98782],[6.01737,49.98829],[6.01746,49.98876],[6.01772,49.98941],[6.01836,49.98995],[6.01867,49.9903],[6.01954,49.99177],[6.02042,49.99284],[6.02122,49.99347],[6.02114,49.99354],[6.02038,49.99341],[6.01893,49.99301],[6.01869,49.99299],[6.01838,49.99306],[6.01685,49.99282],[6.01451,49.99227],[6.0138,49.99218],[6.01318,49.99192],[6.01291,49.99197],[6.01267,49.9922],[6.01253,49.99243],[6.01249,49.99277],[6.01229,49.99303],[6.01139,49.99284],[6.01116,49.99294],[6.01091,49.99294],[6.01086,49.99303],[6.01089,49.99317],[6.01031,49.99352],[6.01015,49.99414],[6.01002,49.9943],[6.0099,49.99472],[6.00978,49.99492],[6.00872,49.99578],[6.00817,49.99701],[6.00785,49.99844],[6.00795,49.99872],[6.00911,50.00058],[6.00911,50.00084],[6.00958,50.00238],[6.00938,50.00244],[6.00842,50.00213],[6.00774,50.00208],[6.00743,50.00228],[6.00721,50.00269],[6.0066,50.00343],[6.00639,50.00344],[6.00441,50.00266],[6.00406,50.00227],[6.0038,50.00162],[6.00338,50.00123],[5.99961,49.99989],[5.99904,49.99979],[5.99851,49.99954],[5.99647,49.99921],[5.99465,49.99828],[5.99406,49.99812],[5.99397,49.998],[5.99403,49.99789],[5.99476,49.99739],[5.99499,49.99715],[5.99496,49.99703],[5.99477,49.99691],[5.99467,49.9969],[5.9931,49.99762],[5.99195,49.99842],[5.99073,49.99866],[5.99015,49.99859],[5.98987,49.99844],[5.98919,49.99833],[5.9892,49.99827],[5.98881,49.99808],[5.98848,49.998],[5.98637,49.99774],[5.98645,49.99765],[5.98724,49.99763],[5.98793,49.99751],[5.98909,49.99707],[5.99005,49.99642],[5.99054,49.99572],[5.9908,49.99545],[5.99125,49.99526],[5.99171,49.99493],[5.99179,49.99478],[5.99173,49.99469],[5.99139,49.99461],[5.99118,49.99441],[5.99092,49.99428],[5.98928,49.99376],[5.98908,49.9936],[5.98908,49.99351],[5.9896,49.99363],[5.99015,49.99364],[5.99207,49.993],[5.993,49.99284],[5.99396,49.9928],[5.99555,49.99295],[5.99583,49.99288],[5.9966,49.99201],[5.99671,49.99169],[5.99704,49.99134],[5.99692,49.99097],[5.99615,49.99053],[5.99586,49.98998],[5.9957,49.98983],[5.99569,49.98969],[5.99589,49.98907],[5.99619,49.98891],[5.99618,49.98883],[5.99713,49.98819],[5.99766,49.98798],[5.99801,49.98771],[5.99824,49.9877],[5.9982,49.98786]]]}}