{"type":"Feature","properties":{"name":"Auto-Pédestre Winseler","source":"geoportail"},"geometry":{"type":"MultiLineString","coordinates":[[[5.88985,49.96709],[5.88987,49.96718],[5.88951,49.9672],[5.88748,49.96722],[5.88613,49.96762],[5.88451,49.9679],[5.88402,49.96895],[5.88375,49.96977],[5.88349,49.97024],[5.88349,49.97082],[5.883,49.97134],[5.88188,49.97182],[5.88145,49.9719],[5.88093,49.97189],[5.87985,49.97158],[5.87959,49.97157],[5.87943,49.97162],[5.87932,49.97175],[5.87953,49.97205],[5.87949,49.9722],[5.87943,49.9722],[5.87673,49.97153],[5.87575,49.97142],[5.87497,49.97145],[5.87439,49.97154],[5.87354,49.9718],[5.87287,49.97211],[5.87256,49.97233],[5.87229,49.97253],[5.87195,49.9729],[5.8716,49.97343],[5.8709,49.97476],[5.87055,49.97525],[5.87007,49.97572],[5.86904,49.97636],[5.866,49.97748],[5.86485,49.97809],[5.85885,49.9829],[5.85817,49.98376],[5.85718,49.9857],[5.85682,49.98826],[5.85687,49.98896],[5.85667,49.98982],[5.85719,49.99008],[5.85723,49.99027],[5.85715,49.99038],[5.85623,49.99083],[5.85606,49.99112],[5.85641,49.9918],[5.85673,49.99227],[5.85693,49.99242],[5.85713,49.99246],[5.85858,49.99212],[5.85958,49.992],[5.86044,49.99144],[5.86113,49.99115],[5.86148,49.99087],[5.86243,49.9898],[5.86269,49.98909],[5.86175,49.98814],[5.86146,49.98756],[5.86186,49.98731],[5.86199,49.9873],[5.86196,49.98674],[5.86204,49.98619],[5.86217,49.98591],[5.8629,49.98505],[5.86289,49.98404],[5.86298,49.98383],[5.86324,49.98363],[5.86324,49.98349],[5.8637,49.9836],[5.86466,49.98404],[5.86683,49.98407],[5.86718,49.984],[5.86754,49.98377],[5.86748,49.98349],[5.86765,49.98304],[5.86783,49.98292],[5.86806,49.98289],[5.86938,49.983],[5.86978,49.98296],[5.87067,49.98305],[5.8707,49.98284],[5.87084,49.98273],[5.87177,49.98275],[5.87372,49.98227],[5.87463,49.98198],[5.87494,49.9818],[5.87541,49.9813],[5.87558,49.98127],[5.87723,49.98177],[5.87967,49.98203],[5.88013,49.98193],[5.88066,49.98206],[5.88081,49.98202],[5.8808,49.98192],[5.87993,49.98134],[5.87856,49.98105],[5.87797,49.98075],[5.87749,49.98036],[5.87724,49.97983],[5.87706,49.97889],[5.87714,49.97835],[5.8776,49.97738],[5.8778,49.97714],[5.8783,49.9768],[5.87863,49.97648],[5.87921,49.97605],[5.88006,49.97544],[5.88099,49.97491],[5.88163,49.97443],[5.88173,49.97425],[5.88173,49.97408],[5.88162,49.97375],[5.88172,49.9736],[5.883,49.97292],[5.88394,49.97266],[5.88589,49.97172],[5.88622,49.97133],[5.88638,49.97091],[5.88674,49.97032],[5.88786,49.96908],[5.88902,49.96867],[5.89027,49.96857],[5.89087,49.96842],[5.89009,49.9675],[5.88985,49.96709]]]}}