{"type":"Feature","properties":{"name":"Auto-Pédestre Wormeldange","source":"geoportail"},"geometry":{"type":"MultiLineString","coordinates":[[[6.40644,49.61118],[6.40564,49.6114],[6.40555,49.61145],[6.40562,49.61153],[6.40504,49.6119],[6.40439,49.61152],[6.4031,49.6113],[6.40271,49.61141],[6.4027,49.61148],[6.4025,49.61144],[6.40114,49.61181],[6.40071,49.61122],[6.40016,49.61071],[6.40074,49.61049],[6.40175,49.61032],[6.40173,49.61016],[6.40102,49.60907],[6.40075,49.60885],[6.39933,49.60716],[6.39767,49.60467],[6.39693,49.60375],[6.39656,49.6034],[6.39527,49.60425],[6.39432,49.60479],[6.39566,49.60634],[6.39831,49.60975],[6.39758,49.60982],[6.39685,49.60978],[6.39474,49.61038],[6.39537,49.61116],[6.39567,49.61179],[6.39631,49.61254],[6.39687,49.61299],[6.39769,49.6124],[6.39817,49.61296],[6.39848,49.61354],[6.39878,49.61377],[6.39938,49.61356],[6.40131,49.61319],[6.40224,49.61314],[6.40249,49.61328],[6.40272,49.61354],[6.40281,49.61381],[6.4027,49.61412],[6.40321,49.6141],[6.40328,49.61402],[6.40328,49.61386],[6.40349,49.61386],[6.40365,49.6138],[6.40385,49.61391],[6.40373,49.61419],[6.4035,49.6144],[6.4029,49.61451],[6.40265,49.61483],[6.40266,49.61495],[6.40354,49.61509],[6.40364,49.61591],[6.40397,49.61711],[6.40391,49.61752],[6.40363,49.61805],[6.40365,49.61835],[6.40458,49.6174],[6.40466,49.61725],[6.40466,49.61713],[6.40439,49.61646],[6.40426,49.61586],[6.40431,49.61554],[6.4045,49.61534],[6.40481,49.61534],[6.40529,49.61495],[6.40599,49.61457],[6.40597,49.61441],[6.40589,49.61439],[6.4059,49.61422],[6.40618,49.61436],[6.40901,49.6171],[6.40954,49.61738],[6.41005,49.61776],[6.40957,49.61707],[6.40836,49.61585],[6.40799,49.61537],[6.40707,49.61441],[6.40696,49.61425],[6.40686,49.61389],[6.407,49.61388],[6.40739,49.61402],[6.40783,49.61426],[6.4089,49.61505],[6.40967,49.61469],[6.40999,49.61496],[6.41055,49.61471],[6.41106,49.61509],[6.41156,49.61472],[6.41063,49.61411],[6.40954,49.61327],[6.4084,49.61265],[6.40775,49.61234],[6.40655,49.61212],[6.40669,49.61178],[6.40693,49.61154],[6.40694,49.61138],[6.40693,49.61129],[6.40641,49.61127],[6.40648,49.61117]]]}}