<?xml version="1.0" encoding="UTF-8"?>
<gpx version="1.1" creator="ian.lu/trails" xmlns="http://www.topografix.com/GPX/1/1">
<metadata><name>Auto-Pédestre Arsdorf</name><link href="https://ian.lu/trails/"/></metadata>
<trk><name>Auto-Pédestre Arsdorf</name><trkseg><trkpt lat="49.86041" lon="5.84302"/><trkpt lat="49.85995" lon="5.84407"/><trkpt lat="49.85964" lon="5.84434"/><trkpt lat="49.85953" lon="5.84454"/><trkpt lat="49.85947" lon="5.84447"/><trkpt lat="49.85925" lon="5.84494"/><trkpt lat="49.85874" lon="5.84662"/><trkpt lat="49.85866" lon="5.84714"/><trkpt lat="49.85862" lon="5.84807"/><trkpt lat="49.8584" lon="5.84839"/><trkpt lat="49.8578" lon="5.84859"/><trkpt lat="49.8577" lon="5.84868"/><trkpt lat="49.85766" lon="5.84882"/><trkpt lat="49.85879" lon="5.84929"/><trkpt lat="49.85905" lon="5.84963"/><trkpt lat="49.85918" lon="5.85027"/><trkpt lat="49.85943" lon="5.85098"/><trkpt lat="49.85969" lon="5.85254"/><trkpt lat="49.86014" lon="5.85401"/><trkpt lat="49.86047" lon="5.85431"/><trkpt lat="49.86076" lon="5.85441"/><trkpt lat="49.862" lon="5.85521"/><trkpt lat="49.8621" lon="5.85521"/><trkpt lat="49.86252" lon="5.85567"/><trkpt lat="49.86312" lon="5.85669"/><trkpt lat="49.86312" lon="5.85677"/><trkpt lat="49.86279" lon="5.85719"/><trkpt lat="49.86309" lon="5.85723"/><trkpt lat="49.86317" lon="5.85747"/><trkpt lat="49.86328" lon="5.85749"/><trkpt lat="49.86429" lon="5.85741"/><trkpt lat="49.86521" lon="5.85747"/><trkpt lat="49.86622" lon="5.85692"/><trkpt lat="49.86648" lon="5.85684"/><trkpt lat="49.86657" lon="5.85664"/><trkpt lat="49.86661" lon="5.85621"/><trkpt lat="49.86727" lon="5.85578"/><trkpt lat="49.86747" lon="5.85573"/><trkpt lat="49.86809" lon="5.85523"/><trkpt lat="49.86833" lon="5.85511"/><trkpt lat="49.86848" lon="5.85498"/><trkpt lat="49.8687" lon="5.8546"/><trkpt lat="49.86938" lon="5.85451"/><trkpt lat="49.87049" lon="5.85425"/><trkpt lat="49.87214" lon="5.85328"/><trkpt lat="49.87229" lon="5.85309"/><trkpt lat="49.87225" lon="5.85186"/><trkpt lat="49.87244" lon="5.85075"/><trkpt lat="49.87257" lon="5.85081"/><trkpt lat="49.87267" lon="5.85072"/><trkpt lat="49.87328" lon="5.85052"/><trkpt lat="49.87389" lon="5.85066"/><trkpt lat="49.87471" lon="5.8505"/><trkpt lat="49.87531" lon="5.85049"/><trkpt lat="49.87581" lon="5.85033"/><trkpt lat="49.87643" lon="5.84995"/><trkpt lat="49.87736" lon="5.84979"/><trkpt lat="49.87756" lon="5.84967"/><trkpt lat="49.87792" lon="5.84922"/><trkpt lat="49.87808" lon="5.84874"/><trkpt lat="49.87846" lon="5.84804"/><trkpt lat="49.87855" lon="5.84775"/><trkpt lat="49.87863" lon="5.84704"/><trkpt lat="49.87902" lon="5.84691"/><trkpt lat="49.87935" lon="5.84639"/><trkpt lat="49.87912" lon="5.84577"/><trkpt lat="49.87934" lon="5.84505"/><trkpt lat="49.87946" lon="5.8449"/><trkpt lat="49.87975" lon="5.84373"/><trkpt lat="49.87983" lon="5.84313"/><trkpt lat="49.87995" lon="5.84282"/><trkpt lat="49.88002" lon="5.8427"/><trkpt lat="49.88066" lon="5.8423"/><trkpt lat="49.88148" lon="5.84215"/><trkpt lat="49.88139" lon="5.84517"/><trkpt lat="49.8816" lon="5.84724"/><trkpt lat="49.88155" lon="5.84968"/><trkpt lat="49.88175" lon="5.85147"/><trkpt lat="49.88173" lon="5.85265"/><trkpt lat="49.8818" lon="5.85274"/><trkpt lat="49.88102" lon="5.85408"/><trkpt lat="49.88042" lon="5.85531"/><trkpt lat="49.87982" lon="5.85599"/><trkpt lat="49.87995" lon="5.85608"/><trkpt lat="49.88079" lon="5.8563"/><trkpt lat="49.88085" lon="5.85661"/><trkpt lat="49.8808" lon="5.85688"/><trkpt lat="49.8805" lon="5.85752"/><trkpt lat="49.88023" lon="5.85777"/><trkpt lat="49.88027" lon="5.85784"/><trkpt lat="49.88064" lon="5.85828"/><trkpt lat="49.8823" lon="5.85981"/><trkpt lat="49.8826" lon="5.86018"/><trkpt lat="49.88255" lon="5.86031"/><trkpt lat="49.8827" lon="5.86047"/><trkpt lat="49.88311" lon="5.86218"/><trkpt lat="49.88314" lon="5.86318"/><trkpt lat="49.88353" lon="5.86417"/><trkpt lat="49.88343" lon="5.86461"/><trkpt lat="49.88356" lon="5.86537"/><trkpt lat="49.88345" lon="5.86556"/><trkpt lat="49.88335" lon="5.86554"/><trkpt lat="49.88324" lon="5.86562"/><trkpt lat="49.88285" lon="5.86633"/><trkpt lat="49.88259" lon="5.86662"/><trkpt lat="49.88194" lon="5.86802"/><trkpt lat="49.88137" lon="5.86835"/><trkpt lat="49.88091" lon="5.86869"/><trkpt lat="49.88027" lon="5.86939"/><trkpt lat="49.87948" lon="5.86754"/><trkpt lat="49.87812" lon="5.8649"/><trkpt lat="49.8776" lon="5.86339"/><trkpt lat="49.87705" lon="5.86141"/><trkpt lat="49.87577" lon="5.85875"/><trkpt lat="49.87482" lon="5.85725"/><trkpt lat="49.8742" lon="5.85644"/><trkpt lat="49.87272" lon="5.85511"/><trkpt lat="49.87229" lon="5.85487"/><trkpt lat="49.87195" lon="5.85478"/><trkpt lat="49.87173" lon="5.85481"/><trkpt lat="49.87061" lon="5.85539"/><trkpt lat="49.86939" lon="5.85522"/><trkpt lat="49.86898" lon="5.85526"/><trkpt lat="49.86801" lon="5.85564"/><trkpt lat="49.86727" lon="5.85578"/><trkpt lat="49.86661" lon="5.85621"/><trkpt lat="49.86657" lon="5.85664"/><trkpt lat="49.86648" lon="5.85684"/><trkpt lat="49.86622" lon="5.85692"/><trkpt lat="49.86521" lon="5.85747"/><trkpt lat="49.86429" lon="5.85741"/><trkpt lat="49.86326" lon="5.8575"/><trkpt lat="49.86317" lon="5.85746"/><trkpt lat="49.86308" lon="5.85723"/><trkpt lat="49.86278" lon="5.85719"/><trkpt lat="49.86312" lon="5.85677"/><trkpt lat="49.86312" lon="5.85669"/><trkpt lat="49.86252" lon="5.85567"/><trkpt lat="49.8621" lon="5.85521"/><trkpt lat="49.862" lon="5.85521"/><trkpt lat="49.86076" lon="5.8544"/><trkpt lat="49.86046" lon="5.85431"/><trkpt lat="49.86016" lon="5.85405"/><trkpt lat="49.85969" lon="5.85256"/><trkpt lat="49.85943" lon="5.85098"/><trkpt lat="49.85905" lon="5.84963"/><trkpt lat="49.85878" lon="5.84928"/><trkpt lat="49.85766" lon="5.84882"/><trkpt lat="49.85769" lon="5.84868"/><trkpt lat="49.8578" lon="5.84859"/><trkpt lat="49.8584" lon="5.84839"/><trkpt lat="49.85863" lon="5.84806"/><trkpt lat="49.85871" lon="5.84677"/><trkpt lat="49.85926" lon="5.84491"/><trkpt lat="49.85947" lon="5.84447"/><trkpt lat="49.85953" lon="5.84454"/><trkpt lat="49.85965" lon="5.84432"/><trkpt lat="49.85992" lon="5.84411"/><trkpt lat="49.86041" lon="5.84301"/></trkseg></trk>
</gpx>
