<?xml version="1.0" encoding="UTF-8"?>
<gpx version="1.1" creator="ian.lu/trails" xmlns="http://www.topografix.com/GPX/1/1">
<metadata><name>Auto-Pédestre Beaufort</name><link href="https://ian.lu/trails/"/></metadata>
<trk><name>Auto-Pédestre Beaufort</name><trkseg><trkpt lat="49.83971" lon="6.28916"/><trkpt lat="49.83981" lon="6.28932"/><trkpt lat="49.8386" lon="6.28962"/><trkpt lat="49.8379" lon="6.28987"/><trkpt lat="49.83746" lon="6.29026"/><trkpt lat="49.8365" lon="6.29175"/><trkpt lat="49.83623" lon="6.29202"/><trkpt lat="49.83597" lon="6.29224"/><trkpt lat="49.83533" lon="6.2926"/><trkpt lat="49.83416" lon="6.29301"/><trkpt lat="49.83437" lon="6.29392"/><trkpt lat="49.83435" lon="6.29423"/><trkpt lat="49.8349" lon="6.2963"/><trkpt lat="49.83437" lon="6.29796"/><trkpt lat="49.83404" lon="6.29879"/><trkpt lat="49.83316" lon="6.29969"/><trkpt lat="49.83275" lon="6.30022"/><trkpt lat="49.83243" lon="6.30075"/><trkpt lat="49.83226" lon="6.30132"/><trkpt lat="49.83177" lon="6.30547"/><trkpt lat="49.83151" lon="6.30692"/><trkpt lat="49.83145" lon="6.30887"/><trkpt lat="49.83137" lon="6.3097"/><trkpt lat="49.83117" lon="6.31114"/><trkpt lat="49.83084" lon="6.31268"/><trkpt lat="49.83072" lon="6.31385"/><trkpt lat="49.83061" lon="6.31784"/><trkpt lat="49.83069" lon="6.31928"/><trkpt lat="49.83067" lon="6.32233"/><trkpt lat="49.83061" lon="6.32304"/><trkpt lat="49.83" lon="6.32297"/><trkpt lat="49.82927" lon="6.32279"/><trkpt lat="49.82868" lon="6.32237"/><trkpt lat="49.82809" lon="6.32218"/><trkpt lat="49.82778" lon="6.32193"/><trkpt lat="49.82589" lon="6.3208"/><trkpt lat="49.82543" lon="6.32044"/><trkpt lat="49.82463" lon="6.31996"/><trkpt lat="49.8237" lon="6.31971"/><trkpt lat="49.82363" lon="6.31942"/><trkpt lat="49.82367" lon="6.31902"/><trkpt lat="49.82437" lon="6.31795"/><trkpt lat="49.82451" lon="6.31764"/><trkpt lat="49.82494" lon="6.31524"/><trkpt lat="49.82468" lon="6.31445"/><trkpt lat="49.82461" lon="6.31397"/><trkpt lat="49.82469" lon="6.31359"/><trkpt lat="49.82459" lon="6.31333"/><trkpt lat="49.82392" lon="6.31261"/><trkpt lat="49.82381" lon="6.3124"/><trkpt lat="49.82373" lon="6.31128"/><trkpt lat="49.82363" lon="6.31089"/><trkpt lat="49.82334" lon="6.31067"/><trkpt lat="49.8233" lon="6.31138"/><trkpt lat="49.82321" lon="6.3114"/><trkpt lat="49.82304" lon="6.31122"/><trkpt lat="49.82291" lon="6.31133"/><trkpt lat="49.8229" lon="6.31121"/><trkpt lat="49.82286" lon="6.31032"/><trkpt lat="49.82295" lon="6.30997"/><trkpt lat="49.82319" lon="6.30954"/><trkpt lat="49.82351" lon="6.30869"/><trkpt lat="49.82383" lon="6.30828"/><trkpt lat="49.82386" lon="6.30791"/><trkpt lat="49.82366" lon="6.30656"/><trkpt lat="49.82342" lon="6.30586"/><trkpt lat="49.8234" lon="6.3055"/><trkpt lat="49.82325" lon="6.30525"/><trkpt lat="49.82312" lon="6.30414"/><trkpt lat="49.82301" lon="6.30392"/><trkpt lat="49.82303" lon="6.30304"/><trkpt lat="49.82279" lon="6.30176"/><trkpt lat="49.82261" lon="6.30114"/><trkpt lat="49.82248" lon="6.30028"/><trkpt lat="49.82232" lon="6.29799"/><trkpt lat="49.82238" lon="6.29726"/><trkpt lat="49.82259" lon="6.29665"/><trkpt lat="49.82295" lon="6.29626"/><trkpt lat="49.82328" lon="6.29613"/><trkpt lat="49.82404" lon="6.29625"/><trkpt lat="49.8245" lon="6.29639"/><trkpt lat="49.82484" lon="6.29681"/><trkpt lat="49.82496" lon="6.29716"/><trkpt lat="49.82535" lon="6.29766"/><trkpt lat="49.82603" lon="6.29798"/><trkpt lat="49.82654" lon="6.29815"/><trkpt lat="49.82679" lon="6.298"/><trkpt lat="49.82702" lon="6.29798"/><trkpt lat="49.82719" lon="6.29778"/><trkpt lat="49.82719" lon="6.29751"/><trkpt lat="49.82758" lon="6.29698"/><trkpt lat="49.82774" lon="6.29687"/><trkpt lat="49.82804" lon="6.29609"/><trkpt lat="49.82845" lon="6.29531"/><trkpt lat="49.82851" lon="6.29477"/><trkpt lat="49.82889" lon="6.29383"/><trkpt lat="49.82944" lon="6.29277"/><trkpt lat="49.82978" lon="6.29167"/><trkpt lat="49.83001" lon="6.29129"/><trkpt lat="49.83025" lon="6.29114"/><trkpt lat="49.83041" lon="6.29085"/><trkpt lat="49.83055" lon="6.29073"/><trkpt lat="49.8312" lon="6.28967"/><trkpt lat="49.83153" lon="6.28857"/><trkpt lat="49.83202" lon="6.28766"/><trkpt lat="49.83248" lon="6.28708"/><trkpt lat="49.83287" lon="6.28681"/><trkpt lat="49.8331" lon="6.28686"/><trkpt lat="49.83317" lon="6.28698"/><trkpt lat="49.83321" lon="6.28736"/><trkpt lat="49.83345" lon="6.28763"/><trkpt lat="49.83375" lon="6.28781"/><trkpt lat="49.83418" lon="6.28766"/><trkpt lat="49.83518" lon="6.28662"/><trkpt lat="49.83554" lon="6.28643"/><trkpt lat="49.83632" lon="6.28581"/><trkpt lat="49.83616" lon="6.28645"/><trkpt lat="49.83618" lon="6.28673"/><trkpt lat="49.83625" lon="6.28677"/><trkpt lat="49.83647" lon="6.28616"/><trkpt lat="49.83669" lon="6.2859"/><trkpt lat="49.83698" lon="6.28574"/><trkpt lat="49.83703" lon="6.28582"/><trkpt lat="49.83668" lon="6.28668"/><trkpt lat="49.8367" lon="6.28731"/><trkpt lat="49.83686" lon="6.28688"/><trkpt lat="49.83713" lon="6.28659"/><trkpt lat="49.83744" lon="6.28635"/><trkpt lat="49.83769" lon="6.28631"/><trkpt lat="49.83803" lon="6.28692"/><trkpt lat="49.83873" lon="6.28776"/><trkpt lat="49.83896" lon="6.28821"/><trkpt lat="49.83919" lon="6.28884"/><trkpt lat="49.83961" lon="6.28873"/><trkpt lat="49.8397" lon="6.28916"/></trkseg></trk>
</gpx>
