<?xml version="1.0" encoding="UTF-8"?>
<gpx version="1.1" creator="ian.lu/trails" xmlns="http://www.topografix.com/GPX/1/1">
<metadata><name>Auto-Pédestre Berdorf</name><link href="https://ian.lu/trails/"/></metadata>
<trk><name>Auto-Pédestre Berdorf</name><trkseg><trkpt lat="49.82301" lon="6.35133"/><trkpt lat="49.82383" lon="6.35329"/><trkpt lat="49.8234" lon="6.35459"/><trkpt lat="49.82309" lon="6.3562"/><trkpt lat="49.82318" lon="6.35906"/><trkpt lat="49.8231" lon="6.36037"/><trkpt lat="49.82324" lon="6.36282"/><trkpt lat="49.82321" lon="6.36303"/><trkpt lat="49.82227" lon="6.36405"/><trkpt lat="49.82075" lon="6.36535"/><trkpt lat="49.82023" lon="6.36593"/><trkpt lat="49.81765" lon="6.36835"/><trkpt lat="49.81749" lon="6.3684"/><trkpt lat="49.81819" lon="6.3699"/><trkpt lat="49.81827" lon="6.37104"/><trkpt lat="49.8185" lon="6.37225"/><trkpt lat="49.81868" lon="6.37257"/><trkpt lat="49.81887" lon="6.37275"/><trkpt lat="49.81916" lon="6.37289"/><trkpt lat="49.81972" lon="6.37293"/><trkpt lat="49.82019" lon="6.37241"/><trkpt lat="49.82047" lon="6.37241"/><trkpt lat="49.8207" lon="6.37255"/><trkpt lat="49.8214" lon="6.37253"/><trkpt lat="49.82157" lon="6.37249"/><trkpt lat="49.82189" lon="6.37227"/><trkpt lat="49.82215" lon="6.37232"/><trkpt lat="49.82246" lon="6.37262"/><trkpt lat="49.82281" lon="6.37274"/><trkpt lat="49.82303" lon="6.37299"/><trkpt lat="49.82329" lon="6.37306"/><trkpt lat="49.82359" lon="6.37334"/><trkpt lat="49.82376" lon="6.37338"/><trkpt lat="49.824" lon="6.37325"/><trkpt lat="49.82418" lon="6.37303"/><trkpt lat="49.82441" lon="6.37287"/><trkpt lat="49.82483" lon="6.37234"/><trkpt lat="49.82523" lon="6.3721"/><trkpt lat="49.82546" lon="6.37212"/><trkpt lat="49.82519" lon="6.3722"/><trkpt lat="49.82512" lon="6.37237"/><trkpt lat="49.82517" lon="6.37255"/><trkpt lat="49.8248" lon="6.37311"/><trkpt lat="49.82473" lon="6.37316"/><trkpt lat="49.82459" lon="6.37311"/><trkpt lat="49.8245" lon="6.37318"/><trkpt lat="49.82434" lon="6.37342"/><trkpt lat="49.82376" lon="6.37398"/><trkpt lat="49.82349" lon="6.37395"/><trkpt lat="49.82301" lon="6.37356"/><trkpt lat="49.82291" lon="6.37355"/><trkpt lat="49.82256" lon="6.37321"/><trkpt lat="49.82234" lon="6.37319"/><trkpt lat="49.82221" lon="6.37325"/><trkpt lat="49.82218" lon="6.37333"/><trkpt lat="49.82201" lon="6.37322"/><trkpt lat="49.8219" lon="6.37324"/><trkpt lat="49.8217" lon="6.37354"/><trkpt lat="49.82145" lon="6.37373"/><trkpt lat="49.82122" lon="6.37371"/><trkpt lat="49.82106" lon="6.37378"/><trkpt lat="49.8206" lon="6.37372"/><trkpt lat="49.81982" lon="6.37429"/><trkpt lat="49.81941" lon="6.37441"/><trkpt lat="49.81907" lon="6.37443"/><trkpt lat="49.81863" lon="6.37494"/><trkpt lat="49.81827" lon="6.37511"/><trkpt lat="49.81808" lon="6.37539"/><trkpt lat="49.81802" lon="6.37582"/><trkpt lat="49.81783" lon="6.3758"/><trkpt lat="49.81787" lon="6.37512"/><trkpt lat="49.8178" lon="6.37507"/><trkpt lat="49.81782" lon="6.37458"/><trkpt lat="49.81771" lon="6.37354"/><trkpt lat="49.8177" lon="6.37282"/><trkpt lat="49.81741" lon="6.37147"/><trkpt lat="49.81712" lon="6.37059"/><trkpt lat="49.81694" lon="6.37025"/><trkpt lat="49.81677" lon="6.37018"/><trkpt lat="49.81663" lon="6.36995"/><trkpt lat="49.81655" lon="6.36959"/><trkpt lat="49.81628" lon="6.36904"/><trkpt lat="49.81616" lon="6.36843"/><trkpt lat="49.8159" lon="6.36794"/><trkpt lat="49.81579" lon="6.36723"/><trkpt lat="49.81585" lon="6.36714"/><trkpt lat="49.81577" lon="6.36672"/><trkpt lat="49.81578" lon="6.36634"/><trkpt lat="49.81564" lon="6.3659"/><trkpt lat="49.81561" lon="6.36553"/><trkpt lat="49.81569" lon="6.36525"/><trkpt lat="49.81565" lon="6.3648"/><trkpt lat="49.81544" lon="6.36424"/><trkpt lat="49.81557" lon="6.36381"/><trkpt lat="49.81546" lon="6.36351"/><trkpt lat="49.81549" lon="6.36297"/><trkpt lat="49.81531" lon="6.36248"/><trkpt lat="49.81532" lon="6.3615"/><trkpt lat="49.81517" lon="6.36077"/><trkpt lat="49.81521" lon="6.3602"/><trkpt lat="49.81513" lon="6.35958"/><trkpt lat="49.81517" lon="6.35885"/><trkpt lat="49.81528" lon="6.35931"/><trkpt lat="49.81534" lon="6.3589"/><trkpt lat="49.81549" lon="6.35891"/><trkpt lat="49.8156" lon="6.35874"/><trkpt lat="49.81584" lon="6.35863"/><trkpt lat="49.816" lon="6.35886"/><trkpt lat="49.81629" lon="6.35902"/><trkpt lat="49.81606" lon="6.35784"/><trkpt lat="49.81615" lon="6.35743"/><trkpt lat="49.81602" lon="6.35633"/><trkpt lat="49.81606" lon="6.35579"/><trkpt lat="49.81621" lon="6.35573"/><trkpt lat="49.81852" lon="6.35308"/><trkpt lat="49.81996" lon="6.35017"/><trkpt lat="49.82009" lon="6.35002"/><trkpt lat="49.82072" lon="6.34963"/><trkpt lat="49.82072" lon="6.3493"/><trkpt lat="49.82105" lon="6.34932"/><trkpt lat="49.82106" lon="6.3492"/><trkpt lat="49.82133" lon="6.34917"/><trkpt lat="49.82146" lon="6.34903"/><trkpt lat="49.82152" lon="6.34909"/><trkpt lat="49.82155" lon="6.34942"/><trkpt lat="49.82225" lon="6.35008"/><trkpt lat="49.823" lon="6.3513"/></trkseg></trk>
</gpx>
