<?xml version="1.0" encoding="UTF-8"?>
<gpx version="1.1" creator="ian.lu/trails" xmlns="http://www.topografix.com/GPX/1/1">
<metadata><name>Auto-Pédestre Berlé</name><link href="https://ian.lu/trails/"/></metadata>
<trk><name>Auto-Pédestre Berlé</name><trkseg><trkpt lat="49.95141" lon="5.85516"/><trkpt lat="49.95112" lon="5.8547"/><trkpt lat="49.95088" lon="5.8545"/><trkpt lat="49.95065" lon="5.85381"/><trkpt lat="49.95012" lon="5.85302"/><trkpt lat="49.94965" lon="5.8521"/><trkpt lat="49.94928" lon="5.85169"/><trkpt lat="49.94884" lon="5.84912"/><trkpt lat="49.94903" lon="5.84846"/><trkpt lat="49.94904" lon="5.84811"/><trkpt lat="49.94862" lon="5.84674"/><trkpt lat="49.94848" lon="5.84559"/><trkpt lat="49.94849" lon="5.84491"/><trkpt lat="49.94839" lon="5.84437"/><trkpt lat="49.94783" lon="5.84269"/><trkpt lat="49.94765" lon="5.84248"/><trkpt lat="49.94749" lon="5.84251"/><trkpt lat="49.94736" lon="5.8427"/><trkpt lat="49.94718" lon="5.84326"/><trkpt lat="49.94709" lon="5.84333"/><trkpt lat="49.94697" lon="5.84333"/><trkpt lat="49.94661" lon="5.84302"/><trkpt lat="49.94627" lon="5.84253"/><trkpt lat="49.94588" lon="5.84243"/><trkpt lat="49.94579" lon="5.84232"/><trkpt lat="49.94564" lon="5.84075"/><trkpt lat="49.94573" lon="5.83986"/><trkpt lat="49.94559" lon="5.83912"/><trkpt lat="49.94575" lon="5.83878"/><trkpt lat="49.94599" lon="5.83855"/><trkpt lat="49.94607" lon="5.83856"/><trkpt lat="49.94647" lon="5.83887"/><trkpt lat="49.94762" lon="5.83954"/><trkpt lat="49.94794" lon="5.83981"/><trkpt lat="49.94801" lon="5.8398"/><trkpt lat="49.94672" lon="5.83771"/><trkpt lat="49.94659" lon="5.8376"/><trkpt lat="49.94631" lon="5.83764"/><trkpt lat="49.94607" lon="5.83755"/><trkpt lat="49.94607" lon="5.83737"/><trkpt lat="49.9463" lon="5.83689"/><trkpt lat="49.94647" lon="5.83673"/><trkpt lat="49.94658" lon="5.83675"/><trkpt lat="49.94679" lon="5.83716"/><trkpt lat="49.94699" lon="5.83707"/><trkpt lat="49.94734" lon="5.83775"/><trkpt lat="49.94816" lon="5.83881"/><trkpt lat="49.94853" lon="5.83962"/><trkpt lat="49.94896" lon="5.83981"/><trkpt lat="49.94927" lon="5.83973"/><trkpt lat="49.94996" lon="5.83925"/><trkpt lat="49.95052" lon="5.83923"/><trkpt lat="49.95147" lon="5.83821"/><trkpt lat="49.95174" lon="5.83904"/><trkpt lat="49.95282" lon="5.84084"/><trkpt lat="49.95315" lon="5.84201"/><trkpt lat="49.95329" lon="5.84215"/><trkpt lat="49.9538" lon="5.84197"/><trkpt lat="49.95436" lon="5.84142"/><trkpt lat="49.95456" lon="5.84099"/><trkpt lat="49.95479" lon="5.83942"/><trkpt lat="49.95533" lon="5.83683"/><trkpt lat="49.95558" lon="5.83615"/><trkpt lat="49.95605" lon="5.83543"/><trkpt lat="49.95676" lon="5.83456"/><trkpt lat="49.95745" lon="5.8335"/><trkpt lat="49.95756" lon="5.83324"/><trkpt lat="49.95761" lon="5.83266"/><trkpt lat="49.95776" lon="5.83209"/><trkpt lat="49.95876" lon="5.83081"/><trkpt lat="49.95974" lon="5.82897"/><trkpt lat="49.9605" lon="5.82808"/><trkpt lat="49.96072" lon="5.82764"/><trkpt lat="49.96087" lon="5.82709"/><trkpt lat="49.96104" lon="5.82694"/><trkpt lat="49.96121" lon="5.82689"/><trkpt lat="49.96134" lon="5.82697"/><trkpt lat="49.96148" lon="5.82735"/><trkpt lat="49.96155" lon="5.82774"/><trkpt lat="49.96159" lon="5.8287"/><trkpt lat="49.9618" lon="5.82904"/><trkpt lat="49.96227" lon="5.82921"/><trkpt lat="49.96251" lon="5.8292"/><trkpt lat="49.96281" lon="5.82931"/><trkpt lat="49.96366" lon="5.82972"/><trkpt lat="49.96375" lon="5.82981"/><trkpt lat="49.96397" lon="5.83013"/><trkpt lat="49.96438" lon="5.83108"/><trkpt lat="49.96479" lon="5.83165"/><trkpt lat="49.96566" lon="5.83335"/><trkpt lat="49.96566" lon="5.83351"/><trkpt lat="49.96529" lon="5.83389"/><trkpt lat="49.96493" lon="5.83438"/><trkpt lat="49.9654" lon="5.83535"/><trkpt lat="49.96575" lon="5.8365"/><trkpt lat="49.96535" lon="5.83702"/><trkpt lat="49.96502" lon="5.83732"/><trkpt lat="49.96473" lon="5.8375"/><trkpt lat="49.96364" lon="5.83795"/><trkpt lat="49.96287" lon="5.83938"/><trkpt lat="49.96229" lon="5.83984"/><trkpt lat="49.96203" lon="5.84025"/><trkpt lat="49.96198" lon="5.84041"/><trkpt lat="49.96193" lon="5.84132"/><trkpt lat="49.96217" lon="5.84187"/><trkpt lat="49.96218" lon="5.84234"/><trkpt lat="49.96204" lon="5.84311"/><trkpt lat="49.96177" lon="5.844"/><trkpt lat="49.96149" lon="5.84434"/><trkpt lat="49.96006" lon="5.84502"/><trkpt lat="49.96021" lon="5.84558"/><trkpt lat="49.96031" lon="5.84661"/><trkpt lat="49.9606" lon="5.84721"/><trkpt lat="49.96039" lon="5.84737"/><trkpt lat="49.96028" lon="5.84738"/><trkpt lat="49.96012" lon="5.84703"/><trkpt lat="49.95984" lon="5.84715"/><trkpt lat="49.95967" lon="5.84709"/><trkpt lat="49.95917" lon="5.84716"/><trkpt lat="49.95887" lon="5.84747"/><trkpt lat="49.95877" lon="5.84767"/><trkpt lat="49.95867" lon="5.84772"/><trkpt lat="49.95836" lon="5.84782"/><trkpt lat="49.95747" lon="5.84779"/><trkpt lat="49.95708" lon="5.84805"/><trkpt lat="49.95698" lon="5.84832"/><trkpt lat="49.95694" lon="5.84892"/><trkpt lat="49.95687" lon="5.84914"/><trkpt lat="49.95626" lon="5.84969"/><trkpt lat="49.956" lon="5.85026"/><trkpt lat="49.95553" lon="5.85085"/><trkpt lat="49.95508" lon="5.85191"/><trkpt lat="49.95484" lon="5.85227"/><trkpt lat="49.95463" lon="5.85251"/><trkpt lat="49.95409" lon="5.85292"/><trkpt lat="49.95367" lon="5.85352"/><trkpt lat="49.95355" lon="5.8547"/><trkpt lat="49.95304" lon="5.85603"/><trkpt lat="49.95276" lon="5.85651"/><trkpt lat="49.95267" lon="5.85654"/><trkpt lat="49.95234" lon="5.85637"/><trkpt lat="49.95214" lon="5.85595"/><trkpt lat="49.95174" lon="5.85564"/><trkpt lat="49.95141" lon="5.85516"/></trkseg></trk>
</gpx>
