<?xml version="1.0" encoding="UTF-8"?>
<gpx version="1.1" creator="ian.lu/trails" xmlns="http://www.topografix.com/GPX/1/1">
<metadata><name>Auto-Pédestre Bettendorf</name><link href="https://ian.lu/trails/"/></metadata>
<trk><name>Auto-Pédestre Bettendorf</name><trkseg><trkpt lat="49.87556" lon="6.21747"/><trkpt lat="49.87474" lon="6.21788"/><trkpt lat="49.87436" lon="6.21718"/><trkpt lat="49.87399" lon="6.21733"/><trkpt lat="49.87376" lon="6.21735"/><trkpt lat="49.87352" lon="6.21751"/><trkpt lat="49.87271" lon="6.2178"/><trkpt lat="49.87272" lon="6.21794"/><trkpt lat="49.87239" lon="6.21808"/><trkpt lat="49.87223" lon="6.2183"/><trkpt lat="49.87236" lon="6.21957"/><trkpt lat="49.87326" lon="6.22322"/><trkpt lat="49.87389" lon="6.22536"/><trkpt lat="49.87434" lon="6.22659"/><trkpt lat="49.87453" lon="6.22735"/><trkpt lat="49.87461" lon="6.22837"/><trkpt lat="49.87462" lon="6.232"/><trkpt lat="49.87453" lon="6.23237"/><trkpt lat="49.87359" lon="6.23466"/><trkpt lat="49.87247" lon="6.23619"/><trkpt lat="49.87082" lon="6.23744"/><trkpt lat="49.86969" lon="6.23819"/><trkpt lat="49.86932" lon="6.23837"/><trkpt lat="49.8687" lon="6.23848"/><trkpt lat="49.86863" lon="6.23857"/><trkpt lat="49.8682" lon="6.23868"/><trkpt lat="49.86795" lon="6.23864"/><trkpt lat="49.86712" lon="6.23875"/><trkpt lat="49.86701" lon="6.23868"/><trkpt lat="49.86689" lon="6.23844"/><trkpt lat="49.86688" lon="6.23776"/><trkpt lat="49.86697" lon="6.23745"/><trkpt lat="49.8671" lon="6.2373"/><trkpt lat="49.86744" lon="6.23719"/><trkpt lat="49.86747" lon="6.23708"/><trkpt lat="49.86743" lon="6.23683"/><trkpt lat="49.86719" lon="6.23667"/><trkpt lat="49.86713" lon="6.23654"/><trkpt lat="49.86739" lon="6.23551"/><trkpt lat="49.8672" lon="6.23466"/><trkpt lat="49.86704" lon="6.23439"/><trkpt lat="49.86671" lon="6.23428"/><trkpt lat="49.86634" lon="6.23425"/><trkpt lat="49.86538" lon="6.23431"/><trkpt lat="49.86492" lon="6.2345"/><trkpt lat="49.86453" lon="6.23481"/><trkpt lat="49.864" lon="6.23501"/><trkpt lat="49.86305" lon="6.2355"/><trkpt lat="49.86282" lon="6.23554"/><trkpt lat="49.86271" lon="6.23545"/><trkpt lat="49.86252" lon="6.23411"/><trkpt lat="49.86234" lon="6.23373"/><trkpt lat="49.86139" lon="6.23228"/><trkpt lat="49.85971" lon="6.23026"/><trkpt lat="49.85884" lon="6.22977"/><trkpt lat="49.8585" lon="6.22973"/><trkpt lat="49.85843" lon="6.22966"/><trkpt lat="49.85635" lon="6.22502"/><trkpt lat="49.85374" lon="6.22055"/><trkpt lat="49.85303" lon="6.2185"/><trkpt lat="49.85315" lon="6.2166"/><trkpt lat="49.85322" lon="6.21623"/><trkpt lat="49.85338" lon="6.21594"/><trkpt lat="49.85365" lon="6.21578"/><trkpt lat="49.85518" lon="6.21562"/><trkpt lat="49.85605" lon="6.21533"/><trkpt lat="49.8565" lon="6.21545"/><trkpt lat="49.85715" lon="6.2154"/><trkpt lat="49.85649" lon="6.21263"/><trkpt lat="49.85656" lon="6.21166"/><trkpt lat="49.85702" lon="6.20988"/><trkpt lat="49.85692" lon="6.20883"/><trkpt lat="49.85671" lon="6.20764"/><trkpt lat="49.85667" lon="6.20626"/><trkpt lat="49.85684" lon="6.20462"/><trkpt lat="49.8567" lon="6.20293"/><trkpt lat="49.85657" lon="6.20209"/><trkpt lat="49.85663" lon="6.20193"/><trkpt lat="49.85694" lon="6.2019"/><trkpt lat="49.85704" lon="6.20172"/><trkpt lat="49.85678" lon="6.20101"/><trkpt lat="49.85672" lon="6.20045"/><trkpt lat="49.85656" lon="6.19983"/><trkpt lat="49.8562" lon="6.199"/><trkpt lat="49.85611" lon="6.19862"/><trkpt lat="49.85608" lon="6.19427"/><trkpt lat="49.85655" lon="6.1935"/><trkpt lat="49.85716" lon="6.1922"/><trkpt lat="49.85761" lon="6.19085"/><trkpt lat="49.85826" lon="6.19008"/><trkpt lat="49.85844" lon="6.18978"/><trkpt lat="49.85871" lon="6.18886"/><trkpt lat="49.86029" lon="6.18705"/><trkpt lat="49.86051" lon="6.1867"/><trkpt lat="49.86129" lon="6.18605"/><trkpt lat="49.86152" lon="6.18611"/><trkpt lat="49.86172" lon="6.18632"/><trkpt lat="49.86209" lon="6.1874"/><trkpt lat="49.8622" lon="6.1882"/><trkpt lat="49.86267" lon="6.18951"/><trkpt lat="49.86286" lon="6.18983"/><trkpt lat="49.8632" lon="6.19017"/><trkpt lat="49.86356" lon="6.19148"/><trkpt lat="49.864" lon="6.19356"/><trkpt lat="49.86424" lon="6.20002"/><trkpt lat="49.86456" lon="6.20325"/><trkpt lat="49.86454" lon="6.20352"/><trkpt lat="49.8644" lon="6.20368"/><trkpt lat="49.86452" lon="6.20379"/><trkpt lat="49.8646" lon="6.20411"/><trkpt lat="49.8648" lon="6.20434"/><trkpt lat="49.86474" lon="6.20494"/><trkpt lat="49.86483" lon="6.2054"/><trkpt lat="49.86477" lon="6.20615"/><trkpt lat="49.86464" lon="6.20649"/><trkpt lat="49.86425" lon="6.20675"/><trkpt lat="49.86387" lon="6.20682"/><trkpt lat="49.86377" lon="6.20669"/><trkpt lat="49.86371" lon="6.20688"/><trkpt lat="49.86381" lon="6.20846"/><trkpt lat="49.86391" lon="6.20857"/><trkpt lat="49.86412" lon="6.20858"/><trkpt lat="49.86456" lon="6.20842"/><trkpt lat="49.86507" lon="6.20836"/><trkpt lat="49.86525" lon="6.20849"/><trkpt lat="49.86752" lon="6.21182"/><trkpt lat="49.86803" lon="6.21296"/><trkpt lat="49.8684" lon="6.21421"/><trkpt lat="49.86967" lon="6.21606"/><trkpt lat="49.86994" lon="6.21731"/><trkpt lat="49.87016" lon="6.21737"/><trkpt lat="49.87056" lon="6.21726"/><trkpt lat="49.87061" lon="6.21733"/><trkpt lat="49.87091" lon="6.21713"/><trkpt lat="49.87122" lon="6.21708"/><trkpt lat="49.87185" lon="6.21725"/><trkpt lat="49.87208" lon="6.2174"/><trkpt lat="49.87211" lon="6.21733"/><trkpt lat="49.87246" lon="6.21765"/><trkpt lat="49.87269" lon="6.21767"/><trkpt lat="49.87272" lon="6.21781"/><trkpt lat="49.87353" lon="6.21751"/><trkpt lat="49.87376" lon="6.21735"/><trkpt lat="49.87399" lon="6.21733"/><trkpt lat="49.87436" lon="6.21718"/><trkpt lat="49.87474" lon="6.21789"/><trkpt lat="49.87556" lon="6.21747"/></trkseg></trk>
</gpx>
