<?xml version="1.0" encoding="UTF-8"?>
<gpx version="1.1" creator="ian.lu/trails" xmlns="http://www.topografix.com/GPX/1/1">
<metadata><name>Auto-Pédestre Betzdorf</name><link href="https://ian.lu/trails/"/></metadata>
<trk><name>Auto-Pédestre Betzdorf</name><trkseg><trkpt lat="49.68891" lon="6.34934"/><trkpt lat="49.68892" lon="6.34938"/><trkpt lat="49.68906" lon="6.34928"/><trkpt lat="49.68962" lon="6.34882"/><trkpt lat="49.69056" lon="6.34906"/><trkpt lat="49.69139" lon="6.34913"/><trkpt lat="49.6916" lon="6.34936"/><trkpt lat="49.69183" lon="6.34979"/><trkpt lat="49.69258" lon="6.35192"/><trkpt lat="49.69389" lon="6.35185"/><trkpt lat="49.69426" lon="6.35189"/><trkpt lat="49.69576" lon="6.35253"/><trkpt lat="49.69614" lon="6.35281"/><trkpt lat="49.69636" lon="6.3532"/><trkpt lat="49.69657" lon="6.35329"/><trkpt lat="49.69689" lon="6.35326"/><trkpt lat="49.69738" lon="6.35303"/><trkpt lat="49.6977" lon="6.35309"/><trkpt lat="49.69802" lon="6.35306"/><trkpt lat="49.69857" lon="6.35281"/><trkpt lat="49.69966" lon="6.35254"/><trkpt lat="49.70073" lon="6.35217"/><trkpt lat="49.70094" lon="6.35205"/><trkpt lat="49.70123" lon="6.35168"/><trkpt lat="49.70161" lon="6.3509"/><trkpt lat="49.70156" lon="6.35042"/><trkpt lat="49.70132" lon="6.34949"/><trkpt lat="49.70124" lon="6.34865"/><trkpt lat="49.70127" lon="6.34832"/><trkpt lat="49.70137" lon="6.34814"/><trkpt lat="49.70234" lon="6.34741"/><trkpt lat="49.70244" lon="6.3472"/><trkpt lat="49.7023" lon="6.34544"/><trkpt lat="49.7028" lon="6.34425"/><trkpt lat="49.70291" lon="6.34356"/><trkpt lat="49.70268" lon="6.34122"/><trkpt lat="49.70245" lon="6.34033"/><trkpt lat="49.70367" lon="6.33883"/><trkpt lat="49.70447" lon="6.33816"/><trkpt lat="49.70462" lon="6.33811"/><trkpt lat="49.70427" lon="6.33608"/><trkpt lat="49.70396" lon="6.3336"/><trkpt lat="49.70411" lon="6.33218"/><trkpt lat="49.70397" lon="6.33205"/><trkpt lat="49.70385" lon="6.33205"/><trkpt lat="49.70353" lon="6.3322"/><trkpt lat="49.70301" lon="6.33227"/><trkpt lat="49.70294" lon="6.33194"/><trkpt lat="49.70196" lon="6.33024"/><trkpt lat="49.70182" lon="6.3301"/><trkpt lat="49.69922" lon="6.32946"/><trkpt lat="49.6991" lon="6.3293"/><trkpt lat="49.69901" lon="6.32893"/><trkpt lat="49.69886" lon="6.32876"/><trkpt lat="49.69852" lon="6.3288"/><trkpt lat="49.69699" lon="6.32962"/><trkpt lat="49.69679" lon="6.32948"/><trkpt lat="49.69654" lon="6.32911"/><trkpt lat="49.69619" lon="6.32897"/><trkpt lat="49.69522" lon="6.32827"/><trkpt lat="49.6942" lon="6.32769"/><trkpt lat="49.69462" lon="6.32526"/><trkpt lat="49.69462" lon="6.32391"/><trkpt lat="49.69457" lon="6.32338"/><trkpt lat="49.69411" lon="6.3231"/><trkpt lat="49.69394" lon="6.32313"/><trkpt lat="49.69381" lon="6.32336"/><trkpt lat="49.6927" lon="6.32663"/><trkpt lat="49.69215" lon="6.32739"/><trkpt lat="49.69196" lon="6.32803"/><trkpt lat="49.69118" lon="6.32891"/><trkpt lat="49.69105" lon="6.32917"/><trkpt lat="49.69108" lon="6.32937"/><trkpt lat="49.69131" lon="6.32984"/><trkpt lat="49.69154" lon="6.33015"/><trkpt lat="49.6917" lon="6.33022"/><trkpt lat="49.69173" lon="6.33035"/><trkpt lat="49.69183" lon="6.33041"/><trkpt lat="49.69187" lon="6.33077"/><trkpt lat="49.69224" lon="6.33176"/><trkpt lat="49.6924" lon="6.33249"/><trkpt lat="49.6911" lon="6.33349"/><trkpt lat="49.69092" lon="6.33371"/><trkpt lat="49.69083" lon="6.33393"/><trkpt lat="49.69065" lon="6.33494"/><trkpt lat="49.69064" lon="6.3356"/><trkpt lat="49.69078" lon="6.33566"/><trkpt lat="49.69031" lon="6.33641"/><trkpt lat="49.68897" lon="6.3374"/><trkpt lat="49.68835" lon="6.33774"/><trkpt lat="49.68812" lon="6.33942"/><trkpt lat="49.68826" lon="6.34119"/><trkpt lat="49.68846" lon="6.3413"/><trkpt lat="49.6888" lon="6.34128"/><trkpt lat="49.68915" lon="6.34103"/><trkpt lat="49.68972" lon="6.34076"/><trkpt lat="49.69065" lon="6.34013"/><trkpt lat="49.69242" lon="6.34006"/><trkpt lat="49.69371" lon="6.33981"/><trkpt lat="49.69424" lon="6.33962"/><trkpt lat="49.6949" lon="6.33926"/><trkpt lat="49.69601" lon="6.33884"/><trkpt lat="49.69709" lon="6.33811"/><trkpt lat="49.69724" lon="6.33762"/><trkpt lat="49.69716" lon="6.33701"/><trkpt lat="49.69754" lon="6.33685"/><trkpt lat="49.69954" lon="6.33633"/><trkpt lat="49.7002" lon="6.33648"/><trkpt lat="49.70108" lon="6.33688"/><trkpt lat="49.70115" lon="6.33696"/><trkpt lat="49.70117" lon="6.33726"/><trkpt lat="49.70025" lon="6.33938"/><trkpt lat="49.69965" lon="6.34011"/><trkpt lat="49.69878" lon="6.34146"/><trkpt lat="49.69747" lon="6.34277"/><trkpt lat="49.6971" lon="6.34335"/><trkpt lat="49.69601" lon="6.34411"/><trkpt lat="49.69591" lon="6.34407"/><trkpt lat="49.69578" lon="6.34375"/><trkpt lat="49.69565" lon="6.34371"/><trkpt lat="49.69431" lon="6.34436"/><trkpt lat="49.69418" lon="6.344"/><trkpt lat="49.69411" lon="6.34396"/><trkpt lat="49.69286" lon="6.34475"/><trkpt lat="49.69238" lon="6.34496"/><trkpt lat="49.69203" lon="6.34537"/><trkpt lat="49.69159" lon="6.34606"/><trkpt lat="49.69091" lon="6.34755"/><trkpt lat="49.69058" lon="6.34787"/><trkpt lat="49.69" lon="6.34827"/><trkpt lat="49.68961" lon="6.3488"/><trkpt lat="49.68892" lon="6.34932"/></trkseg></trk>
</gpx>
