<?xml version="1.0" encoding="UTF-8"?>
<gpx version="1.1" creator="ian.lu/trails" xmlns="http://www.topografix.com/GPX/1/1">
<metadata><name>Auto-Pédestre Bigonville</name><link href="https://ian.lu/trails/"/></metadata>
<trk><name>Auto-Pédestre Bigonville</name><trkseg><trkpt lat="49.84896" lon="5.79151"/><trkpt lat="49.8497" lon="5.79156"/><trkpt lat="49.84969" lon="5.79144"/><trkpt lat="49.85" lon="5.79111"/><trkpt lat="49.85011" lon="5.79086"/><trkpt lat="49.85074" lon="5.78749"/><trkpt lat="49.851" lon="5.78681"/><trkpt lat="49.85157" lon="5.78586"/><trkpt lat="49.85166" lon="5.78555"/><trkpt lat="49.85205" lon="5.78323"/><trkpt lat="49.85204" lon="5.78257"/><trkpt lat="49.85194" lon="5.78192"/><trkpt lat="49.85162" lon="5.78106"/><trkpt lat="49.8513" lon="5.78049"/><trkpt lat="49.85118" lon="5.78011"/><trkpt lat="49.85114" lon="5.77963"/><trkpt lat="49.85121" lon="5.77847"/><trkpt lat="49.85115" lon="5.7768"/><trkpt lat="49.85143" lon="5.77648"/><trkpt lat="49.85242" lon="5.77488"/><trkpt lat="49.85339" lon="5.77242"/><trkpt lat="49.85381" lon="5.7719"/><trkpt lat="49.85431" lon="5.77157"/><trkpt lat="49.85484" lon="5.77136"/><trkpt lat="49.85522" lon="5.77134"/><trkpt lat="49.8557" lon="5.77222"/><trkpt lat="49.85696" lon="5.77497"/><trkpt lat="49.85718" lon="5.77519"/><trkpt lat="49.85744" lon="5.77505"/><trkpt lat="49.85756" lon="5.77511"/><trkpt lat="49.85808" lon="5.776"/><trkpt lat="49.85842" lon="5.77668"/><trkpt lat="49.8588" lon="5.77771"/><trkpt lat="49.8592" lon="5.77917"/><trkpt lat="49.85912" lon="5.77931"/><trkpt lat="49.85884" lon="5.77949"/><trkpt lat="49.85791" lon="5.77961"/><trkpt lat="49.85781" lon="5.77971"/><trkpt lat="49.85845" lon="5.7823"/><trkpt lat="49.85879" lon="5.78172"/><trkpt lat="49.85963" lon="5.7808"/><trkpt lat="49.85991" lon="5.78033"/><trkpt lat="49.86003" lon="5.77998"/><trkpt lat="49.86017" lon="5.7793"/><trkpt lat="49.86024" lon="5.77626"/><trkpt lat="49.86033" lon="5.77553"/><trkpt lat="49.86056" lon="5.7749"/><trkpt lat="49.86073" lon="5.77392"/><trkpt lat="49.86175" lon="5.77122"/><trkpt lat="49.86233" lon="5.76903"/><trkpt lat="49.86379" lon="5.76683"/><trkpt lat="49.86411" lon="5.7665"/><trkpt lat="49.86551" lon="5.76537"/><trkpt lat="49.86621" lon="5.76445"/><trkpt lat="49.86672" lon="5.76295"/><trkpt lat="49.86691" lon="5.76193"/><trkpt lat="49.86753" lon="5.75994"/><trkpt lat="49.86804" lon="5.75851"/><trkpt lat="49.86824" lon="5.75819"/><trkpt lat="49.8676" lon="5.757"/><trkpt lat="49.86736" lon="5.75701"/><trkpt lat="49.86707" lon="5.75725"/><trkpt lat="49.867" lon="5.75764"/><trkpt lat="49.86632" lon="5.75836"/><trkpt lat="49.86599" lon="5.75894"/><trkpt lat="49.86519" lon="5.75989"/><trkpt lat="49.8647" lon="5.7602"/><trkpt lat="49.86405" lon="5.76023"/><trkpt lat="49.86387" lon="5.76034"/><trkpt lat="49.86357" lon="5.7607"/><trkpt lat="49.86338" lon="5.76077"/><trkpt lat="49.86292" lon="5.76046"/><trkpt lat="49.86202" lon="5.76017"/><trkpt lat="49.86194" lon="5.76002"/><trkpt lat="49.86167" lon="5.76011"/><trkpt lat="49.86132" lon="5.7603"/><trkpt lat="49.86108" lon="5.76056"/><trkpt lat="49.86084" lon="5.76101"/><trkpt lat="49.86061" lon="5.76111"/><trkpt lat="49.86046" lon="5.76163"/><trkpt lat="49.86017" lon="5.76209"/><trkpt lat="49.86002" lon="5.76212"/><trkpt lat="49.85971" lon="5.76232"/><trkpt lat="49.85955" lon="5.76228"/><trkpt lat="49.85946" lon="5.76219"/><trkpt lat="49.85915" lon="5.76091"/><trkpt lat="49.85902" lon="5.76076"/><trkpt lat="49.85892" lon="5.76092"/><trkpt lat="49.85876" lon="5.76102"/><trkpt lat="49.8584" lon="5.76102"/><trkpt lat="49.85832" lon="5.76109"/><trkpt lat="49.85808" lon="5.7616"/><trkpt lat="49.85782" lon="5.76152"/><trkpt lat="49.85714" lon="5.76098"/><trkpt lat="49.85698" lon="5.76144"/><trkpt lat="49.85687" lon="5.76146"/><trkpt lat="49.85676" lon="5.76131"/><trkpt lat="49.85665" lon="5.76154"/><trkpt lat="49.85655" lon="5.76128"/><trkpt lat="49.85633" lon="5.76113"/><trkpt lat="49.85626" lon="5.76089"/><trkpt lat="49.85598" lon="5.76073"/><trkpt lat="49.85586" lon="5.76039"/><trkpt lat="49.85576" lon="5.76178"/><trkpt lat="49.85574" lon="5.76412"/><trkpt lat="49.85546" lon="5.76512"/><trkpt lat="49.85521" lon="5.76525"/><trkpt lat="49.85456" lon="5.76518"/><trkpt lat="49.85341" lon="5.76608"/><trkpt lat="49.85347" lon="5.76576"/><trkpt lat="49.85391" lon="5.76485"/><trkpt lat="49.85395" lon="5.76316"/><trkpt lat="49.85431" lon="5.76165"/><trkpt lat="49.85435" lon="5.76064"/><trkpt lat="49.85409" lon="5.75939"/><trkpt lat="49.8533" lon="5.7576"/><trkpt lat="49.85317" lon="5.75749"/><trkpt lat="49.85286" lon="5.75739"/><trkpt lat="49.85273" lon="5.75742"/><trkpt lat="49.85228" lon="5.76"/><trkpt lat="49.8519" lon="5.76158"/><trkpt lat="49.85141" lon="5.7625"/><trkpt lat="49.85117" lon="5.76275"/><trkpt lat="49.85087" lon="5.76289"/><trkpt lat="49.84998" lon="5.76279"/><trkpt lat="49.84959" lon="5.76296"/><trkpt lat="49.8493" lon="5.76326"/><trkpt lat="49.84872" lon="5.76435"/><trkpt lat="49.84831" lon="5.76483"/><trkpt lat="49.84782" lon="5.76518"/><trkpt lat="49.847" lon="5.76557"/><trkpt lat="49.84637" lon="5.76598"/><trkpt lat="49.84697" lon="5.76702"/><trkpt lat="49.84777" lon="5.76816"/><trkpt lat="49.84827" lon="5.76872"/><trkpt lat="49.84893" lon="5.76908"/><trkpt lat="49.84927" lon="5.76959"/><trkpt lat="49.84961" lon="5.77027"/><trkpt lat="49.84898" lon="5.77161"/><trkpt lat="49.84912" lon="5.77197"/><trkpt lat="49.84947" lon="5.77253"/><trkpt lat="49.84944" lon="5.77299"/><trkpt lat="49.84957" lon="5.77315"/><trkpt lat="49.8496" lon="5.77343"/><trkpt lat="49.84953" lon="5.77336"/><trkpt lat="49.84945" lon="5.77338"/><trkpt lat="49.84936" lon="5.77359"/><trkpt lat="49.84946" lon="5.77452"/><trkpt lat="49.84926" lon="5.77495"/><trkpt lat="49.848" lon="5.77577"/><trkpt lat="49.84702" lon="5.77697"/><trkpt lat="49.84673" lon="5.77713"/><trkpt lat="49.84651" lon="5.77686"/><trkpt lat="49.84638" lon="5.77685"/><trkpt lat="49.84548" lon="5.77783"/><trkpt lat="49.84508" lon="5.77863"/><trkpt lat="49.84467" lon="5.77984"/><trkpt lat="49.84431" lon="5.78145"/><trkpt lat="49.8442" lon="5.78274"/><trkpt lat="49.84417" lon="5.78278"/><trkpt lat="49.84392" lon="5.78268"/><trkpt lat="49.84379" lon="5.783"/><trkpt lat="49.84372" lon="5.78395"/><trkpt lat="49.84378" lon="5.78555"/><trkpt lat="49.84395" lon="5.78708"/><trkpt lat="49.84414" lon="5.78749"/><trkpt lat="49.84465" lon="5.78826"/><trkpt lat="49.84496" lon="5.78919"/><trkpt lat="49.84543" lon="5.79004"/><trkpt lat="49.84566" lon="5.79061"/><trkpt lat="49.84631" lon="5.79155"/><trkpt lat="49.84634" lon="5.79169"/><trkpt lat="49.84609" lon="5.79226"/><trkpt lat="49.84645" lon="5.79258"/><trkpt lat="49.84691" lon="5.79284"/><trkpt lat="49.84854" lon="5.79291"/><trkpt lat="49.84867" lon="5.79274"/><trkpt lat="49.84873" lon="5.79171"/><trkpt lat="49.84879" lon="5.79157"/><trkpt lat="49.84891" lon="5.79151"/></trkseg></trk>
</gpx>
