<?xml version="1.0" encoding="UTF-8"?>
<gpx version="1.1" creator="ian.lu/trails" xmlns="http://www.topografix.com/GPX/1/1">
<metadata><name>Auto-Pédestre Binsfeld</name><link href="https://ian.lu/trails/"/></metadata>
<trk><name>Auto-Pédestre Binsfeld</name><trkseg><trkpt lat="50.11736" lon="6.036"/><trkpt lat="50.1172" lon="6.03668"/><trkpt lat="50.11724" lon="6.03685"/><trkpt lat="50.11802" lon="6.03689"/><trkpt lat="50.11802" lon="6.03701"/><trkpt lat="50.11958" lon="6.037"/><trkpt lat="50.1197" lon="6.0372"/><trkpt lat="50.11959" lon="6.03827"/><trkpt lat="50.11973" lon="6.04014"/><trkpt lat="50.11899" lon="6.04008"/><trkpt lat="50.11892" lon="6.04166"/><trkpt lat="50.11839" lon="6.04392"/><trkpt lat="50.11833" lon="6.0469"/><trkpt lat="50.11849" lon="6.04774"/><trkpt lat="50.11815" lon="6.04801"/><trkpt lat="50.1174" lon="6.04836"/><trkpt lat="50.11707" lon="6.04829"/><trkpt lat="50.11672" lon="6.04795"/><trkpt lat="50.11657" lon="6.04795"/><trkpt lat="50.11647" lon="6.04825"/><trkpt lat="50.11651" lon="6.04906"/><trkpt lat="50.11578" lon="6.04811"/><trkpt lat="50.11533" lon="6.04773"/><trkpt lat="50.11508" lon="6.04761"/><trkpt lat="50.11456" lon="6.04752"/><trkpt lat="50.11435" lon="6.04755"/><trkpt lat="50.11414" lon="6.04766"/><trkpt lat="50.11417" lon="6.04776"/><trkpt lat="50.11434" lon="6.04789"/><trkpt lat="50.11422" lon="6.04856"/><trkpt lat="50.11406" lon="6.04878"/><trkpt lat="50.11369" lon="6.04898"/><trkpt lat="50.1133" lon="6.04902"/><trkpt lat="50.1125" lon="6.04861"/><trkpt lat="50.11241" lon="6.0487"/><trkpt lat="50.11223" lon="6.04931"/><trkpt lat="50.11173" lon="6.0484"/><trkpt lat="50.11119" lon="6.04601"/><trkpt lat="50.11105" lon="6.04769"/><trkpt lat="50.11074" lon="6.04645"/><trkpt lat="50.11054" lon="6.0464"/><trkpt lat="50.11048" lon="6.04645"/><trkpt lat="50.11019" lon="6.04627"/><trkpt lat="50.10975" lon="6.04616"/><trkpt lat="50.10907" lon="6.04578"/><trkpt lat="50.10866" lon="6.04535"/><trkpt lat="50.10758" lon="6.04395"/><trkpt lat="50.10702" lon="6.04346"/><trkpt lat="50.10646" lon="6.0435"/><trkpt lat="50.10605" lon="6.04375"/><trkpt lat="50.10683" lon="6.04257"/><trkpt lat="50.10641" lon="6.04182"/><trkpt lat="50.10627" lon="6.04174"/><trkpt lat="50.10458" lon="6.04138"/><trkpt lat="50.10429" lon="6.04125"/><trkpt lat="50.10408" lon="6.04104"/><trkpt lat="50.10381" lon="6.04039"/><trkpt lat="50.10327" lon="6.03744"/><trkpt lat="50.10195" lon="6.03556"/><trkpt lat="50.10162" lon="6.03464"/><trkpt lat="50.10144" lon="6.03367"/><trkpt lat="50.10094" lon="6.03294"/><trkpt lat="50.09999" lon="6.03214"/><trkpt lat="50.09952" lon="6.03147"/><trkpt lat="50.09906" lon="6.03169"/><trkpt lat="50.09867" lon="6.03215"/><trkpt lat="50.09831" lon="6.03231"/><trkpt lat="50.09822" lon="6.03215"/><trkpt lat="50.09825" lon="6.03204"/><trkpt lat="50.0988" lon="6.03131"/><trkpt lat="50.09891" lon="6.03105"/><trkpt lat="50.09891" lon="6.03059"/><trkpt lat="50.0988" lon="6.03015"/><trkpt lat="50.09852" lon="6.02952"/><trkpt lat="50.09817" lon="6.029"/><trkpt lat="50.09765" lon="6.02833"/><trkpt lat="50.09717" lon="6.02785"/><trkpt lat="50.09694" lon="6.02684"/><trkpt lat="50.09547" lon="6.02622"/><trkpt lat="50.09549" lon="6.02613"/><trkpt lat="50.09524" lon="6.02602"/><trkpt lat="50.09515" lon="6.02591"/><trkpt lat="50.0951" lon="6.02565"/><trkpt lat="50.09521" lon="6.02439"/><trkpt lat="50.09537" lon="6.0238"/><trkpt lat="50.09563" lon="6.02348"/><trkpt lat="50.09612" lon="6.02353"/><trkpt lat="50.0968" lon="6.02333"/><trkpt lat="50.09588" lon="6.02416"/><trkpt lat="50.09574" lon="6.02474"/><trkpt lat="50.09577" lon="6.02503"/><trkpt lat="50.09588" lon="6.02511"/><trkpt lat="50.09648" lon="6.02469"/><trkpt lat="50.09691" lon="6.02459"/><trkpt lat="50.09761" lon="6.02483"/><trkpt lat="50.09905" lon="6.02574"/><trkpt lat="50.09938" lon="6.02581"/><trkpt lat="50.10023" lon="6.02696"/><trkpt lat="50.10339" lon="6.02972"/><trkpt lat="50.10424" lon="6.03108"/><trkpt lat="50.105" lon="6.03176"/><trkpt lat="50.10543" lon="6.03238"/><trkpt lat="50.10572" lon="6.0324"/><trkpt lat="50.10647" lon="6.03204"/><trkpt lat="50.10696" lon="6.03199"/><trkpt lat="50.10859" lon="6.03157"/><trkpt lat="50.10941" lon="6.03124"/><trkpt lat="50.11068" lon="6.03142"/><trkpt lat="50.11138" lon="6.03143"/><trkpt lat="50.11186" lon="6.03133"/><trkpt lat="50.11221" lon="6.03107"/><trkpt lat="50.11361" lon="6.03255"/><trkpt lat="50.11498" lon="6.03359"/><trkpt lat="50.11518" lon="6.03395"/><trkpt lat="50.11545" lon="6.03477"/><trkpt lat="50.11591" lon="6.03572"/><trkpt lat="50.11589" lon="6.03584"/><trkpt lat="50.1165" lon="6.03678"/><trkpt lat="50.11677" lon="6.03695"/><trkpt lat="50.11705" lon="6.03688"/><trkpt lat="50.11724" lon="6.03656"/><trkpt lat="50.11734" lon="6.036"/></trkseg></trk>
</gpx>
