<?xml version="1.0" encoding="UTF-8"?>
<gpx version="1.1" creator="ian.lu/trails" xmlns="http://www.topografix.com/GPX/1/1">
<metadata><name>Auto-Pédestre Boevange</name><link href="https://ian.lu/trails/"/></metadata>
<trk><name>Auto-Pédestre Boevange</name><trkseg><trkpt lat="50.04603" lon="5.93252"/><trkpt lat="50.046" lon="5.93243"/><trkpt lat="50.04533" lon="5.93325"/><trkpt lat="50.04524" lon="5.93329"/><trkpt lat="50.04483" lon="5.93416"/><trkpt lat="50.04446" lon="5.93458"/><trkpt lat="50.04426" lon="5.93495"/><trkpt lat="50.044" lon="5.9357"/><trkpt lat="50.04315" lon="5.93662"/><trkpt lat="50.04264" lon="5.93753"/><trkpt lat="50.04221" lon="5.93882"/><trkpt lat="50.04183" lon="5.94127"/><trkpt lat="50.04146" lon="5.94199"/><trkpt lat="50.04133" lon="5.94247"/><trkpt lat="50.04129" lon="5.94289"/><trkpt lat="50.04138" lon="5.94318"/><trkpt lat="50.04272" lon="5.94525"/><trkpt lat="50.0429" lon="5.94605"/><trkpt lat="50.04352" lon="5.94728"/><trkpt lat="50.0436" lon="5.94767"/><trkpt lat="50.04352" lon="5.94823"/><trkpt lat="50.0434" lon="5.94837"/><trkpt lat="50.04244" lon="5.94899"/><trkpt lat="50.04055" lon="5.95047"/><trkpt lat="50.03938" lon="5.95122"/><trkpt lat="50.03864" lon="5.95097"/><trkpt lat="50.03798" lon="5.95057"/><trkpt lat="50.03704" lon="5.94946"/><trkpt lat="50.03676" lon="5.94902"/><trkpt lat="50.03644" lon="5.94833"/><trkpt lat="50.03529" lon="5.94441"/><trkpt lat="50.03332" lon="5.94052"/><trkpt lat="50.03306" lon="5.94034"/><trkpt lat="50.03287" lon="5.94032"/><trkpt lat="50.03221" lon="5.94065"/><trkpt lat="50.03199" lon="5.9407"/><trkpt lat="50.03164" lon="5.94066"/><trkpt lat="50.03107" lon="5.94048"/><trkpt lat="50.03031" lon="5.93982"/><trkpt lat="50.02998" lon="5.93922"/><trkpt lat="50.02935" lon="5.93892"/><trkpt lat="50.02887" lon="5.93852"/><trkpt lat="50.02795" lon="5.9375"/><trkpt lat="50.02768" lon="5.93679"/><trkpt lat="50.02737" lon="5.93544"/><trkpt lat="50.02663" lon="5.93428"/><trkpt lat="50.02642" lon="5.93427"/><trkpt lat="50.02596" lon="5.93464"/><trkpt lat="50.02509" lon="5.93485"/><trkpt lat="50.02465" lon="5.93532"/><trkpt lat="50.02373" lon="5.93539"/><trkpt lat="50.0234" lon="5.93523"/><trkpt lat="50.0229" lon="5.93435"/><trkpt lat="50.0228" lon="5.93402"/><trkpt lat="50.02297" lon="5.93374"/><trkpt lat="50.02376" lon="5.93299"/><trkpt lat="50.02413" lon="5.93253"/><trkpt lat="50.02454" lon="5.93176"/><trkpt lat="50.02479" lon="5.93105"/><trkpt lat="50.02525" lon="5.93028"/><trkpt lat="50.02604" lon="5.9294"/><trkpt lat="50.02644" lon="5.92939"/><trkpt lat="50.02694" lon="5.92966"/><trkpt lat="50.02755" lon="5.93011"/><trkpt lat="50.02824" lon="5.93075"/><trkpt lat="50.02889" lon="5.93105"/><trkpt lat="50.02904" lon="5.93104"/><trkpt lat="50.02951" lon="5.93078"/><trkpt lat="50.03063" lon="5.93069"/><trkpt lat="50.03112" lon="5.93041"/><trkpt lat="50.03185" lon="5.93042"/><trkpt lat="50.03273" lon="5.93104"/><trkpt lat="50.03324" lon="5.9313"/><trkpt lat="50.03439" lon="5.9316"/><trkpt lat="50.03471" lon="5.93179"/><trkpt lat="50.03715" lon="5.93427"/><trkpt lat="50.0381" lon="5.93573"/><trkpt lat="50.0387" lon="5.93684"/><trkpt lat="50.03886" lon="5.93754"/><trkpt lat="50.03882" lon="5.93891"/><trkpt lat="50.03896" lon="5.93938"/><trkpt lat="50.0393" lon="5.93971"/><trkpt lat="50.04023" lon="5.93992"/><trkpt lat="50.04064" lon="5.94128"/><trkpt lat="50.04078" lon="5.94147"/><trkpt lat="50.04098" lon="5.9415"/><trkpt lat="50.04181" lon="5.94134"/><trkpt lat="50.04224" lon="5.93867"/><trkpt lat="50.04264" lon="5.93753"/><trkpt lat="50.04315" lon="5.93662"/><trkpt lat="50.044" lon="5.9357"/><trkpt lat="50.04426" lon="5.93494"/><trkpt lat="50.04446" lon="5.93458"/><trkpt lat="50.04483" lon="5.93416"/><trkpt lat="50.04524" lon="5.93329"/><trkpt lat="50.04533" lon="5.93325"/><trkpt lat="50.046" lon="5.93243"/><trkpt lat="50.04603" lon="5.93252"/></trkseg></trk>
</gpx>
