<?xml version="1.0" encoding="UTF-8"?>
<gpx version="1.1" creator="ian.lu/trails" xmlns="http://www.topografix.com/GPX/1/1">
<metadata><name>Auto-Pédestre Bollendorf-Pont</name><link href="https://ian.lu/trails/"/></metadata>
<trk><name>Auto-Pédestre Bollendorf-Pont</name><trkseg><trkpt lat="49.84998" lon="6.358"/><trkpt lat="49.84979" lon="6.35759"/><trkpt lat="49.84971" lon="6.35758"/><trkpt lat="49.84947" lon="6.35809"/><trkpt lat="49.84937" lon="6.35815"/><trkpt lat="49.84922" lon="6.35838"/><trkpt lat="49.84905" lon="6.35888"/><trkpt lat="49.84839" lon="6.35955"/><trkpt lat="49.84755" lon="6.35942"/><trkpt lat="49.84723" lon="6.35925"/><trkpt lat="49.847" lon="6.35902"/><trkpt lat="49.84673" lon="6.3591"/><trkpt lat="49.84648" lon="6.35965"/><trkpt lat="49.84637" lon="6.35967"/><trkpt lat="49.84627" lon="6.35949"/><trkpt lat="49.84639" lon="6.35699"/><trkpt lat="49.84625" lon="6.35525"/><trkpt lat="49.84612" lon="6.3554"/><trkpt lat="49.84598" lon="6.35606"/><trkpt lat="49.84595" lon="6.35686"/><trkpt lat="49.84582" lon="6.35706"/><trkpt lat="49.84564" lon="6.35706"/><trkpt lat="49.84503" lon="6.35647"/><trkpt lat="49.84469" lon="6.35601"/><trkpt lat="49.84446" lon="6.3559"/><trkpt lat="49.84442" lon="6.35619"/><trkpt lat="49.84427" lon="6.35615"/><trkpt lat="49.84409" lon="6.35626"/><trkpt lat="49.84386" lon="6.35624"/><trkpt lat="49.84372" lon="6.35612"/><trkpt lat="49.84356" lon="6.35583"/><trkpt lat="49.84343" lon="6.35581"/><trkpt lat="49.84332" lon="6.35555"/><trkpt lat="49.84313" lon="6.35551"/><trkpt lat="49.84301" lon="6.35532"/><trkpt lat="49.84271" lon="6.35525"/><trkpt lat="49.84263" lon="6.35529"/><trkpt lat="49.84234" lon="6.35515"/><trkpt lat="49.84213" lon="6.35541"/><trkpt lat="49.84198" lon="6.35541"/><trkpt lat="49.84141" lon="6.35439"/><trkpt lat="49.84115" lon="6.35363"/><trkpt lat="49.84099" lon="6.3534"/><trkpt lat="49.84096" lon="6.35372"/><trkpt lat="49.84112" lon="6.35414"/><trkpt lat="49.8411" lon="6.35473"/><trkpt lat="49.84122" lon="6.3556"/><trkpt lat="49.84148" lon="6.35631"/><trkpt lat="49.84163" lon="6.35654"/><trkpt lat="49.84163" lon="6.35693"/><trkpt lat="49.84204" lon="6.3575"/><trkpt lat="49.84201" lon="6.35769"/><trkpt lat="49.8421" lon="6.35812"/><trkpt lat="49.84212" lon="6.35899"/><trkpt lat="49.84204" lon="6.35943"/><trkpt lat="49.84191" lon="6.35953"/><trkpt lat="49.84176" lon="6.36076"/><trkpt lat="49.8419" lon="6.36117"/><trkpt lat="49.84192" lon="6.36166"/><trkpt lat="49.84156" lon="6.36226"/><trkpt lat="49.84112" lon="6.36238"/><trkpt lat="49.84083" lon="6.36262"/><trkpt lat="49.84047" lon="6.36272"/><trkpt lat="49.83993" lon="6.36319"/><trkpt lat="49.83988" lon="6.36335"/><trkpt lat="49.83961" lon="6.36362"/><trkpt lat="49.83932" lon="6.36456"/><trkpt lat="49.83886" lon="6.36531"/><trkpt lat="49.83842" lon="6.36579"/><trkpt lat="49.83822" lon="6.36629"/><trkpt lat="49.83799" lon="6.36751"/><trkpt lat="49.83744" lon="6.36925"/><trkpt lat="49.83747" lon="6.37031"/><trkpt lat="49.83721" lon="6.37115"/><trkpt lat="49.83724" lon="6.37142"/><trkpt lat="49.83698" lon="6.37168"/><trkpt lat="49.83622" lon="6.37334"/><trkpt lat="49.83607" lon="6.37348"/><trkpt lat="49.83586" lon="6.37389"/><trkpt lat="49.83548" lon="6.37413"/><trkpt lat="49.83504" lon="6.37462"/><trkpt lat="49.83457" lon="6.37531"/><trkpt lat="49.83375" lon="6.37617"/><trkpt lat="49.83287" lon="6.37686"/><trkpt lat="49.83236" lon="6.37749"/><trkpt lat="49.83203" lon="6.37761"/><trkpt lat="49.83138" lon="6.3789"/><trkpt lat="49.83119" lon="6.37976"/><trkpt lat="49.83104" lon="6.38001"/><trkpt lat="49.83068" lon="6.3803"/><trkpt lat="49.83029" lon="6.38033"/><trkpt lat="49.83034" lon="6.38094"/><trkpt lat="49.83019" lon="6.38167"/><trkpt lat="49.8303" lon="6.38175"/><trkpt lat="49.83057" lon="6.38142"/><trkpt lat="49.83071" lon="6.3815"/><trkpt lat="49.83091" lon="6.38192"/><trkpt lat="49.83088" lon="6.38203"/><trkpt lat="49.83055" lon="6.3823"/><trkpt lat="49.83056" lon="6.38247"/><trkpt lat="49.83071" lon="6.38258"/><trkpt lat="49.83075" lon="6.38296"/><trkpt lat="49.8306" lon="6.38334"/><trkpt lat="49.83064" lon="6.38337"/><trkpt lat="49.83083" lon="6.38316"/><trkpt lat="49.83096" lon="6.38289"/><trkpt lat="49.83103" lon="6.38292"/><trkpt lat="49.8312" lon="6.38279"/><trkpt lat="49.83132" lon="6.38286"/><trkpt lat="49.83166" lon="6.38272"/><trkpt lat="49.8318" lon="6.38295"/><trkpt lat="49.83179" lon="6.38319"/><trkpt lat="49.83163" lon="6.38352"/><trkpt lat="49.83163" lon="6.38368"/><trkpt lat="49.83134" lon="6.38432"/><trkpt lat="49.83115" lon="6.38556"/><trkpt lat="49.83085" lon="6.38644"/><trkpt lat="49.8308" lon="6.38677"/><trkpt lat="49.83087" lon="6.38689"/><trkpt lat="49.83269" lon="6.38405"/><trkpt lat="49.833" lon="6.38379"/><trkpt lat="49.83349" lon="6.38352"/><trkpt lat="49.83385" lon="6.38457"/><trkpt lat="49.83434" lon="6.38401"/><trkpt lat="49.83596" lon="6.38258"/><trkpt lat="49.8365" lon="6.38198"/><trkpt lat="49.83725" lon="6.38106"/><trkpt lat="49.83775" lon="6.37986"/><trkpt lat="49.83815" lon="6.37936"/><trkpt lat="49.83914" lon="6.37877"/><trkpt lat="49.84011" lon="6.378"/><trkpt lat="49.84045" lon="6.37746"/><trkpt lat="49.8406" lon="6.37678"/><trkpt lat="49.8418" lon="6.37423"/><trkpt lat="49.84268" lon="6.3729"/><trkpt lat="49.84305" lon="6.37258"/><trkpt lat="49.84321" lon="6.37281"/><trkpt lat="49.84374" lon="6.37221"/><trkpt lat="49.84397" lon="6.37186"/><trkpt lat="49.84503" lon="6.37124"/><trkpt lat="49.84669" lon="6.36939"/><trkpt lat="49.84802" lon="6.3681"/><trkpt lat="49.84817" lon="6.3681"/><trkpt lat="49.84996" lon="6.36662"/><trkpt lat="49.85018" lon="6.36616"/><trkpt lat="49.85027" lon="6.36579"/><trkpt lat="49.85089" lon="6.36459"/><trkpt lat="49.85105" lon="6.36411"/><trkpt lat="49.85118" lon="6.36298"/><trkpt lat="49.85126" lon="6.36296"/><trkpt lat="49.85126" lon="6.36281"/><trkpt lat="49.85123" lon="6.35839"/><trkpt lat="49.85114" lon="6.3583"/><trkpt lat="49.85045" lon="6.35832"/><trkpt lat="49.85025" lon="6.35835"/><trkpt lat="49.85018" lon="6.3585"/><trkpt lat="49.8501" lon="6.35853"/><trkpt lat="49.84998" lon="6.35803"/></trkseg></trk>
</gpx>
