<?xml version="1.0" encoding="UTF-8"?>
<gpx version="1.1" creator="ian.lu/trails" xmlns="http://www.topografix.com/GPX/1/1">
<metadata><name>Auto-Pédestre Bourscheid</name><link href="https://ian.lu/trails/"/></metadata>
<trk><name>Auto-Pédestre Bourscheid</name><trkseg><trkpt lat="49.90988" lon="6.06454"/><trkpt lat="49.90939" lon="6.06305"/><trkpt lat="49.9101" lon="6.06267"/><trkpt lat="49.9099" lon="6.06109"/><trkpt lat="49.91001" lon="6.06075"/><trkpt lat="49.91031" lon="6.06052"/><trkpt lat="49.91099" lon="6.06033"/><trkpt lat="49.91102" lon="6.05972"/><trkpt lat="49.91206" lon="6.05958"/><trkpt lat="49.91323" lon="6.05851"/><trkpt lat="49.91409" lon="6.05834"/><trkpt lat="49.91443" lon="6.05745"/><trkpt lat="49.91456" lon="6.05634"/><trkpt lat="49.91444" lon="6.05584"/><trkpt lat="49.91393" lon="6.05507"/><trkpt lat="49.91396" lon="6.0547"/><trkpt lat="49.91405" lon="6.05455"/><trkpt lat="49.91429" lon="6.05444"/><trkpt lat="49.91516" lon="6.05432"/><trkpt lat="49.91484" lon="6.05463"/><trkpt lat="49.91485" lon="6.05478"/><trkpt lat="49.91586" lon="6.0554"/><trkpt lat="49.91601" lon="6.05558"/><trkpt lat="49.91602" lon="6.05709"/><trkpt lat="49.91656" lon="6.0589"/><trkpt lat="49.9165" lon="6.05909"/><trkpt lat="49.91582" lon="6.05977"/><trkpt lat="49.91577" lon="6.05998"/><trkpt lat="49.91634" lon="6.06035"/><trkpt lat="49.91721" lon="6.06061"/><trkpt lat="49.91764" lon="6.06085"/><trkpt lat="49.91778" lon="6.06109"/><trkpt lat="49.91826" lon="6.06248"/><trkpt lat="49.91912" lon="6.06386"/><trkpt lat="49.91918" lon="6.06449"/><trkpt lat="49.91902" lon="6.06687"/><trkpt lat="49.91918" lon="6.06762"/><trkpt lat="49.91935" lon="6.06806"/><trkpt lat="49.91945" lon="6.06813"/><trkpt lat="49.91948" lon="6.06789"/><trkpt lat="49.91951" lon="6.06801"/><trkpt lat="49.91943" lon="6.0682"/><trkpt lat="49.91908" lon="6.06833"/><trkpt lat="49.91883" lon="6.06855"/><trkpt lat="49.91822" lon="6.06928"/><trkpt lat="49.91813" lon="6.06948"/><trkpt lat="49.91797" lon="6.06946"/><trkpt lat="49.91786" lon="6.06955"/><trkpt lat="49.91768" lon="6.07026"/><trkpt lat="49.91723" lon="6.07124"/><trkpt lat="49.91716" lon="6.07131"/><trkpt lat="49.91695" lon="6.07128"/><trkpt lat="49.91676" lon="6.07142"/><trkpt lat="49.91629" lon="6.07285"/><trkpt lat="49.91602" lon="6.07357"/><trkpt lat="49.91588" lon="6.07374"/><trkpt lat="49.9149" lon="6.07426"/><trkpt lat="49.91421" lon="6.07445"/><trkpt lat="49.91368" lon="6.07449"/><trkpt lat="49.91352" lon="6.07435"/><trkpt lat="49.9134" lon="6.07409"/><trkpt lat="49.91305" lon="6.07276"/><trkpt lat="49.91292" lon="6.07254"/><trkpt lat="49.91266" lon="6.07338"/><trkpt lat="49.91238" lon="6.07369"/><trkpt lat="49.91204" lon="6.07394"/><trkpt lat="49.91098" lon="6.0743"/><trkpt lat="49.91079" lon="6.07427"/><trkpt lat="49.91044" lon="6.07408"/><trkpt lat="49.91017" lon="6.07409"/><trkpt lat="49.90984" lon="6.0742"/><trkpt lat="49.90954" lon="6.07459"/><trkpt lat="49.90919" lon="6.07449"/><trkpt lat="49.90864" lon="6.07457"/><trkpt lat="49.90815" lon="6.07479"/><trkpt lat="49.90798" lon="6.07504"/><trkpt lat="49.90756" lon="6.07513"/><trkpt lat="49.90736" lon="6.07526"/><trkpt lat="49.90716" lon="6.07546"/><trkpt lat="49.90613" lon="6.0776"/><trkpt lat="49.90633" lon="6.07677"/><trkpt lat="49.90641" lon="6.07464"/><trkpt lat="49.9069" lon="6.07249"/><trkpt lat="49.9074" lon="6.07115"/><trkpt lat="49.90753" lon="6.07114"/><trkpt lat="49.90773" lon="6.07043"/><trkpt lat="49.90832" lon="6.06919"/><trkpt lat="49.90867" lon="6.06826"/><trkpt lat="49.90934" lon="6.06535"/><trkpt lat="49.90943" lon="6.0653"/><trkpt lat="49.9095" lon="6.06542"/><trkpt lat="49.90964" lon="6.06532"/><trkpt lat="49.9097" lon="6.06489"/><trkpt lat="49.90988" lon="6.06454"/></trkseg></trk>
</gpx>
