<?xml version="1.0" encoding="UTF-8"?>
<gpx version="1.1" creator="ian.lu/trails" xmlns="http://www.topografix.com/GPX/1/1">
<metadata><name>Auto-Pédestre Brouch</name><link href="https://ian.lu/trails/"/></metadata>
<trk><name>Auto-Pédestre Brouch</name><trkseg><trkpt lat="49.73525" lon="6.02057"/><trkpt lat="49.73537" lon="6.02085"/><trkpt lat="49.73542" lon="6.02081"/><trkpt lat="49.73549" lon="6.02089"/><trkpt lat="49.73689" lon="6.02061"/><trkpt lat="49.73706" lon="6.02049"/><trkpt lat="49.73738" lon="6.02206"/><trkpt lat="49.73801" lon="6.02166"/><trkpt lat="49.73816" lon="6.0214"/><trkpt lat="49.73863" lon="6.02111"/><trkpt lat="49.73871" lon="6.02137"/><trkpt lat="49.73899" lon="6.02121"/><trkpt lat="49.73946" lon="6.02019"/><trkpt lat="49.73959" lon="6.02009"/><trkpt lat="49.7397" lon="6.02011"/><trkpt lat="49.73992" lon="6.02035"/><trkpt lat="49.74018" lon="6.02095"/><trkpt lat="49.74111" lon="6.02034"/><trkpt lat="49.74166" lon="6.02073"/><trkpt lat="49.74188" lon="6.02042"/><trkpt lat="49.742" lon="6.02088"/><trkpt lat="49.74216" lon="6.02107"/><trkpt lat="49.7422" lon="6.02067"/><trkpt lat="49.7423" lon="6.02092"/><trkpt lat="49.7423" lon="6.02068"/><trkpt lat="49.74242" lon="6.02047"/><trkpt lat="49.74259" lon="6.02038"/><trkpt lat="49.74282" lon="6.02038"/><trkpt lat="49.7429" lon="6.0206"/><trkpt lat="49.74299" lon="6.02256"/><trkpt lat="49.7431" lon="6.02245"/><trkpt lat="49.7434" lon="6.02232"/><trkpt lat="49.7435" lon="6.02216"/><trkpt lat="49.74382" lon="6.02081"/><trkpt lat="49.74375" lon="6.0196"/><trkpt lat="49.744" lon="6.02004"/><trkpt lat="49.74416" lon="6.02044"/><trkpt lat="49.74435" lon="6.02163"/><trkpt lat="49.74438" lon="6.0223"/><trkpt lat="49.74432" lon="6.0228"/><trkpt lat="49.74408" lon="6.02305"/><trkpt lat="49.74407" lon="6.02318"/><trkpt lat="49.74427" lon="6.02421"/><trkpt lat="49.74457" lon="6.02509"/><trkpt lat="49.74486" lon="6.02631"/><trkpt lat="49.74498" lon="6.02702"/><trkpt lat="49.74499" lon="6.0274"/><trkpt lat="49.74477" lon="6.02794"/><trkpt lat="49.74402" lon="6.03083"/><trkpt lat="49.74301" lon="6.03218"/><trkpt lat="49.74292" lon="6.03238"/><trkpt lat="49.74262" lon="6.03242"/><trkpt lat="49.74238" lon="6.03295"/><trkpt lat="49.74082" lon="6.03489"/><trkpt lat="49.74039" lon="6.03711"/><trkpt lat="49.74019" lon="6.03866"/><trkpt lat="49.73971" lon="6.0394"/><trkpt lat="49.73968" lon="6.03995"/><trkpt lat="49.73882" lon="6.04066"/><trkpt lat="49.73916" lon="6.04126"/><trkpt lat="49.73953" lon="6.04155"/><trkpt lat="49.73969" lon="6.04134"/><trkpt lat="49.74023" lon="6.04227"/><trkpt lat="49.74083" lon="6.04359"/><trkpt lat="49.74113" lon="6.04396"/><trkpt lat="49.74137" lon="6.04489"/><trkpt lat="49.74184" lon="6.04614"/><trkpt lat="49.74197" lon="6.0471"/><trkpt lat="49.74195" lon="6.04759"/><trkpt lat="49.74181" lon="6.04792"/><trkpt lat="49.7416" lon="6.04811"/><trkpt lat="49.74081" lon="6.04842"/><trkpt lat="49.74048" lon="6.04871"/><trkpt lat="49.74011" lon="6.04951"/><trkpt lat="49.73989" lon="6.05064"/><trkpt lat="49.73879" lon="6.05243"/><trkpt lat="49.73879" lon="6.0521"/><trkpt lat="49.73864" lon="6.05177"/><trkpt lat="49.73765" lon="6.05073"/><trkpt lat="49.73689" lon="6.05024"/><trkpt lat="49.73624" lon="6.04938"/><trkpt lat="49.73484" lon="6.04858"/><trkpt lat="49.73332" lon="6.0474"/><trkpt lat="49.73218" lon="6.0456"/><trkpt lat="49.7319" lon="6.04503"/><trkpt lat="49.73186" lon="6.04445"/><trkpt lat="49.7322" lon="6.04373"/><trkpt lat="49.73158" lon="6.04439"/><trkpt lat="49.73099" lon="6.04564"/><trkpt lat="49.73051" lon="6.04614"/><trkpt lat="49.7302" lon="6.04464"/><trkpt lat="49.73013" lon="6.0435"/><trkpt lat="49.72983" lon="6.04261"/><trkpt lat="49.72953" lon="6.04262"/><trkpt lat="49.72909" lon="6.04288"/><trkpt lat="49.72898" lon="6.04362"/><trkpt lat="49.7288" lon="6.0442"/><trkpt lat="49.72863" lon="6.04453"/><trkpt lat="49.72836" lon="6.04458"/><trkpt lat="49.72837" lon="6.04126"/><trkpt lat="49.72838" lon="6.04139"/><trkpt lat="49.72852" lon="6.04138"/><trkpt lat="49.72884" lon="6.04075"/><trkpt lat="49.72974" lon="6.03991"/><trkpt lat="49.73032" lon="6.0398"/><trkpt lat="49.73089" lon="6.03954"/><trkpt lat="49.7313" lon="6.03885"/><trkpt lat="49.73189" lon="6.03827"/><trkpt lat="49.73206" lon="6.03821"/><trkpt lat="49.7324" lon="6.03829"/><trkpt lat="49.73247" lon="6.03822"/><trkpt lat="49.73242" lon="6.03757"/><trkpt lat="49.7326" lon="6.03727"/><trkpt lat="49.73257" lon="6.03638"/><trkpt lat="49.73316" lon="6.03533"/><trkpt lat="49.7331" lon="6.0345"/><trkpt lat="49.73283" lon="6.0337"/><trkpt lat="49.73277" lon="6.03307"/><trkpt lat="49.73314" lon="6.03177"/><trkpt lat="49.7333" lon="6.03006"/><trkpt lat="49.73375" lon="6.02834"/><trkpt lat="49.73398" lon="6.02799"/><trkpt lat="49.73439" lon="6.0276"/><trkpt lat="49.73462" lon="6.02751"/><trkpt lat="49.73481" lon="6.02752"/><trkpt lat="49.73515" lon="6.02764"/><trkpt lat="49.73642" lon="6.02864"/><trkpt lat="49.73682" lon="6.0287"/><trkpt lat="49.73698" lon="6.02857"/><trkpt lat="49.73704" lon="6.02843"/><trkpt lat="49.73738" lon="6.02733"/><trkpt lat="49.73682" lon="6.02477"/><trkpt lat="49.73525" lon="6.02061"/></trkseg></trk>
</gpx>
