<?xml version="1.0" encoding="UTF-8"?>
<gpx version="1.1" creator="ian.lu/trails" xmlns="http://www.topografix.com/GPX/1/1">
<metadata><name>Auto-Pédestre Büderscheid</name><link href="https://ian.lu/trails/"/></metadata>
<trk><name>Auto-Pédestre Büderscheid</name><trkseg><trkpt lat="49.93453" lon="5.93663"/><trkpt lat="49.93447" lon="5.93663"/><trkpt lat="49.93453" lon="5.93601"/><trkpt lat="49.93488" lon="5.93537"/><trkpt lat="49.93509" lon="5.93434"/><trkpt lat="49.93518" lon="5.93326"/><trkpt lat="49.93532" lon="5.93248"/><trkpt lat="49.93541" lon="5.93021"/><trkpt lat="49.93553" lon="5.92957"/><trkpt lat="49.9357" lon="5.92912"/><trkpt lat="49.93614" lon="5.92904"/><trkpt lat="49.93645" lon="5.92889"/><trkpt lat="49.93678" lon="5.92853"/><trkpt lat="49.93695" lon="5.92816"/><trkpt lat="49.93719" lon="5.92586"/><trkpt lat="49.93747" lon="5.92465"/><trkpt lat="49.93781" lon="5.92367"/><trkpt lat="49.93837" lon="5.92264"/><trkpt lat="49.93863" lon="5.92238"/><trkpt lat="49.93939" lon="5.92193"/><trkpt lat="49.9401" lon="5.92183"/><trkpt lat="49.94041" lon="5.92099"/><trkpt lat="49.94104" lon="5.91992"/><trkpt lat="49.94173" lon="5.91909"/><trkpt lat="49.94245" lon="5.91836"/><trkpt lat="49.94272" lon="5.91791"/><trkpt lat="49.94315" lon="5.91774"/><trkpt lat="49.94385" lon="5.91766"/><trkpt lat="49.94432" lon="5.9178"/><trkpt lat="49.94488" lon="5.91827"/><trkpt lat="49.94566" lon="5.91912"/><trkpt lat="49.94625" lon="5.91988"/><trkpt lat="49.94665" lon="5.92014"/><trkpt lat="49.9472" lon="5.92034"/><trkpt lat="49.94627" lon="5.92187"/><trkpt lat="49.94627" lon="5.92214"/><trkpt lat="49.94662" lon="5.92393"/><trkpt lat="49.94658" lon="5.92421"/><trkpt lat="49.94644" lon="5.92447"/><trkpt lat="49.94594" lon="5.92483"/><trkpt lat="49.94514" lon="5.92525"/><trkpt lat="49.94453" lon="5.92621"/><trkpt lat="49.94399" lon="5.92675"/><trkpt lat="49.94358" lon="5.92753"/><trkpt lat="49.94345" lon="5.92767"/><trkpt lat="49.94315" lon="5.9278"/><trkpt lat="49.94209" lon="5.92803"/><trkpt lat="49.94195" lon="5.92811"/><trkpt lat="49.94172" lon="5.92845"/><trkpt lat="49.94097" lon="5.92891"/><trkpt lat="49.93996" lon="5.93024"/><trkpt lat="49.93923" lon="5.93181"/><trkpt lat="49.93905" lon="5.93184"/><trkpt lat="49.93888" lon="5.93196"/><trkpt lat="49.93871" lon="5.93196"/><trkpt lat="49.93805" lon="5.93236"/><trkpt lat="49.93745" lon="5.93276"/><trkpt lat="49.93696" lon="5.9333"/><trkpt lat="49.93697" lon="5.93304"/><trkpt lat="49.93678" lon="5.93343"/><trkpt lat="49.9361" lon="5.93599"/><trkpt lat="49.93607" lon="5.93663"/><trkpt lat="49.93616" lon="5.93674"/><trkpt lat="49.93612" lon="5.93688"/><trkpt lat="49.93607" lon="5.93691"/><trkpt lat="49.93583" lon="5.93625"/><trkpt lat="49.93575" lon="5.93618"/><trkpt lat="49.93553" lon="5.93624"/><trkpt lat="49.9353" lon="5.93645"/><trkpt lat="49.93506" lon="5.93727"/><trkpt lat="49.93502" lon="5.93725"/><trkpt lat="49.93507" lon="5.93674"/><trkpt lat="49.93501" lon="5.93657"/><trkpt lat="49.93463" lon="5.93641"/><trkpt lat="49.93453" lon="5.93663"/></trkseg></trk>
</gpx>
