<?xml version="1.0" encoding="UTF-8"?>
<gpx version="1.1" creator="ian.lu/trails" xmlns="http://www.topografix.com/GPX/1/1">
<metadata><name>Auto-Pédestre Buschdorf</name><link href="https://ian.lu/trails/"/></metadata>
<trk><name>Auto-Pédestre Buschdorf</name><trkseg><trkpt lat="49.75074" lon="6.0074"/><trkpt lat="49.75068" lon="6.00739"/><trkpt lat="49.75058" lon="6.00814"/><trkpt lat="49.75066" lon="6.00955"/><trkpt lat="49.75072" lon="6.01"/><trkpt lat="49.75102" lon="6.01119"/><trkpt lat="49.75149" lon="6.01538"/><trkpt lat="49.75165" lon="6.01563"/><trkpt lat="49.75176" lon="6.0161"/><trkpt lat="49.75162" lon="6.01827"/><trkpt lat="49.75186" lon="6.01872"/><trkpt lat="49.75212" lon="6.01972"/><trkpt lat="49.75201" lon="6.02054"/><trkpt lat="49.75154" lon="6.0219"/><trkpt lat="49.75148" lon="6.02226"/><trkpt lat="49.75149" lon="6.02283"/><trkpt lat="49.75158" lon="6.02325"/><trkpt lat="49.7521" lon="6.02438"/><trkpt lat="49.75221" lon="6.02564"/><trkpt lat="49.75234" lon="6.02613"/><trkpt lat="49.75259" lon="6.02678"/><trkpt lat="49.75289" lon="6.02731"/><trkpt lat="49.75314" lon="6.02751"/><trkpt lat="49.75356" lon="6.02816"/><trkpt lat="49.75382" lon="6.02834"/><trkpt lat="49.75413" lon="6.02815"/><trkpt lat="49.75447" lon="6.02816"/><trkpt lat="49.75463" lon="6.0281"/><trkpt lat="49.75596" lon="6.02701"/><trkpt lat="49.75611" lon="6.02697"/><trkpt lat="49.7564" lon="6.02708"/><trkpt lat="49.75665" lon="6.02731"/><trkpt lat="49.75682" lon="6.02799"/><trkpt lat="49.75742" lon="6.0294"/><trkpt lat="49.75763" lon="6.02955"/><trkpt lat="49.75794" lon="6.03022"/><trkpt lat="49.75817" lon="6.03058"/><trkpt lat="49.75837" lon="6.03075"/><trkpt lat="49.75873" lon="6.03134"/><trkpt lat="49.75884" lon="6.03179"/><trkpt lat="49.75897" lon="6.03204"/><trkpt lat="49.75895" lon="6.03213"/><trkpt lat="49.75917" lon="6.03235"/><trkpt lat="49.7588" lon="6.03239"/><trkpt lat="49.75897" lon="6.03251"/><trkpt lat="49.75875" lon="6.03258"/><trkpt lat="49.759" lon="6.03273"/><trkpt lat="49.75898" lon="6.03279"/><trkpt lat="49.75855" lon="6.03262"/><trkpt lat="49.75775" lon="6.03244"/><trkpt lat="49.75693" lon="6.032"/><trkpt lat="49.75667" lon="6.03171"/><trkpt lat="49.75628" lon="6.03174"/><trkpt lat="49.75602" lon="6.03196"/><trkpt lat="49.756" lon="6.03223"/><trkpt lat="49.75565" lon="6.03215"/><trkpt lat="49.75552" lon="6.03202"/><trkpt lat="49.75534" lon="6.0321"/><trkpt lat="49.755" lon="6.03273"/><trkpt lat="49.75475" lon="6.03356"/><trkpt lat="49.75462" lon="6.03373"/><trkpt lat="49.75448" lon="6.03375"/><trkpt lat="49.75432" lon="6.03358"/><trkpt lat="49.75426" lon="6.03343"/><trkpt lat="49.75425" lon="6.03284"/><trkpt lat="49.75409" lon="6.03232"/><trkpt lat="49.75391" lon="6.032"/><trkpt lat="49.75378" lon="6.03187"/><trkpt lat="49.75288" lon="6.03149"/><trkpt lat="49.75239" lon="6.03196"/><trkpt lat="49.75213" lon="6.03211"/><trkpt lat="49.75174" lon="6.03291"/><trkpt lat="49.75135" lon="6.03351"/><trkpt lat="49.75196" lon="6.03353"/><trkpt lat="49.75237" lon="6.03366"/><trkpt lat="49.75272" lon="6.03389"/><trkpt lat="49.75338" lon="6.03449"/><trkpt lat="49.75399" lon="6.03489"/><trkpt lat="49.75497" lon="6.03533"/><trkpt lat="49.75475" lon="6.03542"/><trkpt lat="49.75482" lon="6.03551"/><trkpt lat="49.75538" lon="6.03558"/><trkpt lat="49.75606" lon="6.03595"/><trkpt lat="49.75628" lon="6.03631"/><trkpt lat="49.75686" lon="6.03779"/><trkpt lat="49.75728" lon="6.03806"/><trkpt lat="49.75768" lon="6.03925"/><trkpt lat="49.75784" lon="6.03939"/><trkpt lat="49.75799" lon="6.03941"/><trkpt lat="49.75893" lon="6.03886"/><trkpt lat="49.75906" lon="6.03869"/><trkpt lat="49.75918" lon="6.03817"/><trkpt lat="49.75932" lon="6.03638"/><trkpt lat="49.75944" lon="6.03579"/><trkpt lat="49.75941" lon="6.03567"/><trkpt lat="49.75974" lon="6.0345"/><trkpt lat="49.75962" lon="6.03403"/><trkpt lat="49.7603" lon="6.03351"/><trkpt lat="49.7608" lon="6.0328"/><trkpt lat="49.75955" lon="6.02924"/><trkpt lat="49.75906" lon="6.02834"/><trkpt lat="49.75881" lon="6.02709"/><trkpt lat="49.75813" lon="6.02488"/><trkpt lat="49.758" lon="6.02465"/><trkpt lat="49.75744" lon="6.02392"/><trkpt lat="49.75651" lon="6.02305"/><trkpt lat="49.75582" lon="6.02224"/><trkpt lat="49.75519" lon="6.0217"/><trkpt lat="49.75483" lon="6.02057"/><trkpt lat="49.75447" lon="6.02012"/><trkpt lat="49.75364" lon="6.01927"/><trkpt lat="49.75293" lon="6.01518"/><trkpt lat="49.75248" lon="6.01473"/><trkpt lat="49.75216" lon="6.01469"/><trkpt lat="49.75185" lon="6.01493"/><trkpt lat="49.75151" lon="6.01533"/><trkpt lat="49.75105" lon="6.01117"/><trkpt lat="49.75075" lon="6.01"/><trkpt lat="49.75069" lon="6.00955"/><trkpt lat="49.75062" lon="6.00814"/><trkpt lat="49.75069" lon="6.00751"/><trkpt lat="49.75075" lon="6.00743"/></trkseg></trk>
</gpx>
