<?xml version="1.0" encoding="UTF-8"?>
<gpx version="1.1" creator="ian.lu/trails" xmlns="http://www.topografix.com/GPX/1/1">
<metadata><name>Auto-Pédestre Canach</name><link href="https://ian.lu/trails/"/></metadata>
<trk><name>Auto-Pédestre Canach</name><trkseg><trkpt lat="49.61076" lon="6.32468"/><trkpt lat="49.61088" lon="6.32504"/><trkpt lat="49.61108" lon="6.32535"/><trkpt lat="49.61091" lon="6.32649"/><trkpt lat="49.61193" lon="6.32663"/><trkpt lat="49.613" lon="6.3264"/><trkpt lat="49.61371" lon="6.32621"/><trkpt lat="49.61418" lon="6.32564"/><trkpt lat="49.61434" lon="6.32566"/><trkpt lat="49.61489" lon="6.32609"/><trkpt lat="49.61496" lon="6.32595"/><trkpt lat="49.61526" lon="6.32619"/><trkpt lat="49.61576" lon="6.32673"/><trkpt lat="49.61614" lon="6.32727"/><trkpt lat="49.61623" lon="6.32734"/><trkpt lat="49.61636" lon="6.32733"/><trkpt lat="49.61659" lon="6.32721"/><trkpt lat="49.61667" lon="6.32744"/><trkpt lat="49.61657" lon="6.32761"/><trkpt lat="49.61645" lon="6.32766"/><trkpt lat="49.61641" lon="6.32786"/><trkpt lat="49.61617" lon="6.32789"/><trkpt lat="49.61562" lon="6.32767"/><trkpt lat="49.61456" lon="6.32701"/><trkpt lat="49.61429" lon="6.32696"/><trkpt lat="49.61382" lon="6.32729"/><trkpt lat="49.61306" lon="6.32806"/><trkpt lat="49.6129" lon="6.3283"/><trkpt lat="49.61285" lon="6.32853"/><trkpt lat="49.61288" lon="6.32904"/><trkpt lat="49.61329" lon="6.3312"/><trkpt lat="49.61389" lon="6.33577"/><trkpt lat="49.61446" lon="6.33767"/><trkpt lat="49.61477" lon="6.33918"/><trkpt lat="49.61514" lon="6.34055"/><trkpt lat="49.61534" lon="6.3423"/><trkpt lat="49.61537" lon="6.34233"/><trkpt lat="49.61557" lon="6.34208"/><trkpt lat="49.61571" lon="6.34333"/><trkpt lat="49.61632" lon="6.34639"/><trkpt lat="49.61632" lon="6.3474"/><trkpt lat="49.61648" lon="6.34796"/><trkpt lat="49.61658" lon="6.3488"/><trkpt lat="49.61687" lon="6.34966"/><trkpt lat="49.61687" lon="6.34986"/><trkpt lat="49.61653" lon="6.35049"/><trkpt lat="49.61635" lon="6.35127"/><trkpt lat="49.61585" lon="6.35236"/><trkpt lat="49.61571" lon="6.35243"/><trkpt lat="49.61499" lon="6.3524"/><trkpt lat="49.61466" lon="6.35248"/><trkpt lat="49.61353" lon="6.35319"/><trkpt lat="49.61316" lon="6.35359"/><trkpt lat="49.61281" lon="6.35416"/><trkpt lat="49.61261" lon="6.3555"/><trkpt lat="49.61247" lon="6.35601"/><trkpt lat="49.61172" lon="6.35754"/><trkpt lat="49.61123" lon="6.35769"/><trkpt lat="49.61058" lon="6.35779"/><trkpt lat="49.6089" lon="6.35893"/><trkpt lat="49.60842" lon="6.35893"/><trkpt lat="49.608" lon="6.35901"/><trkpt lat="49.60757" lon="6.35873"/><trkpt lat="49.60681" lon="6.35851"/><trkpt lat="49.60644" lon="6.35822"/><trkpt lat="49.60561" lon="6.3578"/><trkpt lat="49.6052" lon="6.35777"/><trkpt lat="49.60499" lon="6.35794"/><trkpt lat="49.60475" lon="6.35859"/><trkpt lat="49.60494" lon="6.35869"/><trkpt lat="49.60508" lon="6.35895"/><trkpt lat="49.60471" lon="6.35917"/><trkpt lat="49.60436" lon="6.35951"/><trkpt lat="49.604" lon="6.36006"/><trkpt lat="49.60361" lon="6.36042"/><trkpt lat="49.60341" lon="6.36083"/><trkpt lat="49.60321" lon="6.36155"/><trkpt lat="49.60325" lon="6.36251"/><trkpt lat="49.60373" lon="6.3641"/><trkpt lat="49.60422" lon="6.36527"/><trkpt lat="49.6048" lon="6.36643"/><trkpt lat="49.60516" lon="6.36688"/><trkpt lat="49.6055" lon="6.367"/><trkpt lat="49.60636" lon="6.36799"/><trkpt lat="49.60592" lon="6.36799"/><trkpt lat="49.60465" lon="6.36751"/><trkpt lat="49.60414" lon="6.36743"/><trkpt lat="49.60331" lon="6.368"/><trkpt lat="49.60287" lon="6.36788"/><trkpt lat="49.60248" lon="6.36794"/><trkpt lat="49.6012" lon="6.36794"/><trkpt lat="49.60094" lon="6.36786"/><trkpt lat="49.60086" lon="6.36736"/><trkpt lat="49.60068" lon="6.36691"/><trkpt lat="49.60074" lon="6.3656"/><trkpt lat="49.60065" lon="6.36546"/><trkpt lat="49.60048" lon="6.36483"/><trkpt lat="49.60048" lon="6.36417"/><trkpt lat="49.60057" lon="6.3636"/><trkpt lat="49.60053" lon="6.36332"/><trkpt lat="49.60071" lon="6.36134"/><trkpt lat="49.60051" lon="6.36057"/><trkpt lat="49.60047" lon="6.36013"/><trkpt lat="49.60051" lon="6.3599"/><trkpt lat="49.60088" lon="6.35897"/><trkpt lat="49.60127" lon="6.35709"/><trkpt lat="49.60173" lon="6.35541"/><trkpt lat="49.60182" lon="6.35481"/><trkpt lat="49.60176" lon="6.35393"/><trkpt lat="49.60154" lon="6.3532"/><trkpt lat="49.60086" lon="6.35166"/><trkpt lat="49.60026" lon="6.34929"/><trkpt lat="49.5992" lon="6.34748"/><trkpt lat="49.59841" lon="6.34642"/><trkpt lat="49.59788" lon="6.34549"/><trkpt lat="49.59755" lon="6.34474"/><trkpt lat="49.59717" lon="6.34409"/><trkpt lat="49.59669" lon="6.34267"/><trkpt lat="49.59648" lon="6.34163"/><trkpt lat="49.59607" lon="6.33714"/><trkpt lat="49.5955" lon="6.33306"/><trkpt lat="49.59512" lon="6.33097"/><trkpt lat="49.59477" lon="6.32972"/><trkpt lat="49.59494" lon="6.32926"/><trkpt lat="49.59531" lon="6.32897"/><trkpt lat="49.5959" lon="6.32896"/><trkpt lat="49.59643" lon="6.32907"/><trkpt lat="49.59668" lon="6.3294"/><trkpt lat="49.59678" lon="6.3294"/><trkpt lat="49.5972" lon="6.3292"/><trkpt lat="49.59747" lon="6.32893"/><trkpt lat="49.59781" lon="6.32871"/><trkpt lat="49.59842" lon="6.32858"/><trkpt lat="49.5988" lon="6.32898"/><trkpt lat="49.59908" lon="6.32892"/><trkpt lat="49.59924" lon="6.32898"/><trkpt lat="49.59958" lon="6.32866"/><trkpt lat="49.59969" lon="6.32869"/><trkpt lat="49.60024" lon="6.32844"/><trkpt lat="49.60045" lon="6.32817"/><trkpt lat="49.6005" lon="6.328"/><trkpt lat="49.60076" lon="6.32791"/><trkpt lat="49.60117" lon="6.32796"/><trkpt lat="49.60158" lon="6.3281"/><trkpt lat="49.60176" lon="6.3283"/><trkpt lat="49.60189" lon="6.32814"/><trkpt lat="49.60235" lon="6.32713"/><trkpt lat="49.60255" lon="6.32686"/><trkpt lat="49.60262" lon="6.3262"/><trkpt lat="49.60286" lon="6.32585"/><trkpt lat="49.60303" lon="6.32582"/><trkpt lat="49.60321" lon="6.32565"/><trkpt lat="49.60369" lon="6.32573"/><trkpt lat="49.60383" lon="6.32566"/><trkpt lat="49.60409" lon="6.32574"/><trkpt lat="49.60428" lon="6.32591"/><trkpt lat="49.6047" lon="6.32599"/><trkpt lat="49.60484" lon="6.32621"/><trkpt lat="49.60516" lon="6.32621"/><trkpt lat="49.60528" lon="6.32615"/><trkpt lat="49.60529" lon="6.32584"/><trkpt lat="49.60513" lon="6.3255"/><trkpt lat="49.60502" lon="6.32498"/><trkpt lat="49.60493" lon="6.32487"/><trkpt lat="49.60428" lon="6.32468"/><trkpt lat="49.60408" lon="6.32453"/><trkpt lat="49.60381" lon="6.32455"/><trkpt lat="49.60369" lon="6.32446"/><trkpt lat="49.60358" lon="6.32449"/><trkpt lat="49.60337" lon="6.3244"/><trkpt lat="49.60321" lon="6.32452"/><trkpt lat="49.60308" lon="6.3245"/><trkpt lat="49.60298" lon="6.32457"/><trkpt lat="49.60258" lon="6.3244"/><trkpt lat="49.60249" lon="6.32443"/><trkpt lat="49.60212" lon="6.32493"/><trkpt lat="49.6021" lon="6.32539"/><trkpt lat="49.60206" lon="6.32547"/><trkpt lat="49.60186" lon="6.32558"/><trkpt lat="49.60187" lon="6.32584"/><trkpt lat="49.60178" lon="6.32602"/><trkpt lat="49.60156" lon="6.32616"/><trkpt lat="49.60133" lon="6.32596"/><trkpt lat="49.6012" lon="6.32592"/><trkpt lat="49.60101" lon="6.32539"/><trkpt lat="49.60092" lon="6.32447"/><trkpt lat="49.60091" lon="6.3242"/><trkpt lat="49.60109" lon="6.32304"/><trkpt lat="49.60127" lon="6.32316"/><trkpt lat="49.60152" lon="6.32321"/><trkpt lat="49.60262" lon="6.32265"/><trkpt lat="49.60329" lon="6.32243"/><trkpt lat="49.6035" lon="6.32243"/><trkpt lat="49.60467" lon="6.32283"/><trkpt lat="49.60549" lon="6.32289"/><trkpt lat="49.60582" lon="6.32307"/><trkpt lat="49.60678" lon="6.32394"/><trkpt lat="49.60766" lon="6.3251"/><trkpt lat="49.60829" lon="6.32527"/><trkpt lat="49.60851" lon="6.32546"/><trkpt lat="49.60926" lon="6.32549"/><trkpt lat="49.60951" lon="6.32541"/><trkpt lat="49.60943" lon="6.3248"/><trkpt lat="49.60966" lon="6.32472"/><trkpt lat="49.61001" lon="6.32428"/><trkpt lat="49.61014" lon="6.32359"/><trkpt lat="49.61057" lon="6.32366"/><trkpt lat="49.61076" lon="6.32468"/></trkseg></trk>
</gpx>
