<?xml version="1.0" encoding="UTF-8"?>
<gpx version="1.1" creator="ian.lu/trails" xmlns="http://www.topografix.com/GPX/1/1">
<metadata><name>Auto-Pédestre Colmar-Berg</name><link href="https://ian.lu/trails/"/></metadata>
<trk><name>Auto-Pédestre Colmar-Berg</name><trkseg><trkpt lat="49.80945" lon="6.09277"/><trkpt lat="49.80969" lon="6.09254"/><trkpt lat="49.80977" lon="6.09233"/><trkpt lat="49.80977" lon="6.09188"/><trkpt lat="49.80986" lon="6.09157"/><trkpt lat="49.80983" lon="6.09076"/><trkpt lat="49.81012" lon="6.08962"/><trkpt lat="49.81016" lon="6.08851"/><trkpt lat="49.80893" lon="6.0886"/><trkpt lat="49.8079" lon="6.08877"/><trkpt lat="49.80749" lon="6.08872"/><trkpt lat="49.80712" lon="6.08883"/><trkpt lat="49.80694" lon="6.08894"/><trkpt lat="49.80573" lon="6.09012"/><trkpt lat="49.80477" lon="6.09062"/><trkpt lat="49.80421" lon="6.09109"/><trkpt lat="49.80377" lon="6.09067"/><trkpt lat="49.80374" lon="6.09048"/><trkpt lat="49.80394" lon="6.08937"/><trkpt lat="49.80384" lon="6.08926"/><trkpt lat="49.80378" lon="6.08904"/><trkpt lat="49.80383" lon="6.08891"/><trkpt lat="49.80411" lon="6.08868"/><trkpt lat="49.80433" lon="6.08813"/><trkpt lat="49.80441" lon="6.08764"/><trkpt lat="49.80439" lon="6.08666"/><trkpt lat="49.8045" lon="6.08613"/><trkpt lat="49.80477" lon="6.08577"/><trkpt lat="49.80578" lon="6.08538"/><trkpt lat="49.80606" lon="6.08518"/><trkpt lat="49.80625" lon="6.08482"/><trkpt lat="49.80654" lon="6.08384"/><trkpt lat="49.8066" lon="6.08265"/><trkpt lat="49.80678" lon="6.08138"/><trkpt lat="49.80732" lon="6.07996"/><trkpt lat="49.80772" lon="6.07838"/><trkpt lat="49.80771" lon="6.07763"/><trkpt lat="49.80749" lon="6.07654"/><trkpt lat="49.80736" lon="6.07511"/><trkpt lat="49.80742" lon="6.07434"/><trkpt lat="49.80761" lon="6.0737"/><trkpt lat="49.80871" lon="6.0711"/><trkpt lat="49.80893" lon="6.07092"/><trkpt lat="49.80892" lon="6.07055"/><trkpt lat="49.80926" lon="6.06956"/><trkpt lat="49.80942" lon="6.06928"/><trkpt lat="49.81067" lon="6.06808"/><trkpt lat="49.81113" lon="6.06748"/><trkpt lat="49.8117" lon="6.06734"/><trkpt lat="49.81266" lon="6.06759"/><trkpt lat="49.81372" lon="6.06758"/><trkpt lat="49.81454" lon="6.06741"/><trkpt lat="49.81582" lon="6.06672"/><trkpt lat="49.81736" lon="6.06678"/><trkpt lat="49.81794" lon="6.06664"/><trkpt lat="49.81829" lon="6.06645"/><trkpt lat="49.81989" lon="6.06619"/><trkpt lat="49.82036" lon="6.06625"/><trkpt lat="49.8209" lon="6.06662"/><trkpt lat="49.82023" lon="6.0676"/><trkpt lat="49.81954" lon="6.0682"/><trkpt lat="49.81934" lon="6.06863"/><trkpt lat="49.81924" lon="6.06992"/><trkpt lat="49.81925" lon="6.0726"/><trkpt lat="49.8189" lon="6.07532"/><trkpt lat="49.81871" lon="6.07624"/><trkpt lat="49.81792" lon="6.07734"/><trkpt lat="49.8176" lon="6.07765"/><trkpt lat="49.81695" lon="6.07807"/><trkpt lat="49.8162" lon="6.07868"/><trkpt lat="49.81579" lon="6.07885"/><trkpt lat="49.81526" lon="6.07867"/><trkpt lat="49.81506" lon="6.07869"/><trkpt lat="49.81384" lon="6.07941"/><trkpt lat="49.81343" lon="6.07987"/><trkpt lat="49.81333" lon="6.08069"/><trkpt lat="49.81299" lon="6.08219"/><trkpt lat="49.81227" lon="6.08377"/><trkpt lat="49.81241" lon="6.08423"/><trkpt lat="49.81241" lon="6.0844"/><trkpt lat="49.81203" lon="6.08546"/><trkpt lat="49.81244" lon="6.08591"/><trkpt lat="49.81343" lon="6.08644"/><trkpt lat="49.81366" lon="6.08702"/><trkpt lat="49.81323" lon="6.08763"/><trkpt lat="49.81259" lon="6.08902"/><trkpt lat="49.81115" lon="6.08858"/><trkpt lat="49.81016" lon="6.0884"/><trkpt lat="49.81012" lon="6.08962"/><trkpt lat="49.80984" lon="6.09073"/><trkpt lat="49.80986" lon="6.09157"/><trkpt lat="49.80977" lon="6.09183"/><trkpt lat="49.80976" lon="6.09238"/><trkpt lat="49.80964" lon="6.09261"/><trkpt lat="49.80945" lon="6.09276"/></trkseg></trk>
</gpx>
