<?xml version="1.0" encoding="UTF-8"?>
<gpx version="1.1" creator="ian.lu/trails" xmlns="http://www.topografix.com/GPX/1/1">
<metadata><name>Auto-Pédestre Consdorf-Müllerthal</name><link href="https://ian.lu/trails/"/></metadata>
<trk><name>Auto-Pédestre Consdorf-Müllerthal</name><trkseg><trkpt lat="49.77884" lon="6.32791"/><trkpt lat="49.77879" lon="6.32789"/><trkpt lat="49.77871" lon="6.32727"/><trkpt lat="49.77864" lon="6.32725"/><trkpt lat="49.7786" lon="6.32708"/><trkpt lat="49.77861" lon="6.32687"/><trkpt lat="49.7788" lon="6.32647"/><trkpt lat="49.77909" lon="6.32525"/><trkpt lat="49.77925" lon="6.3249"/><trkpt lat="49.77933" lon="6.32353"/><trkpt lat="49.77924" lon="6.32265"/><trkpt lat="49.77937" lon="6.32099"/><trkpt lat="49.77956" lon="6.3203"/><trkpt lat="49.77982" lon="6.31966"/><trkpt lat="49.7801" lon="6.31924"/><trkpt lat="49.78011" lon="6.31904"/><trkpt lat="49.78041" lon="6.31835"/><trkpt lat="49.78101" lon="6.31746"/><trkpt lat="49.78101" lon="6.31691"/><trkpt lat="49.78119" lon="6.31661"/><trkpt lat="49.78121" lon="6.31624"/><trkpt lat="49.78113" lon="6.31555"/><trkpt lat="49.78068" lon="6.31509"/><trkpt lat="49.78045" lon="6.31469"/><trkpt lat="49.78011" lon="6.31453"/><trkpt lat="49.78007" lon="6.31443"/><trkpt lat="49.77981" lon="6.31424"/><trkpt lat="49.77967" lon="6.31397"/><trkpt lat="49.77978" lon="6.31394"/><trkpt lat="49.78" lon="6.31417"/><trkpt lat="49.78019" lon="6.31417"/><trkpt lat="49.78039" lon="6.31405"/><trkpt lat="49.78062" lon="6.31423"/><trkpt lat="49.78073" lon="6.31416"/><trkpt lat="49.78079" lon="6.31419"/><trkpt lat="49.78103" lon="6.31446"/><trkpt lat="49.78127" lon="6.31462"/><trkpt lat="49.78154" lon="6.3151"/><trkpt lat="49.78179" lon="6.31535"/><trkpt lat="49.78192" lon="6.31566"/><trkpt lat="49.78206" lon="6.31572"/><trkpt lat="49.78215" lon="6.31592"/><trkpt lat="49.78238" lon="6.31597"/><trkpt lat="49.78253" lon="6.31596"/><trkpt lat="49.78269" lon="6.31585"/><trkpt lat="49.78305" lon="6.31584"/><trkpt lat="49.78324" lon="6.3161"/><trkpt lat="49.78347" lon="6.31614"/><trkpt lat="49.78393" lon="6.31586"/><trkpt lat="49.78419" lon="6.31579"/><trkpt lat="49.78506" lon="6.31581"/><trkpt lat="49.78556" lon="6.31566"/><trkpt lat="49.78574" lon="6.31548"/><trkpt lat="49.78594" lon="6.3154"/><trkpt lat="49.78662" lon="6.31466"/><trkpt lat="49.78712" lon="6.31345"/><trkpt lat="49.78748" lon="6.31306"/><trkpt lat="49.7878" lon="6.31243"/><trkpt lat="49.7879" lon="6.31206"/><trkpt lat="49.78795" lon="6.31162"/><trkpt lat="49.78788" lon="6.31111"/><trkpt lat="49.78762" lon="6.3102"/><trkpt lat="49.78722" lon="6.30937"/><trkpt lat="49.7871" lon="6.30844"/><trkpt lat="49.78698" lon="6.3082"/><trkpt lat="49.78697" lon="6.3071"/><trkpt lat="49.78687" lon="6.30675"/><trkpt lat="49.7863" lon="6.30576"/><trkpt lat="49.78593" lon="6.30489"/><trkpt lat="49.78573" lon="6.30388"/><trkpt lat="49.78526" lon="6.30273"/><trkpt lat="49.7852" lon="6.30221"/><trkpt lat="49.78506" lon="6.30199"/><trkpt lat="49.78513" lon="6.30192"/><trkpt lat="49.7851" lon="6.30126"/><trkpt lat="49.78486" lon="6.30061"/><trkpt lat="49.78482" lon="6.30009"/><trkpt lat="49.7845" lon="6.29938"/><trkpt lat="49.78471" lon="6.29953"/><trkpt lat="49.78503" lon="6.29947"/><trkpt lat="49.78507" lon="6.29907"/><trkpt lat="49.78531" lon="6.29906"/><trkpt lat="49.78551" lon="6.29894"/><trkpt lat="49.78578" lon="6.29907"/><trkpt lat="49.78644" lon="6.29961"/><trkpt lat="49.7866" lon="6.29962"/><trkpt lat="49.78706" lon="6.29987"/><trkpt lat="49.78762" lon="6.30063"/><trkpt lat="49.78814" lon="6.30149"/><trkpt lat="49.78825" lon="6.30142"/><trkpt lat="49.78836" lon="6.30145"/><trkpt lat="49.78841" lon="6.3017"/><trkpt lat="49.78859" lon="6.30201"/><trkpt lat="49.78892" lon="6.30145"/><trkpt lat="49.78901" lon="6.3015"/><trkpt lat="49.78918" lon="6.30136"/><trkpt lat="49.78933" lon="6.30109"/><trkpt lat="49.78952" lon="6.30107"/><trkpt lat="49.78964" lon="6.30126"/><trkpt lat="49.78992" lon="6.30124"/><trkpt lat="49.79036" lon="6.30168"/><trkpt lat="49.79026" lon="6.30177"/><trkpt lat="49.79014" lon="6.30168"/><trkpt lat="49.78985" lon="6.30166"/><trkpt lat="49.78968" lon="6.30174"/><trkpt lat="49.7893" lon="6.30223"/><trkpt lat="49.78927" lon="6.30248"/><trkpt lat="49.78933" lon="6.30257"/><trkpt lat="49.78914" lon="6.30311"/><trkpt lat="49.78919" lon="6.30345"/><trkpt lat="49.78904" lon="6.30373"/><trkpt lat="49.7891" lon="6.30415"/><trkpt lat="49.78948" lon="6.30509"/><trkpt lat="49.78991" lon="6.30529"/><trkpt lat="49.79094" lon="6.30658"/><trkpt lat="49.79068" lon="6.30687"/><trkpt lat="49.7904" lon="6.30735"/><trkpt lat="49.79039" lon="6.30754"/><trkpt lat="49.79118" lon="6.30866"/><trkpt lat="49.79103" lon="6.30903"/><trkpt lat="49.79111" lon="6.30919"/><trkpt lat="49.79076" lon="6.30967"/><trkpt lat="49.79069" lon="6.31013"/><trkpt lat="49.79135" lon="6.31172"/><trkpt lat="49.79154" lon="6.31196"/><trkpt lat="49.79194" lon="6.31223"/><trkpt lat="49.79223" lon="6.31266"/><trkpt lat="49.79202" lon="6.31281"/><trkpt lat="49.79195" lon="6.31295"/><trkpt lat="49.79187" lon="6.3135"/><trkpt lat="49.79166" lon="6.31393"/><trkpt lat="49.79137" lon="6.3143"/><trkpt lat="49.79134" lon="6.31452"/><trkpt lat="49.79145" lon="6.31534"/><trkpt lat="49.79168" lon="6.31589"/><trkpt lat="49.79177" lon="6.31636"/><trkpt lat="49.79193" lon="6.31675"/><trkpt lat="49.79244" lon="6.31735"/><trkpt lat="49.7926" lon="6.3177"/><trkpt lat="49.79283" lon="6.31787"/><trkpt lat="49.79361" lon="6.31951"/><trkpt lat="49.7933" lon="6.31918"/><trkpt lat="49.79312" lon="6.31919"/><trkpt lat="49.79306" lon="6.31908"/><trkpt lat="49.79295" lon="6.31908"/><trkpt lat="49.79295" lon="6.31897"/><trkpt lat="49.79284" lon="6.31887"/><trkpt lat="49.79277" lon="6.31884"/><trkpt lat="49.79261" lon="6.31895"/><trkpt lat="49.79241" lon="6.31888"/><trkpt lat="49.79226" lon="6.31863"/><trkpt lat="49.79206" lon="6.31846"/><trkpt lat="49.7917" lon="6.31848"/><trkpt lat="49.79148" lon="6.31837"/><trkpt lat="49.79124" lon="6.31849"/><trkpt lat="49.79084" lon="6.31837"/><trkpt lat="49.79046" lon="6.3188"/><trkpt lat="49.78994" lon="6.31907"/><trkpt lat="49.78975" lon="6.31979"/><trkpt lat="49.78976" lon="6.32067"/><trkpt lat="49.78992" lon="6.32161"/><trkpt lat="49.79024" lon="6.32263"/><trkpt lat="49.79034" lon="6.32333"/><trkpt lat="49.7903" lon="6.32346"/><trkpt lat="49.79022" lon="6.32345"/><trkpt lat="49.79" lon="6.32284"/><trkpt lat="49.78986" lon="6.32257"/><trkpt lat="49.78974" lon="6.32248"/><trkpt lat="49.78962" lon="6.32241"/><trkpt lat="49.78963" lon="6.32257"/><trkpt lat="49.78945" lon="6.32263"/><trkpt lat="49.7894" lon="6.32245"/><trkpt lat="49.78906" lon="6.32224"/><trkpt lat="49.78883" lon="6.32199"/><trkpt lat="49.78849" lon="6.32201"/><trkpt lat="49.78774" lon="6.32159"/><trkpt lat="49.78715" lon="6.3216"/><trkpt lat="49.78691" lon="6.32175"/><trkpt lat="49.78671" lon="6.32215"/><trkpt lat="49.78664" lon="6.32214"/><trkpt lat="49.7867" lon="6.32262"/><trkpt lat="49.78628" lon="6.3223"/><trkpt lat="49.7862" lon="6.32239"/><trkpt lat="49.78579" lon="6.32237"/><trkpt lat="49.78552" lon="6.32225"/><trkpt lat="49.78533" lon="6.3224"/><trkpt lat="49.78513" lon="6.32246"/><trkpt lat="49.78495" lon="6.32228"/><trkpt lat="49.78457" lon="6.3221"/><trkpt lat="49.78355" lon="6.32196"/><trkpt lat="49.78314" lon="6.32211"/><trkpt lat="49.78297" lon="6.32208"/><trkpt lat="49.78266" lon="6.32224"/><trkpt lat="49.78257" lon="6.32221"/><trkpt lat="49.78234" lon="6.32242"/><trkpt lat="49.78192" lon="6.32323"/><trkpt lat="49.78195" lon="6.32376"/><trkpt lat="49.78169" lon="6.32497"/><trkpt lat="49.78134" lon="6.32604"/><trkpt lat="49.78145" lon="6.32676"/><trkpt lat="49.78143" lon="6.32737"/><trkpt lat="49.78156" lon="6.32798"/><trkpt lat="49.78173" lon="6.32942"/><trkpt lat="49.78149" lon="6.33016"/><trkpt lat="49.78157" lon="6.33114"/><trkpt lat="49.78133" lon="6.33247"/><trkpt lat="49.78122" lon="6.33267"/><trkpt lat="49.78088" lon="6.3309"/><trkpt lat="49.7805" lon="6.32973"/><trkpt lat="49.78016" lon="6.32827"/><trkpt lat="49.77989" lon="6.32769"/><trkpt lat="49.77973" lon="6.32708"/><trkpt lat="49.77965" lon="6.3271"/><trkpt lat="49.77958" lon="6.32722"/><trkpt lat="49.77937" lon="6.32814"/><trkpt lat="49.7791" lon="6.32808"/><trkpt lat="49.77914" lon="6.3278"/><trkpt lat="49.77907" lon="6.32759"/><trkpt lat="49.77887" lon="6.32788"/></trkseg></trk>
</gpx>
