<?xml version="1.0" encoding="UTF-8"?>
<gpx version="1.1" creator="ian.lu/trails" xmlns="http://www.topografix.com/GPX/1/1">
<metadata><name>Auto-Pédestre Derenbach</name><link href="https://ian.lu/trails/"/></metadata>
<trk><name>Auto-Pédestre Derenbach</name><trkseg><trkpt lat="50.01449" lon="5.88829"/><trkpt lat="50.01417" lon="5.88796"/><trkpt lat="50.014" lon="5.88797"/><trkpt lat="50.01374" lon="5.88812"/><trkpt lat="50.01369" lon="5.88831"/><trkpt lat="50.0133" lon="5.88889"/><trkpt lat="50.01294" lon="5.88981"/><trkpt lat="50.01284" lon="5.88985"/><trkpt lat="50.01248" lon="5.88975"/><trkpt lat="50.01232" lon="5.88977"/><trkpt lat="50.01212" lon="5.89"/><trkpt lat="50.01186" lon="5.89049"/><trkpt lat="50.01191" lon="5.89064"/><trkpt lat="50.01293" lon="5.892"/><trkpt lat="50.01371" lon="5.89269"/><trkpt lat="50.01381" lon="5.89304"/><trkpt lat="50.01375" lon="5.89485"/><trkpt lat="50.0131" lon="5.89782"/><trkpt lat="50.01317" lon="5.89808"/><trkpt lat="50.01337" lon="5.8984"/><trkpt lat="50.01344" lon="5.89874"/><trkpt lat="50.01337" lon="5.89955"/><trkpt lat="50.01322" lon="5.90037"/><trkpt lat="50.01311" lon="5.90273"/><trkpt lat="50.01352" lon="5.90497"/><trkpt lat="50.01363" lon="5.9064"/><trkpt lat="50.01355" lon="5.90647"/><trkpt lat="50.0132" lon="5.90653"/><trkpt lat="50.01265" lon="5.90598"/><trkpt lat="50.012" lon="5.90508"/><trkpt lat="50.01123" lon="5.90421"/><trkpt lat="50.01076" lon="5.90353"/><trkpt lat="50.01026" lon="5.90341"/><trkpt lat="50.00997" lon="5.90325"/><trkpt lat="50.00923" lon="5.90316"/><trkpt lat="50.00822" lon="5.90234"/><trkpt lat="50.00793" lon="5.9025"/><trkpt lat="50.00772" lon="5.90284"/><trkpt lat="50.00766" lon="5.90283"/><trkpt lat="50.00734" lon="5.90211"/><trkpt lat="50.00721" lon="5.90128"/><trkpt lat="50.00672" lon="5.90037"/><trkpt lat="50.00632" lon="5.90078"/><trkpt lat="50.00625" lon="5.90058"/><trkpt lat="50.00517" lon="5.90131"/><trkpt lat="50.00446" lon="5.90161"/><trkpt lat="50.00435" lon="5.90097"/><trkpt lat="50.0041" lon="5.90032"/><trkpt lat="50.00403" lon="5.90027"/><trkpt lat="50.00337" lon="5.90024"/><trkpt lat="50.00303" lon="5.89985"/><trkpt lat="50.00265" lon="5.89954"/><trkpt lat="50.00236" lon="5.89938"/><trkpt lat="50.00149" lon="5.89911"/><trkpt lat="50.00097" lon="5.89861"/><trkpt lat="50.00067" lon="5.89844"/><trkpt lat="50.00039" lon="5.89849"/><trkpt lat="50.0" lon="5.89888"/><trkpt lat="49.99975" lon="5.89888"/><trkpt lat="49.99846" lon="5.89773"/><trkpt lat="49.99839" lon="5.89702"/><trkpt lat="49.99818" lon="5.8968"/><trkpt lat="49.99816" lon="5.89666"/><trkpt lat="49.99829" lon="5.89632"/><trkpt lat="49.9983" lon="5.89604"/><trkpt lat="49.99871" lon="5.89485"/><trkpt lat="49.99946" lon="5.8933"/><trkpt lat="50.00024" lon="5.89237"/><trkpt lat="50.00179" lon="5.88975"/><trkpt lat="50.00176" lon="5.88954"/><trkpt lat="50.00142" lon="5.88905"/><trkpt lat="50.00132" lon="5.8888"/><trkpt lat="50.00125" lon="5.88733"/><trkpt lat="50.00131" lon="5.88638"/><trkpt lat="50.00193" lon="5.88527"/><trkpt lat="50.0023" lon="5.88514"/><trkpt lat="50.00254" lon="5.8852"/><trkpt lat="50.0032" lon="5.8852"/><trkpt lat="50.00371" lon="5.8854"/><trkpt lat="50.00406" lon="5.88543"/><trkpt lat="50.00491" lon="5.88503"/><trkpt lat="50.00531" lon="5.88497"/><trkpt lat="50.00556" lon="5.88485"/><trkpt lat="50.0061" lon="5.88478"/><trkpt lat="50.0061" lon="5.88487"/><trkpt lat="50.00655" lon="5.88501"/><trkpt lat="50.00726" lon="5.88512"/><trkpt lat="50.00763" lon="5.88509"/><trkpt lat="50.00825" lon="5.88482"/><trkpt lat="50.00947" lon="5.88392"/><trkpt lat="50.0099" lon="5.88372"/><trkpt lat="50.00989" lon="5.88362"/><trkpt lat="50.01044" lon="5.88348"/><trkpt lat="50.01056" lon="5.88335"/><trkpt lat="50.01044" lon="5.88212"/><trkpt lat="50.01046" lon="5.88186"/><trkpt lat="50.01082" lon="5.87999"/><trkpt lat="50.01128" lon="5.87812"/><trkpt lat="50.0112" lon="5.87807"/><trkpt lat="50.01071" lon="5.87815"/><trkpt lat="50.01044" lon="5.8781"/><trkpt lat="50.01012" lon="5.87818"/><trkpt lat="50.0099" lon="5.87831"/><trkpt lat="50.00933" lon="5.87881"/><trkpt lat="50.00917" lon="5.87902"/><trkpt lat="50.00861" lon="5.88033"/><trkpt lat="50.00832" lon="5.88058"/><trkpt lat="50.00813" lon="5.88063"/><trkpt lat="50.00733" lon="5.87941"/><trkpt lat="50.00681" lon="5.87821"/><trkpt lat="50.00619" lon="5.87708"/><trkpt lat="50.00594" lon="5.8765"/><trkpt lat="50.00637" lon="5.87536"/><trkpt lat="50.00621" lon="5.87507"/><trkpt lat="50.00599" lon="5.87506"/><trkpt lat="50.00531" lon="5.87482"/><trkpt lat="50.00502" lon="5.87454"/><trkpt lat="50.00449" lon="5.87385"/><trkpt lat="50.00384" lon="5.87362"/><trkpt lat="50.00372" lon="5.87349"/><trkpt lat="50.00344" lon="5.87301"/><trkpt lat="50.00338" lon="5.87279"/><trkpt lat="50.00339" lon="5.87268"/><trkpt lat="50.00349" lon="5.87259"/><trkpt lat="50.00385" lon="5.87269"/><trkpt lat="50.00512" lon="5.87272"/><trkpt lat="50.00559" lon="5.87243"/><trkpt lat="50.00582" lon="5.87217"/><trkpt lat="50.00626" lon="5.87145"/><trkpt lat="50.00661" lon="5.87132"/><trkpt lat="50.00714" lon="5.87155"/><trkpt lat="50.00756" lon="5.87187"/><trkpt lat="50.00804" lon="5.87235"/><trkpt lat="50.00825" lon="5.87183"/><trkpt lat="50.00838" lon="5.87019"/><trkpt lat="50.0086" lon="5.86886"/><trkpt lat="50.00871" lon="5.8686"/><trkpt lat="50.00934" lon="5.86767"/><trkpt lat="50.01108" lon="5.87207"/><trkpt lat="50.0115" lon="5.87388"/><trkpt lat="50.01167" lon="5.87496"/><trkpt lat="50.01174" lon="5.87516"/><trkpt lat="50.01203" lon="5.87547"/><trkpt lat="50.01211" lon="5.87545"/><trkpt lat="50.01302" lon="5.8743"/><trkpt lat="50.01375" lon="5.87353"/><trkpt lat="50.01401" lon="5.87296"/><trkpt lat="50.01429" lon="5.87195"/><trkpt lat="50.01435" lon="5.8706"/><trkpt lat="50.01427" lon="5.86948"/><trkpt lat="50.0147" lon="5.87062"/><trkpt lat="50.01478" lon="5.87063"/><trkpt lat="50.01484" lon="5.87055"/><trkpt lat="50.01536" lon="5.86816"/><trkpt lat="50.0154" lon="5.86749"/><trkpt lat="50.01534" lon="5.86666"/><trkpt lat="50.01545" lon="5.86595"/><trkpt lat="50.01599" lon="5.86832"/><trkpt lat="50.01603" lon="5.86829"/><trkpt lat="50.01633" lon="5.86911"/><trkpt lat="50.01646" lon="5.87038"/><trkpt lat="50.01657" lon="5.87084"/><trkpt lat="50.01676" lon="5.87124"/><trkpt lat="50.01721" lon="5.87186"/><trkpt lat="50.01729" lon="5.87209"/><trkpt lat="50.01728" lon="5.87251"/><trkpt lat="50.01722" lon="5.87266"/><trkpt lat="50.01711" lon="5.87274"/><trkpt lat="50.01668" lon="5.87279"/><trkpt lat="50.0166" lon="5.87293"/><trkpt lat="50.01646" lon="5.87417"/><trkpt lat="50.01665" lon="5.87572"/><trkpt lat="50.01665" lon="5.87632"/><trkpt lat="50.01624" lon="5.87734"/><trkpt lat="50.01592" lon="5.87894"/><trkpt lat="50.01573" lon="5.88022"/><trkpt lat="50.01553" lon="5.88294"/><trkpt lat="50.01541" lon="5.88316"/><trkpt lat="50.01556" lon="5.88351"/><trkpt lat="50.01547" lon="5.88429"/><trkpt lat="50.01553" lon="5.88477"/><trkpt lat="50.01628" lon="5.88718"/><trkpt lat="50.01584" lon="5.88739"/><trkpt lat="50.01509" lon="5.88752"/><trkpt lat="50.01449" lon="5.88829"/><trkpt lat="50.01459" lon="5.88868"/><trkpt lat="50.01449" lon="5.88928"/></trkseg></trk>
</gpx>
