<?xml version="1.0" encoding="UTF-8"?>
<gpx version="1.1" creator="ian.lu/trails" xmlns="http://www.topografix.com/GPX/1/1">
<metadata><name>Auto-Pédestre Echternach / Lac</name><link href="https://ian.lu/trails/"/></metadata>
<trk><name>Auto-Pédestre Echternach / Lac</name><trkseg><trkpt lat="49.80475" lon="6.40817"/><trkpt lat="49.80457" lon="6.40872"/><trkpt lat="49.80425" lon="6.4086"/><trkpt lat="49.80397" lon="6.40861"/><trkpt lat="49.80386" lon="6.40827"/><trkpt lat="49.80377" lon="6.40748"/><trkpt lat="49.80314" lon="6.40658"/><trkpt lat="49.8026" lon="6.40616"/><trkpt lat="49.8016" lon="6.40557"/><trkpt lat="49.79998" lon="6.40443"/><trkpt lat="49.79991" lon="6.40427"/><trkpt lat="49.80028" lon="6.40434"/><trkpt lat="49.80108" lon="6.40432"/><trkpt lat="49.80116" lon="6.40428"/><trkpt lat="49.80119" lon="6.40407"/><trkpt lat="49.80111" lon="6.4037"/><trkpt lat="49.80157" lon="6.40315"/><trkpt lat="49.80163" lon="6.40297"/><trkpt lat="49.80159" lon="6.40285"/><trkpt lat="49.80142" lon="6.4032"/><trkpt lat="49.80086" lon="6.40333"/><trkpt lat="49.8005" lon="6.40325"/><trkpt lat="49.80029" lon="6.40345"/><trkpt lat="49.80007" lon="6.40347"/><trkpt lat="49.79981" lon="6.40334"/><trkpt lat="49.7996" lon="6.40267"/><trkpt lat="49.79941" lon="6.40233"/><trkpt lat="49.79908" lon="6.40213"/><trkpt lat="49.79841" lon="6.40195"/><trkpt lat="49.79509" lon="6.40205"/><trkpt lat="49.79382" lon="6.40254"/><trkpt lat="49.79283" lon="6.40326"/><trkpt lat="49.79232" lon="6.40353"/><trkpt lat="49.79242" lon="6.40488"/><trkpt lat="49.79252" lon="6.40529"/><trkpt lat="49.7925" lon="6.40555"/><trkpt lat="49.79127" lon="6.40691"/><trkpt lat="49.79114" lon="6.40754"/><trkpt lat="49.79089" lon="6.40783"/><trkpt lat="49.79079" lon="6.40834"/><trkpt lat="49.79039" lon="6.40873"/><trkpt lat="49.79025" lon="6.40939"/><trkpt lat="49.7903" lon="6.40955"/><trkpt lat="49.79055" lon="6.40945"/><trkpt lat="49.79133" lon="6.40852"/><trkpt lat="49.79152" lon="6.40838"/><trkpt lat="49.792" lon="6.4076"/><trkpt lat="49.79245" lon="6.40727"/><trkpt lat="49.79292" lon="6.40678"/><trkpt lat="49.79369" lon="6.40578"/><trkpt lat="49.79446" lon="6.40519"/><trkpt lat="49.79471" lon="6.40503"/><trkpt lat="49.79613" lon="6.40469"/><trkpt lat="49.79664" lon="6.40475"/><trkpt lat="49.79698" lon="6.40497"/><trkpt lat="49.79628" lon="6.40557"/><trkpt lat="49.79577" lon="6.40617"/><trkpt lat="49.7956" lon="6.40617"/><trkpt lat="49.79546" lon="6.40639"/><trkpt lat="49.79525" lon="6.40649"/><trkpt lat="49.79514" lon="6.40707"/><trkpt lat="49.79492" lon="6.40757"/><trkpt lat="49.79414" lon="6.40856"/><trkpt lat="49.79385" lon="6.40952"/><trkpt lat="49.79355" lon="6.41012"/><trkpt lat="49.79332" lon="6.41035"/><trkpt lat="49.79324" lon="6.41055"/><trkpt lat="49.7933" lon="6.41074"/><trkpt lat="49.7934" lon="6.41075"/><trkpt lat="49.79375" lon="6.41058"/><trkpt lat="49.79464" lon="6.40946"/><trkpt lat="49.79502" lon="6.40941"/><trkpt lat="49.79555" lon="6.40892"/><trkpt lat="49.79624" lon="6.4088"/><trkpt lat="49.79632" lon="6.40887"/><trkpt lat="49.79634" lon="6.40901"/><trkpt lat="49.79601" lon="6.41028"/><trkpt lat="49.79607" lon="6.41051"/><trkpt lat="49.79651" lon="6.41041"/><trkpt lat="49.79725" lon="6.41006"/><trkpt lat="49.79658" lon="6.41102"/><trkpt lat="49.79718" lon="6.41082"/><trkpt lat="49.79733" lon="6.41091"/><trkpt lat="49.79748" lon="6.41069"/><trkpt lat="49.79765" lon="6.41057"/><trkpt lat="49.79777" lon="6.41069"/><trkpt lat="49.79796" lon="6.41134"/><trkpt lat="49.79756" lon="6.41162"/><trkpt lat="49.79744" lon="6.41198"/><trkpt lat="49.79737" lon="6.41194"/><trkpt lat="49.79725" lon="6.41205"/><trkpt lat="49.79703" lon="6.41204"/><trkpt lat="49.79697" lon="6.41228"/><trkpt lat="49.79666" lon="6.41232"/><trkpt lat="49.7965" lon="6.41259"/><trkpt lat="49.79644" lon="6.41293"/><trkpt lat="49.79623" lon="6.41334"/><trkpt lat="49.79604" lon="6.41344"/><trkpt lat="49.79578" lon="6.41333"/><trkpt lat="49.79561" lon="6.41349"/><trkpt lat="49.79518" lon="6.41373"/><trkpt lat="49.79503" lon="6.41387"/><trkpt lat="49.79478" lon="6.41438"/><trkpt lat="49.79445" lon="6.41481"/><trkpt lat="49.79438" lon="6.41511"/><trkpt lat="49.7944" lon="6.41602"/><trkpt lat="49.7943" lon="6.4168"/><trkpt lat="49.79476" lon="6.41724"/><trkpt lat="49.79514" lon="6.41742"/><trkpt lat="49.79562" lon="6.41787"/><trkpt lat="49.79606" lon="6.41793"/><trkpt lat="49.79618" lon="6.41788"/><trkpt lat="49.79673" lon="6.41704"/><trkpt lat="49.79715" lon="6.4167"/><trkpt lat="49.79765" lon="6.41665"/><trkpt lat="49.79796" lon="6.41637"/><trkpt lat="49.79823" lon="6.41642"/><trkpt lat="49.79865" lon="6.41628"/><trkpt lat="49.79879" lon="6.41629"/><trkpt lat="49.79899" lon="6.41645"/><trkpt lat="49.79912" lon="6.41648"/><trkpt lat="49.79942" lon="6.41632"/><trkpt lat="49.7997" lon="6.41598"/><trkpt lat="49.79993" lon="6.41589"/><trkpt lat="49.80047" lon="6.41549"/><trkpt lat="49.80098" lon="6.4156"/><trkpt lat="49.80163" lon="6.41525"/><trkpt lat="49.80201" lon="6.41451"/><trkpt lat="49.802" lon="6.41423"/><trkpt lat="49.80228" lon="6.41364"/><trkpt lat="49.80241" lon="6.41314"/><trkpt lat="49.80282" lon="6.41319"/><trkpt lat="49.80308" lon="6.41307"/><trkpt lat="49.80337" lon="6.4124"/><trkpt lat="49.80381" lon="6.41186"/><trkpt lat="49.80415" lon="6.41128"/><trkpt lat="49.80438" lon="6.41058"/><trkpt lat="49.80458" lon="6.41024"/><trkpt lat="49.80458" lon="6.41009"/><trkpt lat="49.80452" lon="6.40984"/><trkpt lat="49.8042" lon="6.4093"/><trkpt lat="49.80401" lon="6.40876"/><trkpt lat="49.80405" lon="6.40867"/><trkpt lat="49.80426" lon="6.40863"/><trkpt lat="49.80458" lon="6.40875"/><trkpt lat="49.80479" lon="6.40815"/></trkseg></trk>
</gpx>
