<?xml version="1.0" encoding="UTF-8"?>
<gpx version="1.1" creator="ian.lu/trails" xmlns="http://www.topografix.com/GPX/1/1">
<metadata><name>Auto-Pédestre Ermsdorf</name><link href="https://ian.lu/trails/"/></metadata>
<trk><name>Auto-Pédestre Ermsdorf</name><trkseg><trkpt lat="49.82693" lon="6.22449"/><trkpt lat="49.82643" lon="6.22583"/><trkpt lat="49.82623" lon="6.22604"/><trkpt lat="49.82612" lon="6.22632"/><trkpt lat="49.82586" lon="6.2266"/><trkpt lat="49.82536" lon="6.22696"/><trkpt lat="49.8251" lon="6.22732"/><trkpt lat="49.82467" lon="6.22856"/><trkpt lat="49.82462" lon="6.22889"/><trkpt lat="49.82479" lon="6.22895"/><trkpt lat="49.8256" lon="6.22886"/><trkpt lat="49.82601" lon="6.22892"/><trkpt lat="49.8266" lon="6.22947"/><trkpt lat="49.82737" lon="6.23043"/><trkpt lat="49.82757" lon="6.23108"/><trkpt lat="49.82812" lon="6.2323"/><trkpt lat="49.82848" lon="6.23284"/><trkpt lat="49.82909" lon="6.23326"/><trkpt lat="49.82933" lon="6.23383"/><trkpt lat="49.82935" lon="6.23405"/><trkpt lat="49.82901" lon="6.23573"/><trkpt lat="49.82944" lon="6.23578"/><trkpt lat="49.83017" lon="6.23572"/><trkpt lat="49.8307" lon="6.23543"/><trkpt lat="49.83176" lon="6.23441"/><trkpt lat="49.83312" lon="6.23269"/><trkpt lat="49.83364" lon="6.23231"/><trkpt lat="49.83414" lon="6.23217"/><trkpt lat="49.83459" lon="6.2322"/><trkpt lat="49.83541" lon="6.23259"/><trkpt lat="49.8357" lon="6.23265"/><trkpt lat="49.83669" lon="6.23247"/><trkpt lat="49.83748" lon="6.2324"/><trkpt lat="49.83872" lon="6.23279"/><trkpt lat="49.83903" lon="6.23303"/><trkpt lat="49.83991" lon="6.23387"/><trkpt lat="49.83993" lon="6.23402"/><trkpt lat="49.8398" lon="6.23445"/><trkpt lat="49.83983" lon="6.23469"/><trkpt lat="49.84023" lon="6.23514"/><trkpt lat="49.84079" lon="6.23555"/><trkpt lat="49.84147" lon="6.23618"/><trkpt lat="49.84235" lon="6.23647"/><trkpt lat="49.84262" lon="6.2367"/><trkpt lat="49.8428" lon="6.23697"/><trkpt lat="49.84299" lon="6.23785"/><trkpt lat="49.84292" lon="6.23605"/><trkpt lat="49.84328" lon="6.23423"/><trkpt lat="49.84314" lon="6.23114"/><trkpt lat="49.84297" lon="6.23058"/><trkpt lat="49.84265" lon="6.23015"/><trkpt lat="49.84171" lon="6.22968"/><trkpt lat="49.84108" lon="6.22987"/><trkpt lat="49.84084" lon="6.22976"/><trkpt lat="49.84051" lon="6.22937"/><trkpt lat="49.8404" lon="6.22885"/><trkpt lat="49.84027" lon="6.22864"/><trkpt lat="49.83947" lon="6.22802"/><trkpt lat="49.839" lon="6.22752"/><trkpt lat="49.83864" lon="6.2269"/><trkpt lat="49.8383" lon="6.22602"/><trkpt lat="49.83789" lon="6.22433"/><trkpt lat="49.83792" lon="6.22422"/><trkpt lat="49.83869" lon="6.22524"/><trkpt lat="49.83898" lon="6.22547"/><trkpt lat="49.8394" lon="6.22558"/><trkpt lat="49.8394" lon="6.22546"/><trkpt lat="49.83911" lon="6.22477"/><trkpt lat="49.83923" lon="6.22388"/><trkpt lat="49.83905" lon="6.22344"/><trkpt lat="49.83899" lon="6.22285"/><trkpt lat="49.83875" lon="6.22195"/><trkpt lat="49.83839" lon="6.22182"/><trkpt lat="49.83833" lon="6.2215"/><trkpt lat="49.83738" lon="6.22092"/><trkpt lat="49.83734" lon="6.22083"/><trkpt lat="49.83708" lon="6.2195"/><trkpt lat="49.83692" lon="6.219"/><trkpt lat="49.83658" lon="6.21676"/><trkpt lat="49.83633" lon="6.21673"/><trkpt lat="49.83592" lon="6.2155"/><trkpt lat="49.83369" lon="6.21738"/><trkpt lat="49.83319" lon="6.21768"/><trkpt lat="49.83283" lon="6.2184"/><trkpt lat="49.83263" lon="6.21858"/><trkpt lat="49.83107" lon="6.2183"/><trkpt lat="49.83006" lon="6.21785"/><trkpt lat="49.82956" lon="6.21943"/><trkpt lat="49.82938" lon="6.2208"/><trkpt lat="49.82924" lon="6.22083"/><trkpt lat="49.82882" lon="6.22064"/><trkpt lat="49.82855" lon="6.22112"/><trkpt lat="49.82851" lon="6.22134"/><trkpt lat="49.82863" lon="6.22206"/><trkpt lat="49.82882" lon="6.22229"/><trkpt lat="49.82921" lon="6.22318"/><trkpt lat="49.82917" lon="6.22326"/><trkpt lat="49.82903" lon="6.22312"/><trkpt lat="49.82893" lon="6.22314"/><trkpt lat="49.8288" lon="6.22328"/><trkpt lat="49.82861" lon="6.22328"/><trkpt lat="49.82771" lon="6.22273"/><trkpt lat="49.82753" lon="6.22268"/><trkpt lat="49.82742" lon="6.22274"/><trkpt lat="49.82732" lon="6.22294"/><trkpt lat="49.8272" lon="6.22378"/><trkpt lat="49.82692" lon="6.22447"/></trkseg></trk>
</gpx>
