<?xml version="1.0" encoding="UTF-8"?>
<gpx version="1.1" creator="ian.lu/trails" xmlns="http://www.topografix.com/GPX/1/1">
<metadata><name>Auto-Pédestre Eschweiler</name><link href="https://ian.lu/trails/"/></metadata>
<trk><name>Auto-Pédestre Eschweiler</name><trkseg><trkpt lat="49.996" lon="5.94793"/><trkpt lat="49.9957" lon="5.94766"/><trkpt lat="49.99569" lon="5.94758"/><trkpt lat="49.99555" lon="5.94763"/><trkpt lat="49.99485" lon="5.94827"/><trkpt lat="49.99483" lon="5.94822"/><trkpt lat="49.99434" lon="5.94881"/><trkpt lat="49.99332" lon="5.94934"/><trkpt lat="49.99253" lon="5.94998"/><trkpt lat="49.99244" lon="5.94981"/><trkpt lat="49.99227" lon="5.94865"/><trkpt lat="49.992" lon="5.94732"/><trkpt lat="49.99197" lon="5.9468"/><trkpt lat="49.99215" lon="5.94662"/><trkpt lat="49.99214" lon="5.94656"/><trkpt lat="49.9919" lon="5.94667"/><trkpt lat="49.99163" lon="5.94658"/><trkpt lat="49.99151" lon="5.94648"/><trkpt lat="49.9914" lon="5.94615"/><trkpt lat="49.99132" lon="5.94609"/><trkpt lat="49.99086" lon="5.94612"/><trkpt lat="49.99009" lon="5.94589"/><trkpt lat="49.98972" lon="5.94588"/><trkpt lat="49.98943" lon="5.946"/><trkpt lat="49.98913" lon="5.94624"/><trkpt lat="49.98871" lon="5.94688"/><trkpt lat="49.98847" lon="5.94698"/><trkpt lat="49.98822" lon="5.94773"/><trkpt lat="49.98782" lon="5.94808"/><trkpt lat="49.98754" lon="5.94818"/><trkpt lat="49.98711" lon="5.9481"/><trkpt lat="49.98703" lon="5.948"/><trkpt lat="49.98696" lon="5.94749"/><trkpt lat="49.98681" lon="5.94746"/><trkpt lat="49.98663" lon="5.94758"/><trkpt lat="49.98628" lon="5.94806"/><trkpt lat="49.98478" lon="5.95117"/><trkpt lat="49.98441" lon="5.95171"/><trkpt lat="49.98418" lon="5.95195"/><trkpt lat="49.98399" lon="5.95205"/><trkpt lat="49.98336" lon="5.95221"/><trkpt lat="49.98286" lon="5.95217"/><trkpt lat="49.98322" lon="5.95139"/><trkpt lat="49.98335" lon="5.95087"/><trkpt lat="49.98344" lon="5.9499"/><trkpt lat="49.98395" lon="5.9484"/><trkpt lat="49.98402" lon="5.94672"/><trkpt lat="49.98424" lon="5.94571"/><trkpt lat="49.98466" lon="5.94458"/><trkpt lat="49.98492" lon="5.94411"/><trkpt lat="49.98601" lon="5.94271"/><trkpt lat="49.9868" lon="5.94183"/><trkpt lat="49.98737" lon="5.94041"/><trkpt lat="49.98783" lon="5.93888"/><trkpt lat="49.98807" lon="5.93848"/><trkpt lat="49.98849" lon="5.93802"/><trkpt lat="49.98878" lon="5.93747"/><trkpt lat="49.98892" lon="5.93705"/><trkpt lat="49.98912" lon="5.93592"/><trkpt lat="49.99005" lon="5.93352"/><trkpt lat="49.99031" lon="5.93206"/><trkpt lat="49.99085" lon="5.9303"/><trkpt lat="49.99106" lon="5.92926"/><trkpt lat="49.99131" lon="5.92882"/><trkpt lat="49.99166" lon="5.9284"/><trkpt lat="49.9927" lon="5.92646"/><trkpt lat="49.99288" lon="5.92634"/><trkpt lat="49.9931" lon="5.92588"/><trkpt lat="49.99344" lon="5.92552"/><trkpt lat="49.99397" lon="5.92524"/><trkpt lat="49.99431" lon="5.92478"/><trkpt lat="49.99512" lon="5.92343"/><trkpt lat="49.9955" lon="5.9235"/><trkpt lat="49.9961" lon="5.92319"/><trkpt lat="49.99652" lon="5.92468"/><trkpt lat="49.99715" lon="5.92583"/><trkpt lat="49.99728" lon="5.92582"/><trkpt lat="49.99759" lon="5.92535"/><trkpt lat="49.99804" lon="5.92504"/><trkpt lat="49.99857" lon="5.92499"/><trkpt lat="49.99875" lon="5.92504"/><trkpt lat="49.99882" lon="5.92518"/><trkpt lat="49.99841" lon="5.92607"/><trkpt lat="49.9975" lon="5.92766"/><trkpt lat="49.9975" lon="5.92818"/><trkpt lat="49.99759" lon="5.92876"/><trkpt lat="49.99732" lon="5.92945"/><trkpt lat="49.99691" lon="5.9327"/><trkpt lat="49.99671" lon="5.93346"/><trkpt lat="49.99625" lon="5.93465"/><trkpt lat="49.99594" lon="5.93601"/><trkpt lat="49.99526" lon="5.93773"/><trkpt lat="49.99507" lon="5.93859"/><trkpt lat="49.99505" lon="5.93891"/><trkpt lat="49.99511" lon="5.93902"/><trkpt lat="49.99552" lon="5.93902"/><trkpt lat="49.99557" lon="5.93911"/><trkpt lat="49.99531" lon="5.93982"/><trkpt lat="49.99502" lon="5.9414"/><trkpt lat="49.99564" lon="5.94253"/><trkpt lat="49.99621" lon="5.94398"/><trkpt lat="49.99658" lon="5.94585"/><trkpt lat="49.99598" lon="5.94669"/><trkpt lat="49.99598" lon="5.94722"/><trkpt lat="49.99577" lon="5.9476"/><trkpt lat="49.99602" lon="5.94786"/><trkpt lat="49.996" lon="5.94793"/></trkseg></trk>
</gpx>
