<?xml version="1.0" encoding="UTF-8"?>
<gpx version="1.1" creator="ian.lu/trails" xmlns="http://www.topografix.com/GPX/1/1">
<metadata><name>Auto-Pédestre Esch-sur-Sûre</name><link href="https://ian.lu/trails/"/></metadata>
<trk><name>Auto-Pédestre Esch-sur-Sûre</name><trkseg><trkpt lat="49.90983" lon="5.9368"/><trkpt lat="49.90976" lon="5.93652"/><trkpt lat="49.90987" lon="5.93553"/><trkpt lat="49.9103" lon="5.93524"/><trkpt lat="49.91022" lon="5.93513"/><trkpt lat="49.90993" lon="5.93509"/><trkpt lat="49.90959" lon="5.93565"/><trkpt lat="49.90943" lon="5.93569"/><trkpt lat="49.90937" lon="5.93545"/><trkpt lat="49.9096" lon="5.93504"/><trkpt lat="49.90885" lon="5.93457"/><trkpt lat="49.9087" lon="5.93429"/><trkpt lat="49.90898" lon="5.9342"/><trkpt lat="49.90887" lon="5.93413"/><trkpt lat="49.90776" lon="5.93403"/><trkpt lat="49.9072" lon="5.93337"/><trkpt lat="49.90719" lon="5.93311"/><trkpt lat="49.90747" lon="5.93301"/><trkpt lat="49.90763" lon="5.93246"/><trkpt lat="49.90709" lon="5.9314"/><trkpt lat="49.90693" lon="5.9308"/><trkpt lat="49.90684" lon="5.93014"/><trkpt lat="49.90676" lon="5.9289"/><trkpt lat="49.90679" lon="5.92825"/><trkpt lat="49.90688" lon="5.92759"/><trkpt lat="49.90713" lon="5.92672"/><trkpt lat="49.90772" lon="5.92536"/><trkpt lat="49.9082" lon="5.92469"/><trkpt lat="49.90936" lon="5.9237"/><trkpt lat="49.90948" lon="5.92375"/><trkpt lat="49.90974" lon="5.92354"/><trkpt lat="49.90984" lon="5.92345"/><trkpt lat="49.90986" lon="5.9233"/><trkpt lat="49.91035" lon="5.92281"/><trkpt lat="49.91106" lon="5.92244"/><trkpt lat="49.91129" lon="5.92245"/><trkpt lat="49.91161" lon="5.92265"/><trkpt lat="49.91178" lon="5.92295"/><trkpt lat="49.91188" lon="5.92343"/><trkpt lat="49.91184" lon="5.9239"/><trkpt lat="49.91155" lon="5.92465"/><trkpt lat="49.91096" lon="5.92536"/><trkpt lat="49.9106" lon="5.92596"/><trkpt lat="49.91035" lon="5.92683"/><trkpt lat="49.91031" lon="5.92713"/><trkpt lat="49.91037" lon="5.92716"/><trkpt lat="49.91107" lon="5.92581"/><trkpt lat="49.91123" lon="5.92568"/><trkpt lat="49.91159" lon="5.92553"/><trkpt lat="49.91191" lon="5.92512"/><trkpt lat="49.91224" lon="5.92439"/><trkpt lat="49.91238" lon="5.9238"/><trkpt lat="49.91313" lon="5.92229"/><trkpt lat="49.91344" lon="5.92069"/><trkpt lat="49.91341" lon="5.91943"/><trkpt lat="49.91364" lon="5.91845"/><trkpt lat="49.91359" lon="5.918"/><trkpt lat="49.91396" lon="5.91763"/><trkpt lat="49.91453" lon="5.91733"/><trkpt lat="49.91495" lon="5.9172"/><trkpt lat="49.9153" lon="5.91718"/><trkpt lat="49.91581" lon="5.91727"/><trkpt lat="49.91637" lon="5.91724"/><trkpt lat="49.91697" lon="5.91732"/><trkpt lat="49.91704" lon="5.91724"/><trkpt lat="49.91678" lon="5.91657"/><trkpt lat="49.91626" lon="5.91609"/><trkpt lat="49.91616" lon="5.91558"/><trkpt lat="49.9159" lon="5.91521"/><trkpt lat="49.91552" lon="5.91516"/><trkpt lat="49.91458" lon="5.9146"/><trkpt lat="49.91383" lon="5.91445"/><trkpt lat="49.91375" lon="5.91447"/><trkpt lat="49.91368" lon="5.91466"/><trkpt lat="49.91351" lon="5.91483"/><trkpt lat="49.91306" lon="5.91473"/><trkpt lat="49.91262" lon="5.91449"/><trkpt lat="49.91231" lon="5.91468"/><trkpt lat="49.91164" lon="5.91478"/><trkpt lat="49.91131" lon="5.9149"/><trkpt lat="49.91109" lon="5.91451"/><trkpt lat="49.91094" lon="5.91452"/><trkpt lat="49.9108" lon="5.91434"/><trkpt lat="49.91099" lon="5.91436"/><trkpt lat="49.91109" lon="5.91425"/><trkpt lat="49.91135" lon="5.91424"/><trkpt lat="49.91167" lon="5.91402"/><trkpt lat="49.91187" lon="5.9136"/><trkpt lat="49.91216" lon="5.91348"/><trkpt lat="49.91242" lon="5.91301"/><trkpt lat="49.91259" lon="5.91244"/><trkpt lat="49.91281" lon="5.91109"/><trkpt lat="49.91295" lon="5.90886"/><trkpt lat="49.91306" lon="5.9085"/><trkpt lat="49.91323" lon="5.90835"/><trkpt lat="49.91486" lon="5.90963"/><trkpt lat="49.91505" lon="5.90998"/><trkpt lat="49.91537" lon="5.91027"/><trkpt lat="49.91552" lon="5.91057"/><trkpt lat="49.91542" lon="5.91127"/><trkpt lat="49.91568" lon="5.91228"/><trkpt lat="49.91529" lon="5.91232"/><trkpt lat="49.91496" lon="5.91212"/><trkpt lat="49.91463" lon="5.91202"/><trkpt lat="49.91427" lon="5.91221"/><trkpt lat="49.91408" lon="5.9126"/><trkpt lat="49.91398" lon="5.91307"/><trkpt lat="49.91404" lon="5.91362"/><trkpt lat="49.91418" lon="5.91397"/><trkpt lat="49.91533" lon="5.91442"/><trkpt lat="49.91546" lon="5.9144"/><trkpt lat="49.91578" lon="5.91417"/><trkpt lat="49.916" lon="5.91418"/><trkpt lat="49.91635" lon="5.91451"/><trkpt lat="49.91666" lon="5.91495"/><trkpt lat="49.9169" lon="5.91501"/><trkpt lat="49.91791" lon="5.91563"/><trkpt lat="49.91881" lon="5.91651"/><trkpt lat="49.91921" lon="5.91617"/><trkpt lat="49.91948" lon="5.91698"/><trkpt lat="49.91988" lon="5.91779"/><trkpt lat="49.92036" lon="5.91826"/><trkpt lat="49.92101" lon="5.91935"/><trkpt lat="49.92139" lon="5.92038"/><trkpt lat="49.92211" lon="5.92306"/><trkpt lat="49.92284" lon="5.92506"/><trkpt lat="49.92328" lon="5.92599"/><trkpt lat="49.92353" lon="5.92679"/><trkpt lat="49.92361" lon="5.92717"/><trkpt lat="49.92372" lon="5.92896"/><trkpt lat="49.92368" lon="5.93011"/><trkpt lat="49.92244" lon="5.92975"/><trkpt lat="49.92207" lon="5.9298"/><trkpt lat="49.9211" lon="5.93017"/><trkpt lat="49.92052" lon="5.9301"/><trkpt lat="49.91992" lon="5.92991"/><trkpt lat="49.91928" lon="5.92986"/><trkpt lat="49.91916" lon="5.9298"/><trkpt lat="49.91882" lon="5.92939"/><trkpt lat="49.9186" lon="5.92925"/><trkpt lat="49.91773" lon="5.92813"/><trkpt lat="49.91711" lon="5.92773"/><trkpt lat="49.91506" lon="5.92743"/><trkpt lat="49.91483" lon="5.92748"/><trkpt lat="49.9145" lon="5.92781"/><trkpt lat="49.91432" lon="5.92811"/><trkpt lat="49.91385" lon="5.92848"/><trkpt lat="49.9137" lon="5.92851"/><trkpt lat="49.91354" lon="5.92844"/><trkpt lat="49.91311" lon="5.92857"/><trkpt lat="49.9129" lon="5.92874"/><trkpt lat="49.9124" lon="5.92934"/><trkpt lat="49.91176" lon="5.93098"/><trkpt lat="49.91176" lon="5.93123"/><trkpt lat="49.91153" lon="5.93215"/><trkpt lat="49.91154" lon="5.93349"/><trkpt lat="49.91179" lon="5.93433"/><trkpt lat="49.91188" lon="5.93488"/><trkpt lat="49.91181" lon="5.935"/><trkpt lat="49.91171" lon="5.93503"/><trkpt lat="49.91141" lon="5.93492"/><trkpt lat="49.91101" lon="5.93497"/><trkpt lat="49.9103" lon="5.93524"/><trkpt lat="49.90988" lon="5.93549"/><trkpt lat="49.90976" lon="5.93661"/><trkpt lat="49.90983" lon="5.9368"/></trkseg></trk>
</gpx>
