<?xml version="1.0" encoding="UTF-8"?>
<gpx version="1.1" creator="ian.lu/trails" xmlns="http://www.topografix.com/GPX/1/1">
<metadata><name>Auto-Pédestre Goesdorf</name><link href="https://ian.lu/trails/"/></metadata>
<trk><name>Auto-Pédestre Goesdorf</name><trkseg><trkpt lat="49.92069" lon="5.97057"/><trkpt lat="49.92069" lon="5.96895"/><trkpt lat="49.9202" lon="5.96903"/><trkpt lat="49.9189" lon="5.97099"/><trkpt lat="49.91841" lon="5.97281"/><trkpt lat="49.91829" lon="5.97298"/><trkpt lat="49.91778" lon="5.97327"/><trkpt lat="49.91739" lon="5.97305"/><trkpt lat="49.91722" lon="5.97303"/><trkpt lat="49.91678" lon="5.97313"/><trkpt lat="49.91624" lon="5.97339"/><trkpt lat="49.91608" lon="5.97335"/><trkpt lat="49.91528" lon="5.9729"/><trkpt lat="49.91448" lon="5.97267"/><trkpt lat="49.91379" lon="5.97257"/><trkpt lat="49.91346" lon="5.97236"/><trkpt lat="49.91305" lon="5.9717"/><trkpt lat="49.91284" lon="5.97101"/><trkpt lat="49.91281" lon="5.97025"/><trkpt lat="49.91286" lon="5.96979"/><trkpt lat="49.913" lon="5.96944"/><trkpt lat="49.91297" lon="5.96935"/><trkpt lat="49.91262" lon="5.96939"/><trkpt lat="49.91242" lon="5.96952"/><trkpt lat="49.9123" lon="5.96969"/><trkpt lat="49.91214" lon="5.97012"/><trkpt lat="49.91212" lon="5.97099"/><trkpt lat="49.9123" lon="5.97208"/><trkpt lat="49.9127" lon="5.97316"/><trkpt lat="49.91304" lon="5.97431"/><trkpt lat="49.91309" lon="5.97506"/><trkpt lat="49.91292" lon="5.97651"/><trkpt lat="49.91335" lon="5.97673"/><trkpt lat="49.9134" lon="5.97685"/><trkpt lat="49.91324" lon="5.97711"/><trkpt lat="49.91343" lon="5.97705"/><trkpt lat="49.91338" lon="5.97721"/><trkpt lat="49.91356" lon="5.97715"/><trkpt lat="49.91349" lon="5.97736"/><trkpt lat="49.91358" lon="5.97739"/><trkpt lat="49.91342" lon="5.97868"/><trkpt lat="49.91285" lon="5.9798"/><trkpt lat="49.91281" lon="5.98059"/><trkpt lat="49.913" lon="5.98126"/><trkpt lat="49.91332" lon="5.98168"/><trkpt lat="49.91364" lon="5.98277"/><trkpt lat="49.91465" lon="5.98493"/><trkpt lat="49.91484" lon="5.98552"/><trkpt lat="49.91535" lon="5.98583"/><trkpt lat="49.91581" lon="5.9859"/><trkpt lat="49.91588" lon="5.98603"/><trkpt lat="49.91573" lon="5.98667"/><trkpt lat="49.91537" lon="5.98731"/><trkpt lat="49.91541" lon="5.98786"/><trkpt lat="49.91562" lon="5.98901"/><trkpt lat="49.91597" lon="5.99031"/><trkpt lat="49.91608" lon="5.99052"/><trkpt lat="49.9164" lon="5.99161"/><trkpt lat="49.9167" lon="5.99205"/><trkpt lat="49.91686" lon="5.99357"/><trkpt lat="49.91725" lon="5.99432"/><trkpt lat="49.91746" lon="5.9945"/><trkpt lat="49.91777" lon="5.99455"/><trkpt lat="49.91772" lon="5.99485"/><trkpt lat="49.91751" lon="5.99528"/><trkpt lat="49.91757" lon="5.99632"/><trkpt lat="49.91785" lon="5.99662"/><trkpt lat="49.91793" lon="5.99709"/><trkpt lat="49.91874" lon="5.99738"/><trkpt lat="49.92072" lon="5.99879"/><trkpt lat="49.92084" lon="5.99894"/><trkpt lat="49.92092" lon="5.99943"/><trkpt lat="49.92104" lon="5.99961"/><trkpt lat="49.92119" lon="5.99964"/><trkpt lat="49.92103" lon="5.99786"/><trkpt lat="49.92097" lon="5.99597"/><trkpt lat="49.92111" lon="5.99468"/><trkpt lat="49.92122" lon="5.99239"/><trkpt lat="49.92118" lon="5.99229"/><trkpt lat="49.92141" lon="5.99121"/><trkpt lat="49.92147" lon="5.99047"/><trkpt lat="49.92145" lon="5.98967"/><trkpt lat="49.92134" lon="5.98928"/><trkpt lat="49.92125" lon="5.98926"/><trkpt lat="49.92111" lon="5.98971"/><trkpt lat="49.92108" lon="5.99015"/><trkpt lat="49.92102" lon="5.99022"/><trkpt lat="49.92089" lon="5.99019"/><trkpt lat="49.92076" lon="5.99006"/><trkpt lat="49.92045" lon="5.98948"/><trkpt lat="49.92003" lon="5.98903"/><trkpt lat="49.91989" lon="5.98873"/><trkpt lat="49.91934" lon="5.98799"/><trkpt lat="49.91928" lon="5.98661"/><trkpt lat="49.91931" lon="5.98536"/><trkpt lat="49.91897" lon="5.9854"/><trkpt lat="49.91856" lon="5.98556"/><trkpt lat="49.91846" lon="5.98548"/><trkpt lat="49.91838" lon="5.98318"/><trkpt lat="49.91822" lon="5.98239"/><trkpt lat="49.91805" lon="5.98033"/><trkpt lat="49.91815" lon="5.97873"/><trkpt lat="49.91842" lon="5.9776"/><trkpt lat="49.91896" lon="5.97608"/><trkpt lat="49.91937" lon="5.97424"/><trkpt lat="49.91967" lon="5.9721"/><trkpt lat="49.92005" lon="5.97134"/><trkpt lat="49.92065" lon="5.97048"/><trkpt lat="49.92069" lon="5.97057"/></trkseg></trk>
</gpx>
