<?xml version="1.0" encoding="UTF-8"?>
<gpx version="1.1" creator="ian.lu/trails" xmlns="http://www.topografix.com/GPX/1/1">
<metadata><name>Auto-Pédestre Grevenmacher</name><link href="https://ian.lu/trails/"/></metadata>
<trk><name>Auto-Pédestre Grevenmacher</name><trkseg><trkpt lat="49.67853" lon="6.44614"/><trkpt lat="49.67817" lon="6.4458"/><trkpt lat="49.67782" lon="6.4456"/><trkpt lat="49.67714" lon="6.44482"/><trkpt lat="49.67698" lon="6.44443"/><trkpt lat="49.67542" lon="6.44194"/><trkpt lat="49.67522" lon="6.44152"/><trkpt lat="49.67539" lon="6.44113"/><trkpt lat="49.67532" lon="6.44098"/><trkpt lat="49.67543" lon="6.44086"/><trkpt lat="49.67538" lon="6.44063"/><trkpt lat="49.6755" lon="6.44057"/><trkpt lat="49.67561" lon="6.44063"/><trkpt lat="49.67567" lon="6.44046"/><trkpt lat="49.67576" lon="6.44049"/><trkpt lat="49.67585" lon="6.44039"/><trkpt lat="49.67723" lon="6.43754"/><trkpt lat="49.6772" lon="6.43737"/><trkpt lat="49.67735" lon="6.43706"/><trkpt lat="49.67659" lon="6.43639"/><trkpt lat="49.67473" lon="6.43524"/><trkpt lat="49.67466" lon="6.43509"/><trkpt lat="49.67448" lon="6.43494"/><trkpt lat="49.67428" lon="6.43437"/><trkpt lat="49.67409" lon="6.43409"/><trkpt lat="49.67259" lon="6.43259"/><trkpt lat="49.6725" lon="6.43213"/><trkpt lat="49.67241" lon="6.43208"/><trkpt lat="49.67218" lon="6.43217"/><trkpt lat="49.67176" lon="6.43125"/><trkpt lat="49.67177" lon="6.43106"/><trkpt lat="49.67184" lon="6.43097"/><trkpt lat="49.67149" lon="6.43038"/><trkpt lat="49.67088" lon="6.42909"/><trkpt lat="49.66979" lon="6.42753"/><trkpt lat="49.66929" lon="6.42715"/><trkpt lat="49.669" lon="6.42634"/><trkpt lat="49.66881" lon="6.42601"/><trkpt lat="49.66836" lon="6.42576"/><trkpt lat="49.66728" lon="6.42441"/><trkpt lat="49.66672" lon="6.42404"/><trkpt lat="49.66616" lon="6.42341"/><trkpt lat="49.66575" lon="6.42312"/><trkpt lat="49.66528" lon="6.42292"/><trkpt lat="49.665" lon="6.42267"/><trkpt lat="49.66482" lon="6.42193"/><trkpt lat="49.66475" lon="6.42186"/><trkpt lat="49.66461" lon="6.4221"/><trkpt lat="49.6645" lon="6.42269"/><trkpt lat="49.66418" lon="6.42288"/><trkpt lat="49.66334" lon="6.42303"/><trkpt lat="49.66296" lon="6.42306"/><trkpt lat="49.66265" lon="6.42301"/><trkpt lat="49.66247" lon="6.42315"/><trkpt lat="49.66247" lon="6.42297"/><trkpt lat="49.66275" lon="6.4226"/><trkpt lat="49.6623" lon="6.42279"/><trkpt lat="49.66211" lon="6.4232"/><trkpt lat="49.66158" lon="6.42304"/><trkpt lat="49.66081" lon="6.42296"/><trkpt lat="49.6592" lon="6.42339"/><trkpt lat="49.65891" lon="6.42352"/><trkpt lat="49.65882" lon="6.42363"/><trkpt lat="49.65867" lon="6.42356"/><trkpt lat="49.65831" lon="6.42384"/><trkpt lat="49.65815" lon="6.42381"/><trkpt lat="49.65813" lon="6.42366"/><trkpt lat="49.65821" lon="6.42347"/><trkpt lat="49.65851" lon="6.4231"/><trkpt lat="49.65874" lon="6.42295"/><trkpt lat="49.65888" lon="6.4227"/><trkpt lat="49.65889" lon="6.42255"/><trkpt lat="49.65874" lon="6.42235"/><trkpt lat="49.65871" lon="6.4222"/><trkpt lat="49.65885" lon="6.42157"/><trkpt lat="49.65896" lon="6.42144"/><trkpt lat="49.65948" lon="6.42142"/><trkpt lat="49.65995" lon="6.42117"/><trkpt lat="49.66036" lon="6.42116"/><trkpt lat="49.66145" lon="6.42122"/><trkpt lat="49.66199" lon="6.42158"/><trkpt lat="49.66226" lon="6.42162"/><trkpt lat="49.6626" lon="6.42153"/><trkpt lat="49.66338" lon="6.42118"/><trkpt lat="49.66356" lon="6.421"/><trkpt lat="49.66367" lon="6.42101"/><trkpt lat="49.66399" lon="6.42122"/><trkpt lat="49.66403" lon="6.42115"/><trkpt lat="49.6641" lon="6.4214"/><trkpt lat="49.66431" lon="6.42143"/><trkpt lat="49.66437" lon="6.42123"/><trkpt lat="49.66427" lon="6.41991"/><trkpt lat="49.66434" lon="6.41988"/><trkpt lat="49.66479" lon="6.42071"/><trkpt lat="49.66475" lon="6.42036"/><trkpt lat="49.66491" lon="6.4206"/><trkpt lat="49.66535" lon="6.421"/><trkpt lat="49.66557" lon="6.42098"/><trkpt lat="49.66589" lon="6.42073"/><trkpt lat="49.66613" lon="6.42102"/><trkpt lat="49.6661" lon="6.42119"/><trkpt lat="49.66629" lon="6.42123"/><trkpt lat="49.66639" lon="6.42147"/><trkpt lat="49.66689" lon="6.42186"/><trkpt lat="49.66824" lon="6.42331"/><trkpt lat="49.66877" lon="6.42368"/><trkpt lat="49.66971" lon="6.42474"/><trkpt lat="49.66989" lon="6.42416"/><trkpt lat="49.67019" lon="6.42422"/><trkpt lat="49.67057" lon="6.42455"/><trkpt lat="49.67105" lon="6.42526"/><trkpt lat="49.67078" lon="6.4261"/><trkpt lat="49.67051" lon="6.42669"/><trkpt lat="49.67053" lon="6.42676"/><trkpt lat="49.67227" lon="6.4296"/><trkpt lat="49.67318" lon="6.43142"/><trkpt lat="49.67346" lon="6.43179"/><trkpt lat="49.67437" lon="6.43253"/><trkpt lat="49.67544" lon="6.43314"/><trkpt lat="49.67597" lon="6.43336"/><trkpt lat="49.67616" lon="6.43304"/><trkpt lat="49.6774" lon="6.43417"/><trkpt lat="49.67801" lon="6.43462"/><trkpt lat="49.67845" lon="6.43576"/><trkpt lat="49.67841" lon="6.43592"/><trkpt lat="49.67857" lon="6.43618"/><trkpt lat="49.67869" lon="6.43624"/><trkpt lat="49.67905" lon="6.43726"/><trkpt lat="49.6793" lon="6.43758"/><trkpt lat="49.67927" lon="6.43804"/><trkpt lat="49.67937" lon="6.4381"/><trkpt lat="49.67931" lon="6.43833"/><trkpt lat="49.67919" lon="6.43848"/><trkpt lat="49.67957" lon="6.43909"/><trkpt lat="49.67921" lon="6.43966"/><trkpt lat="49.67904" lon="6.4401"/><trkpt lat="49.6794" lon="6.44087"/><trkpt lat="49.67939" lon="6.44119"/><trkpt lat="49.67894" lon="6.44193"/><trkpt lat="49.6784" lon="6.44266"/><trkpt lat="49.67839" lon="6.44277"/><trkpt lat="49.67934" lon="6.44398"/><trkpt lat="49.67935" lon="6.44407"/><trkpt lat="49.67851" lon="6.44576"/><trkpt lat="49.67859" lon="6.44585"/><trkpt lat="49.67856" lon="6.44594"/><trkpt lat="49.67869" lon="6.44604"/><trkpt lat="49.67864" lon="6.4462"/><trkpt lat="49.67856" lon="6.44617"/></trkseg></trk>
</gpx>
