<?xml version="1.0" encoding="UTF-8"?>
<gpx version="1.1" creator="ian.lu/trails" xmlns="http://www.topografix.com/GPX/1/1">
<metadata><name>Auto-Pédestre Grundhof</name><link href="https://ian.lu/trails/"/></metadata>
<trk><name>Auto-Pédestre Grundhof</name><trkseg><trkpt lat="49.8361" lon="6.33089"/><trkpt lat="49.83592" lon="6.33001"/><trkpt lat="49.83573" lon="6.32801"/><trkpt lat="49.83575" lon="6.32726"/><trkpt lat="49.83595" lon="6.32616"/><trkpt lat="49.83652" lon="6.32483"/><trkpt lat="49.8381" lon="6.3218"/><trkpt lat="49.8386" lon="6.32099"/><trkpt lat="49.8395" lon="6.32013"/><trkpt lat="49.8401" lon="6.31977"/><trkpt lat="49.84057" lon="6.3196"/><trkpt lat="49.84294" lon="6.3194"/><trkpt lat="49.84363" lon="6.31952"/><trkpt lat="49.84514" lon="6.31994"/><trkpt lat="49.84566" lon="6.32031"/><trkpt lat="49.84658" lon="6.3211"/><trkpt lat="49.84707" lon="6.32134"/><trkpt lat="49.84732" lon="6.32136"/><trkpt lat="49.84878" lon="6.32113"/><trkpt lat="49.84887" lon="6.32122"/><trkpt lat="49.84967" lon="6.32157"/><trkpt lat="49.85019" lon="6.32159"/><trkpt lat="49.85086" lon="6.32147"/><trkpt lat="49.85144" lon="6.32171"/><trkpt lat="49.8522" lon="6.32148"/><trkpt lat="49.85227" lon="6.32135"/><trkpt lat="49.85299" lon="6.32079"/><trkpt lat="49.85317" lon="6.32048"/><trkpt lat="49.85314" lon="6.31996"/><trkpt lat="49.85291" lon="6.31958"/><trkpt lat="49.85286" lon="6.31943"/><trkpt lat="49.85294" lon="6.31936"/><trkpt lat="49.85292" lon="6.31927"/><trkpt lat="49.85275" lon="6.31889"/><trkpt lat="49.85298" lon="6.31825"/><trkpt lat="49.85336" lon="6.31651"/><trkpt lat="49.85324" lon="6.31637"/><trkpt lat="49.85208" lon="6.31598"/><trkpt lat="49.85156" lon="6.31465"/><trkpt lat="49.85144" lon="6.31459"/><trkpt lat="49.85135" lon="6.31463"/><trkpt lat="49.85087" lon="6.31525"/><trkpt lat="49.85113" lon="6.31463"/><trkpt lat="49.85071" lon="6.3148"/><trkpt lat="49.85047" lon="6.31482"/><trkpt lat="49.8496" lon="6.31458"/><trkpt lat="49.84876" lon="6.31445"/><trkpt lat="49.84817" lon="6.31475"/><trkpt lat="49.84775" lon="6.31516"/><trkpt lat="49.84758" lon="6.31521"/><trkpt lat="49.84743" lon="6.31513"/><trkpt lat="49.84715" lon="6.31419"/><trkpt lat="49.84714" lon="6.31351"/><trkpt lat="49.84702" lon="6.31265"/><trkpt lat="49.84706" lon="6.31027"/><trkpt lat="49.84697" lon="6.30958"/><trkpt lat="49.84697" lon="6.3076"/><trkpt lat="49.84691" lon="6.30711"/><trkpt lat="49.84656" lon="6.30583"/><trkpt lat="49.84635" lon="6.3054"/><trkpt lat="49.84612" lon="6.30537"/><trkpt lat="49.84618" lon="6.30559"/><trkpt lat="49.84577" lon="6.30525"/><trkpt lat="49.84537" lon="6.30516"/><trkpt lat="49.84545" lon="6.30654"/><trkpt lat="49.84578" lon="6.30753"/><trkpt lat="49.84572" lon="6.30883"/><trkpt lat="49.84547" lon="6.30955"/><trkpt lat="49.84476" lon="6.31079"/><trkpt lat="49.84468" lon="6.31178"/><trkpt lat="49.84444" lon="6.31181"/><trkpt lat="49.84418" lon="6.31231"/><trkpt lat="49.84409" lon="6.31241"/><trkpt lat="49.84385" lon="6.31251"/><trkpt lat="49.84376" lon="6.31287"/><trkpt lat="49.84358" lon="6.31299"/><trkpt lat="49.84344" lon="6.31332"/><trkpt lat="49.84297" lon="6.31316"/><trkpt lat="49.8428" lon="6.31295"/><trkpt lat="49.84249" lon="6.31274"/><trkpt lat="49.84239" lon="6.3121"/><trkpt lat="49.8417" lon="6.31273"/><trkpt lat="49.84144" lon="6.31285"/><trkpt lat="49.84113" lon="6.31311"/><trkpt lat="49.84022" lon="6.31417"/><trkpt lat="49.83991" lon="6.31446"/><trkpt lat="49.8394" lon="6.31478"/><trkpt lat="49.83931" lon="6.31497"/><trkpt lat="49.8389" lon="6.31537"/><trkpt lat="49.83876" lon="6.31544"/><trkpt lat="49.83802" lon="6.31624"/><trkpt lat="49.83785" lon="6.31631"/><trkpt lat="49.83772" lon="6.31626"/><trkpt lat="49.83711" lon="6.31698"/><trkpt lat="49.83643" lon="6.31758"/><trkpt lat="49.83566" lon="6.31813"/><trkpt lat="49.83473" lon="6.31921"/><trkpt lat="49.83434" lon="6.32"/><trkpt lat="49.83444" lon="6.32024"/><trkpt lat="49.8344" lon="6.3207"/><trkpt lat="49.83399" lon="6.32132"/><trkpt lat="49.83387" lon="6.32179"/><trkpt lat="49.83341" lon="6.32286"/><trkpt lat="49.8329" lon="6.32361"/><trkpt lat="49.83288" lon="6.32395"/><trkpt lat="49.83295" lon="6.32448"/><trkpt lat="49.83287" lon="6.3245"/><trkpt lat="49.83278" lon="6.32433"/><trkpt lat="49.83272" lon="6.32403"/><trkpt lat="49.83254" lon="6.32365"/><trkpt lat="49.83248" lon="6.32362"/><trkpt lat="49.83234" lon="6.32379"/><trkpt lat="49.8321" lon="6.32382"/><trkpt lat="49.8319" lon="6.32403"/><trkpt lat="49.83191" lon="6.3241"/><trkpt lat="49.83216" lon="6.32402"/><trkpt lat="49.83241" lon="6.32417"/><trkpt lat="49.83268" lon="6.32541"/><trkpt lat="49.83316" lon="6.32625"/><trkpt lat="49.8334" lon="6.32656"/><trkpt lat="49.83351" lon="6.3266"/><trkpt lat="49.83347" lon="6.32623"/><trkpt lat="49.83389" lon="6.32471"/><trkpt lat="49.83416" lon="6.32415"/><trkpt lat="49.83449" lon="6.32369"/><trkpt lat="49.83526" lon="6.32165"/><trkpt lat="49.83556" lon="6.32109"/><trkpt lat="49.83587" lon="6.32067"/><trkpt lat="49.8373" lon="6.31931"/><trkpt lat="49.83811" lon="6.31865"/><trkpt lat="49.83844" lon="6.31818"/><trkpt lat="49.83887" lon="6.31782"/><trkpt lat="49.84123" lon="6.31676"/><trkpt lat="49.84255" lon="6.31639"/><trkpt lat="49.84274" lon="6.31638"/><trkpt lat="49.84305" lon="6.3165"/><trkpt lat="49.84212" lon="6.31675"/><trkpt lat="49.84122" lon="6.31709"/><trkpt lat="49.83993" lon="6.31802"/><trkpt lat="49.83923" lon="6.31868"/><trkpt lat="49.83842" lon="6.31959"/><trkpt lat="49.83719" lon="6.32131"/><trkpt lat="49.8367" lon="6.32297"/><trkpt lat="49.83614" lon="6.32435"/><trkpt lat="49.83606" lon="6.32472"/><trkpt lat="49.8357" lon="6.32565"/><trkpt lat="49.83522" lon="6.32655"/><trkpt lat="49.83511" lon="6.32686"/><trkpt lat="49.83513" lon="6.32728"/><trkpt lat="49.83531" lon="6.32816"/><trkpt lat="49.8353" lon="6.32853"/><trkpt lat="49.83513" lon="6.32885"/><trkpt lat="49.83501" lon="6.32896"/><trkpt lat="49.83463" lon="6.32908"/><trkpt lat="49.83278" lon="6.32917"/><trkpt lat="49.83219" lon="6.32952"/><trkpt lat="49.8318" lon="6.32965"/><trkpt lat="49.83179" lon="6.32977"/><trkpt lat="49.8333" lon="6.32967"/><trkpt lat="49.83377" lon="6.32976"/><trkpt lat="49.83469" lon="6.33007"/><trkpt lat="49.835" lon="6.33005"/><trkpt lat="49.83571" lon="6.32985"/><trkpt lat="49.8358" lon="6.33006"/><trkpt lat="49.8359" lon="6.33004"/><trkpt lat="49.83607" lon="6.33092"/></trkseg></trk>
</gpx>
