<?xml version="1.0" encoding="UTF-8"?>
<gpx version="1.1" creator="ian.lu/trails" xmlns="http://www.topografix.com/GPX/1/1">
<metadata><name>Auto-Pédestre Harlange</name><link href="https://ian.lu/trails/"/></metadata>
<trk><name>Auto-Pédestre Harlange</name><trkseg><trkpt lat="49.93044" lon="5.78688"/><trkpt lat="49.93045" lon="5.7865"/><trkpt lat="49.93059" lon="5.78592"/><trkpt lat="49.93056" lon="5.78567"/><trkpt lat="49.92952" lon="5.78405"/><trkpt lat="49.92901" lon="5.78297"/><trkpt lat="49.92804" lon="5.78126"/><trkpt lat="49.92744" lon="5.78057"/><trkpt lat="49.92713" lon="5.7801"/><trkpt lat="49.92657" lon="5.77968"/><trkpt lat="49.92601" lon="5.77941"/><trkpt lat="49.92579" lon="5.77946"/><trkpt lat="49.92544" lon="5.7797"/><trkpt lat="49.9249" lon="5.77976"/><trkpt lat="49.92376" lon="5.77972"/><trkpt lat="49.92349" lon="5.77964"/><trkpt lat="49.92308" lon="5.77861"/><trkpt lat="49.92312" lon="5.77817"/><trkpt lat="49.92298" lon="5.77732"/><trkpt lat="49.92269" lon="5.77647"/><trkpt lat="49.92222" lon="5.7754"/><trkpt lat="49.92146" lon="5.77403"/><trkpt lat="49.92076" lon="5.77325"/><trkpt lat="49.92036" lon="5.77326"/><trkpt lat="49.91994" lon="5.77317"/><trkpt lat="49.91935" lon="5.77345"/><trkpt lat="49.91869" lon="5.77485"/><trkpt lat="49.91823" lon="5.77538"/><trkpt lat="49.91811" lon="5.77612"/><trkpt lat="49.91681" lon="5.77517"/><trkpt lat="49.9161" lon="5.77505"/><trkpt lat="49.91561" lon="5.77488"/><trkpt lat="49.91517" lon="5.7745"/><trkpt lat="49.91474" lon="5.77427"/><trkpt lat="49.91431" lon="5.77414"/><trkpt lat="49.91353" lon="5.77484"/><trkpt lat="49.91323" lon="5.775"/><trkpt lat="49.91269" lon="5.77556"/><trkpt lat="49.91241" lon="5.77569"/><trkpt lat="49.91196" lon="5.77574"/><trkpt lat="49.9115" lon="5.77611"/><trkpt lat="49.91065" lon="5.77585"/><trkpt lat="49.91021" lon="5.77512"/><trkpt lat="49.91012" lon="5.77506"/><trkpt lat="49.91007" lon="5.77557"/><trkpt lat="49.90969" lon="5.77598"/><trkpt lat="49.90904" lon="5.7769"/><trkpt lat="49.90857" lon="5.77836"/><trkpt lat="49.90847" lon="5.77854"/><trkpt lat="49.90818" lon="5.77877"/><trkpt lat="49.90762" lon="5.77896"/><trkpt lat="49.90743" lon="5.77895"/><trkpt lat="49.90662" lon="5.77848"/><trkpt lat="49.90577" lon="5.77841"/><trkpt lat="49.90581" lon="5.77828"/><trkpt lat="49.90608" lon="5.778"/><trkpt lat="49.90694" lon="5.77744"/><trkpt lat="49.90709" lon="5.77717"/><trkpt lat="49.90718" lon="5.77679"/><trkpt lat="49.90721" lon="5.77539"/><trkpt lat="49.90681" lon="5.77391"/><trkpt lat="49.90715" lon="5.77314"/><trkpt lat="49.90789" lon="5.77092"/><trkpt lat="49.90823" lon="5.77033"/><trkpt lat="49.90882" lon="5.76959"/><trkpt lat="49.90935" lon="5.76924"/><trkpt lat="49.91057" lon="5.76912"/><trkpt lat="49.91078" lon="5.76905"/><trkpt lat="49.91114" lon="5.76871"/><trkpt lat="49.9114" lon="5.76798"/><trkpt lat="49.91228" lon="5.76739"/><trkpt lat="49.91271" lon="5.76693"/><trkpt lat="49.91293" lon="5.76686"/><trkpt lat="49.91335" lon="5.76688"/><trkpt lat="49.91389" lon="5.76678"/><trkpt lat="49.91481" lon="5.76627"/><trkpt lat="49.91521" lon="5.76575"/><trkpt lat="49.91536" lon="5.76539"/><trkpt lat="49.91558" lon="5.76448"/><trkpt lat="49.91585" lon="5.76448"/><trkpt lat="49.91593" lon="5.76443"/><trkpt lat="49.91624" lon="5.76384"/><trkpt lat="49.91699" lon="5.76285"/><trkpt lat="49.91746" lon="5.76197"/><trkpt lat="49.91769" lon="5.76172"/><trkpt lat="49.91791" lon="5.76167"/><trkpt lat="49.91821" lon="5.76175"/><trkpt lat="49.91886" lon="5.7624"/><trkpt lat="49.91966" lon="5.7628"/><trkpt lat="49.92044" lon="5.76278"/><trkpt lat="49.92161" lon="5.76289"/><trkpt lat="49.92348" lon="5.76236"/><trkpt lat="49.92383" lon="5.76311"/><trkpt lat="49.92417" lon="5.76455"/><trkpt lat="49.92462" lon="5.7654"/><trkpt lat="49.92503" lon="5.76644"/><trkpt lat="49.92524" lon="5.76716"/><trkpt lat="49.92536" lon="5.76795"/><trkpt lat="49.9258" lon="5.76891"/><trkpt lat="49.92659" lon="5.77327"/><trkpt lat="49.92769" lon="5.77629"/><trkpt lat="49.92783" lon="5.77682"/><trkpt lat="49.92817" lon="5.77978"/><trkpt lat="49.92852" lon="5.78127"/><trkpt lat="49.92867" lon="5.78173"/><trkpt lat="49.92897" lon="5.78234"/><trkpt lat="49.92998" lon="5.78386"/><trkpt lat="49.93016" lon="5.78442"/><trkpt lat="49.93021" lon="5.78508"/><trkpt lat="49.93056" lon="5.7857"/><trkpt lat="49.93059" lon="5.78596"/><trkpt lat="49.93045" lon="5.78652"/><trkpt lat="49.93044" lon="5.78688"/></trkseg></trk>
</gpx>
