<?xml version="1.0" encoding="UTF-8"?>
<gpx version="1.1" creator="ian.lu/trails" xmlns="http://www.topografix.com/GPX/1/1">
<metadata><name>Auto-Pédestre Heiderscheid</name><link href="https://ian.lu/trails/"/></metadata>
<trk><name>Auto-Pédestre Heiderscheid</name><trkseg><trkpt lat="49.88692" lon="5.97787"/><trkpt lat="49.88878" lon="5.97716"/><trkpt lat="49.88936" lon="5.9768"/><trkpt lat="49.88955" lon="5.97659"/><trkpt lat="49.88898" lon="5.9741"/><trkpt lat="49.8892" lon="5.97332"/><trkpt lat="49.88951" lon="5.97272"/><trkpt lat="49.89064" lon="5.97162"/><trkpt lat="49.89107" lon="5.97069"/><trkpt lat="49.89161" lon="5.96993"/><trkpt lat="49.89209" lon="5.96805"/><trkpt lat="49.89214" lon="5.96651"/><trkpt lat="49.89228" lon="5.96588"/><trkpt lat="49.89267" lon="5.96499"/><trkpt lat="49.89344" lon="5.96409"/><trkpt lat="49.89427" lon="5.96295"/><trkpt lat="49.89547" lon="5.96236"/><trkpt lat="49.89574" lon="5.96228"/><trkpt lat="49.89887" lon="5.96196"/><trkpt lat="49.89963" lon="5.96198"/><trkpt lat="49.9003" lon="5.96152"/><trkpt lat="49.90077" lon="5.96047"/><trkpt lat="49.90109" lon="5.96013"/><trkpt lat="49.90139" lon="5.96003"/><trkpt lat="49.90281" lon="5.96041"/><trkpt lat="49.90396" lon="5.96142"/><trkpt lat="49.90433" lon="5.96167"/><trkpt lat="49.9047" lon="5.96206"/><trkpt lat="49.90477" lon="5.96269"/><trkpt lat="49.90467" lon="5.96267"/><trkpt lat="49.90461" lon="5.9629"/><trkpt lat="49.90435" lon="5.9631"/><trkpt lat="49.90418" lon="5.96378"/><trkpt lat="49.9042" lon="5.96414"/><trkpt lat="49.90457" lon="5.96562"/><trkpt lat="49.90471" lon="5.966"/><trkpt lat="49.90521" lon="5.9669"/><trkpt lat="49.90546" lon="5.96769"/><trkpt lat="49.9058" lon="5.96821"/><trkpt lat="49.90575" lon="5.96847"/><trkpt lat="49.90632" lon="5.9691"/><trkpt lat="49.90663" lon="5.96966"/><trkpt lat="49.90697" lon="5.97161"/><trkpt lat="49.90735" lon="5.97278"/><trkpt lat="49.9077" lon="5.97462"/><trkpt lat="49.90804" lon="5.97571"/><trkpt lat="49.90821" lon="5.97588"/><trkpt lat="49.90842" lon="5.97595"/><trkpt lat="49.90994" lon="5.9759"/><trkpt lat="49.91037" lon="5.97606"/><trkpt lat="49.91058" lon="5.97717"/><trkpt lat="49.91062" lon="5.97797"/><trkpt lat="49.91049" lon="5.97855"/><trkpt lat="49.9102" lon="5.979"/><trkpt lat="49.90994" lon="5.97913"/><trkpt lat="49.91016" lon="5.97886"/><trkpt lat="49.9103" lon="5.97851"/><trkpt lat="49.91027" lon="5.97822"/><trkpt lat="49.91011" lon="5.97798"/><trkpt lat="49.90984" lon="5.9779"/><trkpt lat="49.90939" lon="5.97789"/><trkpt lat="49.90901" lon="5.97777"/><trkpt lat="49.90858" lon="5.97727"/><trkpt lat="49.90813" lon="5.97712"/><trkpt lat="49.90792" lon="5.97696"/><trkpt lat="49.9068" lon="5.97572"/><trkpt lat="49.90587" lon="5.97518"/><trkpt lat="49.90554" lon="5.97492"/><trkpt lat="49.90506" lon="5.97413"/><trkpt lat="49.90463" lon="5.97314"/><trkpt lat="49.9045" lon="5.9718"/><trkpt lat="49.9043" lon="5.97121"/><trkpt lat="49.90367" lon="5.97061"/><trkpt lat="49.90322" lon="5.96966"/><trkpt lat="49.90279" lon="5.96922"/><trkpt lat="49.90232" lon="5.96854"/><trkpt lat="49.90116" lon="5.96723"/><trkpt lat="49.89988" lon="5.9664"/><trkpt lat="49.89868" lon="5.9664"/><trkpt lat="49.89775" lon="5.96647"/><trkpt lat="49.89751" lon="5.96654"/><trkpt lat="49.89706" lon="5.96726"/><trkpt lat="49.89692" lon="5.96735"/><trkpt lat="49.89681" lon="5.96727"/><trkpt lat="49.89618" lon="5.96623"/><trkpt lat="49.89598" lon="5.96604"/><trkpt lat="49.89586" lon="5.96617"/><trkpt lat="49.89553" lon="5.96711"/><trkpt lat="49.89382" lon="5.96864"/><trkpt lat="49.89326" lon="5.96946"/><trkpt lat="49.89243" lon="5.97124"/><trkpt lat="49.89207" lon="5.97259"/><trkpt lat="49.89185" lon="5.97379"/><trkpt lat="49.8916" lon="5.97459"/><trkpt lat="49.89124" lon="5.97533"/><trkpt lat="49.89036" lon="5.97618"/><trkpt lat="49.88961" lon="5.97655"/><trkpt lat="49.88936" lon="5.97679"/><trkpt lat="49.88878" lon="5.97717"/><trkpt lat="49.88692" lon="5.97787"/></trkseg></trk>
</gpx>
