<?xml version="1.0" encoding="UTF-8"?>
<gpx version="1.1" creator="ian.lu/trails" xmlns="http://www.topografix.com/GPX/1/1">
<metadata><name>Auto-Pédestre Hobscheid</name><link href="https://ian.lu/trails/"/></metadata>
<trk><name>Auto-Pédestre Hobscheid</name><trkseg><trkpt lat="49.68837" lon="5.91394"/><trkpt lat="49.68832" lon="5.91382"/><trkpt lat="49.6882" lon="5.91387"/><trkpt lat="49.68804" lon="5.91379"/><trkpt lat="49.68798" lon="5.91346"/><trkpt lat="49.6879" lon="5.91352"/><trkpt lat="49.68787" lon="5.91342"/><trkpt lat="49.68773" lon="5.9135"/><trkpt lat="49.68766" lon="5.91344"/><trkpt lat="49.68737" lon="5.91212"/><trkpt lat="49.68748" lon="5.91047"/><trkpt lat="49.68715" lon="5.90654"/><trkpt lat="49.68722" lon="5.90631"/><trkpt lat="49.68721" lon="5.90518"/><trkpt lat="49.68734" lon="5.90491"/><trkpt lat="49.68768" lon="5.90467"/><trkpt lat="49.68794" lon="5.90383"/><trkpt lat="49.68807" lon="5.90282"/><trkpt lat="49.68831" lon="5.90234"/><trkpt lat="49.68859" lon="5.90222"/><trkpt lat="49.68908" lon="5.90216"/><trkpt lat="49.6906" lon="5.90243"/><trkpt lat="49.69223" lon="5.90344"/><trkpt lat="49.69275" lon="5.90407"/><trkpt lat="49.69313" lon="5.90432"/><trkpt lat="49.69348" lon="5.90467"/><trkpt lat="49.69423" lon="5.90525"/><trkpt lat="49.69509" lon="5.90438"/><trkpt lat="49.69552" lon="5.90411"/><trkpt lat="49.69589" lon="5.90403"/><trkpt lat="49.6966" lon="5.90413"/><trkpt lat="49.6969" lon="5.9041"/><trkpt lat="49.69715" lon="5.90383"/><trkpt lat="49.69755" lon="5.90374"/><trkpt lat="49.69763" lon="5.90345"/><trkpt lat="49.7015" lon="5.90274"/><trkpt lat="49.70732" lon="5.90155"/><trkpt lat="49.70692" lon="5.90064"/><trkpt lat="49.7069" lon="5.90043"/><trkpt lat="49.70706" lon="5.89992"/><trkpt lat="49.70706" lon="5.89953"/><trkpt lat="49.70691" lon="5.89908"/><trkpt lat="49.70659" lon="5.89871"/><trkpt lat="49.70637" lon="5.89823"/><trkpt lat="49.70611" lon="5.8979"/><trkpt lat="49.70592" lon="5.89672"/><trkpt lat="49.7057" lon="5.89671"/><trkpt lat="49.70554" lon="5.89651"/><trkpt lat="49.70529" lon="5.89693"/><trkpt lat="49.70517" lon="5.89761"/><trkpt lat="49.70518" lon="5.89828"/><trkpt lat="49.70552" lon="5.89945"/><trkpt lat="49.70547" lon="5.89959"/><trkpt lat="49.70508" lon="5.89993"/><trkpt lat="49.70491" lon="5.90026"/><trkpt lat="49.70478" lon="5.90085"/><trkpt lat="49.70478" lon="5.90131"/><trkpt lat="49.70494" lon="5.90211"/><trkpt lat="49.70554" lon="5.90379"/><trkpt lat="49.70569" lon="5.90449"/><trkpt lat="49.70578" lon="5.90525"/><trkpt lat="49.70615" lon="5.90594"/><trkpt lat="49.7062" lon="5.9064"/><trkpt lat="49.70641" lon="5.90669"/><trkpt lat="49.70655" lon="5.9071"/><trkpt lat="49.70744" lon="5.90858"/><trkpt lat="49.70701" lon="5.90835"/><trkpt lat="49.70676" lon="5.90806"/><trkpt lat="49.70583" lon="5.90656"/><trkpt lat="49.70522" lon="5.90481"/><trkpt lat="49.705" lon="5.90435"/><trkpt lat="49.70452" lon="5.90369"/><trkpt lat="49.7045" lon="5.90306"/><trkpt lat="49.70433" lon="5.90257"/><trkpt lat="49.70422" lon="5.90195"/><trkpt lat="49.704" lon="5.90143"/><trkpt lat="49.70382" lon="5.90155"/><trkpt lat="49.70352" lon="5.90236"/><trkpt lat="49.70354" lon="5.90307"/><trkpt lat="49.70366" lon="5.90388"/><trkpt lat="49.70356" lon="5.90461"/><trkpt lat="49.7036" lon="5.90564"/><trkpt lat="49.70377" lon="5.90712"/><trkpt lat="49.70372" lon="5.90921"/><trkpt lat="49.7038" lon="5.91079"/><trkpt lat="49.70373" lon="5.91148"/><trkpt lat="49.70328" lon="5.91252"/><trkpt lat="49.70325" lon="5.91314"/><trkpt lat="49.70333" lon="5.91356"/><trkpt lat="49.70299" lon="5.91395"/><trkpt lat="49.70126" lon="5.91548"/><trkpt lat="49.69961" lon="5.91737"/><trkpt lat="49.69925" lon="5.91756"/><trkpt lat="49.69897" lon="5.91763"/><trkpt lat="49.69863" lon="5.91758"/><trkpt lat="49.69777" lon="5.91607"/><trkpt lat="49.69758" lon="5.91588"/><trkpt lat="49.69729" lon="5.91579"/><trkpt lat="49.69605" lon="5.91393"/><trkpt lat="49.69587" lon="5.91384"/><trkpt lat="49.69566" lon="5.91402"/><trkpt lat="49.69557" lon="5.91405"/><trkpt lat="49.69549" lon="5.91397"/><trkpt lat="49.69375" lon="5.91157"/><trkpt lat="49.69267" lon="5.90964"/><trkpt lat="49.69238" lon="5.90927"/><trkpt lat="49.69151" lon="5.90747"/><trkpt lat="49.69141" lon="5.90751"/><trkpt lat="49.69109" lon="5.90788"/><trkpt lat="49.69039" lon="5.90943"/><trkpt lat="49.68972" lon="5.91036"/><trkpt lat="49.68951" lon="5.91086"/><trkpt lat="49.68888" lon="5.91127"/><trkpt lat="49.68878" lon="5.91129"/><trkpt lat="49.68839" lon="5.91101"/><trkpt lat="49.68827" lon="5.91115"/><trkpt lat="49.68829" lon="5.91146"/><trkpt lat="49.6885" lon="5.9123"/><trkpt lat="49.68882" lon="5.91276"/><trkpt lat="49.68878" lon="5.91294"/><trkpt lat="49.6884" lon="5.91315"/><trkpt lat="49.68836" lon="5.91367"/><trkpt lat="49.6884" lon="5.9139"/></trkseg></trk>
</gpx>
