<?xml version="1.0" encoding="UTF-8"?>
<gpx version="1.1" creator="ian.lu/trails" xmlns="http://www.topografix.com/GPX/1/1">
<metadata><name>Auto-Pédestre Hoffelt</name><link href="https://ian.lu/trails/"/></metadata>
<trk><name>Auto-Pédestre Hoffelt</name><trkseg><trkpt lat="50.09982" lon="5.92176"/><trkpt lat="50.09978" lon="5.92169"/><trkpt lat="50.09996" lon="5.92122"/><trkpt lat="50.09998" lon="5.92097"/><trkpt lat="50.10006" lon="5.92089"/><trkpt lat="50.1001" lon="5.92064"/><trkpt lat="50.10041" lon="5.92041"/><trkpt lat="50.10068" lon="5.92001"/><trkpt lat="50.10091" lon="5.91819"/><trkpt lat="50.10066" lon="5.9177"/><trkpt lat="50.10056" lon="5.91777"/><trkpt lat="50.10043" lon="5.91751"/><trkpt lat="50.10013" lon="5.91602"/><trkpt lat="50.10018" lon="5.91583"/><trkpt lat="50.10008" lon="5.91577"/><trkpt lat="50.09996" lon="5.91543"/><trkpt lat="50.09933" lon="5.91247"/><trkpt lat="50.09931" lon="5.91216"/><trkpt lat="50.09895" lon="5.91065"/><trkpt lat="50.09891" lon="5.91022"/><trkpt lat="50.09897" lon="5.90989"/><trkpt lat="50.09917" lon="5.90964"/><trkpt lat="50.09909" lon="5.90911"/><trkpt lat="50.09945" lon="5.90569"/><trkpt lat="50.09974" lon="5.905"/><trkpt lat="50.10023" lon="5.90459"/><trkpt lat="50.1004" lon="5.90434"/><trkpt lat="50.10056" lon="5.90339"/><trkpt lat="50.10027" lon="5.90179"/><trkpt lat="50.10028" lon="5.90144"/><trkpt lat="50.09997" lon="5.90013"/><trkpt lat="50.09998" lon="5.89935"/><trkpt lat="50.09966" lon="5.89902"/><trkpt lat="50.0993" lon="5.89812"/><trkpt lat="50.09854" lon="5.89662"/><trkpt lat="50.09844" lon="5.89628"/><trkpt lat="50.09845" lon="5.89516"/><trkpt lat="50.09827" lon="5.89427"/><trkpt lat="50.09819" lon="5.89348"/><trkpt lat="50.09824" lon="5.89129"/><trkpt lat="50.09929" lon="5.89199"/><trkpt lat="50.1004" lon="5.89381"/><trkpt lat="50.10107" lon="5.8946"/><trkpt lat="50.10218" lon="5.89436"/><trkpt lat="50.10306" lon="5.89434"/><trkpt lat="50.10382" lon="5.89461"/><trkpt lat="50.10464" lon="5.89512"/><trkpt lat="50.10568" lon="5.8953"/><trkpt lat="50.1085" lon="5.89498"/><trkpt lat="50.10937" lon="5.89503"/><trkpt lat="50.11103" lon="5.89546"/><trkpt lat="50.1113" lon="5.89546"/><trkpt lat="50.11207" lon="5.89527"/><trkpt lat="50.11225" lon="5.8955"/><trkpt lat="50.11337" lon="5.8978"/><trkpt lat="50.11379" lon="5.89849"/><trkpt lat="50.1138" lon="5.89862"/><trkpt lat="50.1134" lon="5.89923"/><trkpt lat="50.11289" lon="5.90041"/><trkpt lat="50.11258" lon="5.9021"/><trkpt lat="50.11217" lon="5.90379"/><trkpt lat="50.11155" lon="5.90571"/><trkpt lat="50.11127" lon="5.90677"/><trkpt lat="50.111" lon="5.90832"/><trkpt lat="50.11087" lon="5.91024"/><trkpt lat="50.11063" lon="5.91184"/><trkpt lat="50.11043" lon="5.91445"/><trkpt lat="50.11026" lon="5.91558"/><trkpt lat="50.11054" lon="5.91528"/><trkpt lat="50.11098" lon="5.91441"/><trkpt lat="50.11173" lon="5.91196"/><trkpt lat="50.11279" lon="5.91034"/><trkpt lat="50.11323" lon="5.90849"/><trkpt lat="50.11343" lon="5.90839"/><trkpt lat="50.11386" lon="5.90868"/><trkpt lat="50.11453" lon="5.90967"/><trkpt lat="50.1153" lon="5.91141"/><trkpt lat="50.11541" lon="5.91209"/><trkpt lat="50.11567" lon="5.91298"/><trkpt lat="50.11561" lon="5.91524"/><trkpt lat="50.11571" lon="5.91589"/><trkpt lat="50.11659" lon="5.91782"/><trkpt lat="50.11752" lon="5.91927"/><trkpt lat="50.11777" lon="5.91996"/><trkpt lat="50.1181" lon="5.92187"/><trkpt lat="50.11782" lon="5.92245"/><trkpt lat="50.11759" lon="5.92325"/><trkpt lat="50.11744" lon="5.9234"/><trkpt lat="50.11636" lon="5.92396"/><trkpt lat="50.1163" lon="5.92424"/><trkpt lat="50.11445" lon="5.92456"/><trkpt lat="50.11418" lon="5.92451"/><trkpt lat="50.11323" lon="5.92407"/><trkpt lat="50.11145" lon="5.92404"/><trkpt lat="50.11061" lon="5.92412"/><trkpt lat="50.10965" lon="5.92393"/><trkpt lat="50.1093" lon="5.92372"/><trkpt lat="50.10919" lon="5.92383"/><trkpt lat="50.10901" lon="5.92333"/><trkpt lat="50.10882" lon="5.92301"/><trkpt lat="50.10856" lon="5.92287"/><trkpt lat="50.10782" lon="5.92279"/><trkpt lat="50.10779" lon="5.92253"/><trkpt lat="50.10756" lon="5.92247"/><trkpt lat="50.10733" lon="5.92247"/><trkpt lat="50.10719" lon="5.92258"/><trkpt lat="50.10714" lon="5.92252"/><trkpt lat="50.10676" lon="5.92335"/><trkpt lat="50.10665" lon="5.92346"/><trkpt lat="50.10596" lon="5.92376"/><trkpt lat="50.10579" lon="5.92375"/><trkpt lat="50.1047" lon="5.92323"/><trkpt lat="50.10455" lon="5.92302"/><trkpt lat="50.10446" lon="5.92299"/><trkpt lat="50.10439" lon="5.92305"/><trkpt lat="50.10394" lon="5.92279"/><trkpt lat="50.10389" lon="5.92289"/><trkpt lat="50.10283" lon="5.92189"/><trkpt lat="50.10189" lon="5.92138"/><trkpt lat="50.10136" lon="5.9212"/><trkpt lat="50.10101" lon="5.92115"/><trkpt lat="50.10071" lon="5.92123"/><trkpt lat="50.10036" lon="5.92142"/><trkpt lat="50.10007" lon="5.92177"/><trkpt lat="50.09986" lon="5.92177"/></trkseg></trk>
</gpx>
