<?xml version="1.0" encoding="UTF-8"?>
<gpx version="1.1" creator="ian.lu/trails" xmlns="http://www.topografix.com/GPX/1/1">
<metadata><name>Auto-Pédestre Hollenfels</name><link href="https://ian.lu/trails/"/></metadata>
<trk><name>Auto-Pédestre Hollenfels</name><trkseg><trkpt lat="49.71188" lon="6.04815"/><trkpt lat="49.71185" lon="6.04822"/><trkpt lat="49.71167" lon="6.04811"/><trkpt lat="49.71155" lon="6.04811"/><trkpt lat="49.71129" lon="6.04835"/><trkpt lat="49.7107" lon="6.05005"/><trkpt lat="49.71067" lon="6.05025"/><trkpt lat="49.71082" lon="6.05055"/><trkpt lat="49.7113" lon="6.05044"/><trkpt lat="49.71144" lon="6.05054"/><trkpt lat="49.7114" lon="6.05076"/><trkpt lat="49.71098" lon="6.05076"/><trkpt lat="49.71108" lon="6.05087"/><trkpt lat="49.71111" lon="6.05102"/><trkpt lat="49.71106" lon="6.05214"/><trkpt lat="49.7113" lon="6.05293"/><trkpt lat="49.71102" lon="6.05301"/><trkpt lat="49.71089" lon="6.05312"/><trkpt lat="49.71065" lon="6.05369"/><trkpt lat="49.71004" lon="6.05472"/><trkpt lat="49.71007" lon="6.05496"/><trkpt lat="49.70997" lon="6.05541"/><trkpt lat="49.71023" lon="6.05628"/><trkpt lat="49.71025" lon="6.05623"/><trkpt lat="49.71031" lon="6.05626"/><trkpt lat="49.71032" lon="6.05596"/><trkpt lat="49.71046" lon="6.05613"/><trkpt lat="49.7105" lon="6.05592"/><trkpt lat="49.71064" lon="6.05591"/><trkpt lat="49.71075" lon="6.05637"/><trkpt lat="49.71091" lon="6.05662"/><trkpt lat="49.71089" lon="6.05676"/><trkpt lat="49.71132" lon="6.0566"/><trkpt lat="49.71168" lon="6.05632"/><trkpt lat="49.71205" lon="6.05588"/><trkpt lat="49.7126" lon="6.05507"/><trkpt lat="49.71271" lon="6.05467"/><trkpt lat="49.71275" lon="6.05385"/><trkpt lat="49.71308" lon="6.05387"/><trkpt lat="49.71322" lon="6.05416"/><trkpt lat="49.71344" lon="6.05427"/><trkpt lat="49.71428" lon="6.05435"/><trkpt lat="49.71486" lon="6.05464"/><trkpt lat="49.71561" lon="6.05529"/><trkpt lat="49.71563" lon="6.05541"/><trkpt lat="49.71581" lon="6.05561"/><trkpt lat="49.71603" lon="6.05616"/><trkpt lat="49.71619" lon="6.05761"/><trkpt lat="49.71666" lon="6.06015"/><trkpt lat="49.71689" lon="6.06079"/><trkpt lat="49.71718" lon="6.06104"/><trkpt lat="49.71752" lon="6.06093"/><trkpt lat="49.71881" lon="6.05975"/><trkpt lat="49.71901" lon="6.05989"/><trkpt lat="49.71918" lon="6.06013"/><trkpt lat="49.71928" lon="6.06046"/><trkpt lat="49.72008" lon="6.0596"/><trkpt lat="49.72029" lon="6.05963"/><trkpt lat="49.72042" lon="6.05949"/><trkpt lat="49.72064" lon="6.0594"/><trkpt lat="49.72072" lon="6.05927"/><trkpt lat="49.72081" lon="6.05925"/><trkpt lat="49.721" lon="6.05905"/><trkpt lat="49.72106" lon="6.05887"/><trkpt lat="49.7213" lon="6.05893"/><trkpt lat="49.72142" lon="6.05881"/><trkpt lat="49.72145" lon="6.05869"/><trkpt lat="49.72169" lon="6.0587"/><trkpt lat="49.72225" lon="6.05813"/><trkpt lat="49.72232" lon="6.05769"/><trkpt lat="49.72216" lon="6.05676"/><trkpt lat="49.72228" lon="6.05468"/><trkpt lat="49.72259" lon="6.05344"/><trkpt lat="49.72276" lon="6.05204"/><trkpt lat="49.72291" lon="6.05145"/><trkpt lat="49.72297" lon="6.05012"/><trkpt lat="49.72307" lon="6.04938"/><trkpt lat="49.72361" lon="6.04722"/><trkpt lat="49.72384" lon="6.04478"/><trkpt lat="49.72397" lon="6.04208"/><trkpt lat="49.72416" lon="6.04132"/><trkpt lat="49.7242" lon="6.04064"/><trkpt lat="49.72459" lon="6.03841"/><trkpt lat="49.72478" lon="6.03804"/><trkpt lat="49.72526" lon="6.0381"/><trkpt lat="49.72577" lon="6.03826"/><trkpt lat="49.72638" lon="6.03848"/><trkpt lat="49.72682" lon="6.03873"/><trkpt lat="49.72825" lon="6.0388"/><trkpt lat="49.72829" lon="6.03733"/><trkpt lat="49.72818" lon="6.03584"/><trkpt lat="49.72753" lon="6.03288"/><trkpt lat="49.72704" lon="6.03114"/><trkpt lat="49.72625" lon="6.02874"/><trkpt lat="49.72567" lon="6.02742"/><trkpt lat="49.72446" lon="6.0251"/><trkpt lat="49.72401" lon="6.0241"/><trkpt lat="49.72111" lon="6.02636"/><trkpt lat="49.72169" lon="6.0315"/><trkpt lat="49.72155" lon="6.03573"/><trkpt lat="49.72147" lon="6.03616"/><trkpt lat="49.72106" lon="6.03744"/><trkpt lat="49.7206" lon="6.0386"/><trkpt lat="49.72027" lon="6.03993"/><trkpt lat="49.71984" lon="6.04117"/><trkpt lat="49.71919" lon="6.04218"/><trkpt lat="49.71861" lon="6.04327"/><trkpt lat="49.71788" lon="6.04438"/><trkpt lat="49.71762" lon="6.04454"/><trkpt lat="49.71541" lon="6.04496"/><trkpt lat="49.7138" lon="6.04596"/><trkpt lat="49.71351" lon="6.0462"/><trkpt lat="49.71347" lon="6.04614"/><trkpt lat="49.71309" lon="6.04692"/><trkpt lat="49.71257" lon="6.04847"/><trkpt lat="49.7123" lon="6.0484"/><trkpt lat="49.71192" lon="6.04818"/></trkseg></trk>
</gpx>
