<?xml version="1.0" encoding="UTF-8"?>
<gpx version="1.1" creator="ian.lu/trails" xmlns="http://www.topografix.com/GPX/1/1">
<metadata><name>Auto-Pédestre Holtz</name><link href="https://ian.lu/trails/"/></metadata>
<trk><name>Auto-Pédestre Holtz</name><trkseg><trkpt lat="49.80656" lon="5.79035"/><trkpt lat="49.80651" lon="5.78988"/><trkpt lat="49.80614" lon="5.78898"/><trkpt lat="49.80605" lon="5.78892"/><trkpt lat="49.80592" lon="5.78868"/><trkpt lat="49.80538" lon="5.78881"/><trkpt lat="49.80519" lon="5.7887"/><trkpt lat="49.80498" lon="5.78839"/><trkpt lat="49.80441" lon="5.78718"/><trkpt lat="49.80423" lon="5.78698"/><trkpt lat="49.80396" lon="5.78688"/><trkpt lat="49.80346" lon="5.78695"/><trkpt lat="49.80273" lon="5.78737"/><trkpt lat="49.80177" lon="5.78824"/><trkpt lat="49.8015" lon="5.78827"/><trkpt lat="49.80041" lon="5.78757"/><trkpt lat="49.80051" lon="5.78691"/><trkpt lat="49.80027" lon="5.78627"/><trkpt lat="49.79989" lon="5.78591"/><trkpt lat="49.79919" lon="5.78538"/><trkpt lat="49.79854" lon="5.78509"/><trkpt lat="49.79779" lon="5.78526"/><trkpt lat="49.79756" lon="5.78544"/><trkpt lat="49.79734" lon="5.78528"/><trkpt lat="49.79712" lon="5.78532"/><trkpt lat="49.79704" lon="5.78518"/><trkpt lat="49.79727" lon="5.78462"/><trkpt lat="49.79697" lon="5.78453"/><trkpt lat="49.79695" lon="5.78447"/><trkpt lat="49.79735" lon="5.78411"/><trkpt lat="49.79795" lon="5.78386"/><trkpt lat="49.79845" lon="5.7838"/><trkpt lat="49.79959" lon="5.78402"/><trkpt lat="49.80008" lon="5.78403"/><trkpt lat="49.80122" lon="5.78388"/><trkpt lat="49.80143" lon="5.78391"/><trkpt lat="49.80205" lon="5.78421"/><trkpt lat="49.8024" lon="5.78428"/><trkpt lat="49.80263" lon="5.78426"/><trkpt lat="49.8036" lon="5.78378"/><trkpt lat="49.80434" lon="5.7836"/><trkpt lat="49.80476" lon="5.78358"/><trkpt lat="49.80566" lon="5.78396"/><trkpt lat="49.80615" lon="5.78405"/><trkpt lat="49.80663" lon="5.78383"/><trkpt lat="49.80752" lon="5.78361"/><trkpt lat="49.80815" lon="5.78382"/><trkpt lat="49.80845" lon="5.78365"/><trkpt lat="49.80864" lon="5.78378"/><trkpt lat="49.80912" lon="5.7839"/><trkpt lat="49.8093" lon="5.78346"/><trkpt lat="49.80905" lon="5.783"/><trkpt lat="49.80901" lon="5.78284"/><trkpt lat="49.80908" lon="5.78257"/><trkpt lat="49.80919" lon="5.7824"/><trkpt lat="49.81021" lon="5.78149"/><trkpt lat="49.81071" lon="5.78056"/><trkpt lat="49.81121" lon="5.77932"/><trkpt lat="49.81158" lon="5.77808"/><trkpt lat="49.81187" lon="5.77623"/><trkpt lat="49.81211" lon="5.77553"/><trkpt lat="49.81258" lon="5.7743"/><trkpt lat="49.81277" lon="5.77402"/><trkpt lat="49.81335" lon="5.77349"/><trkpt lat="49.81393" lon="5.77374"/><trkpt lat="49.81418" lon="5.77412"/><trkpt lat="49.81535" lon="5.77693"/><trkpt lat="49.81478" lon="5.77645"/><trkpt lat="49.81426" lon="5.77557"/><trkpt lat="49.81373" lon="5.77507"/><trkpt lat="49.81367" lon="5.7751"/><trkpt lat="49.81418" lon="5.77628"/><trkpt lat="49.81448" lon="5.77732"/><trkpt lat="49.81498" lon="5.77849"/><trkpt lat="49.81595" lon="5.78012"/><trkpt lat="49.81642" lon="5.78074"/><trkpt lat="49.81674" lon="5.781"/><trkpt lat="49.81789" lon="5.78142"/><trkpt lat="49.81804" lon="5.78153"/><trkpt lat="49.81866" lon="5.78223"/><trkpt lat="49.81912" lon="5.78265"/><trkpt lat="49.81958" lon="5.78295"/><trkpt lat="49.82001" lon="5.78348"/><trkpt lat="49.82093" lon="5.78437"/><trkpt lat="49.82131" lon="5.78491"/><trkpt lat="49.82159" lon="5.78549"/><trkpt lat="49.82181" lon="5.78619"/><trkpt lat="49.82238" lon="5.7897"/><trkpt lat="49.82218" lon="5.79062"/><trkpt lat="49.8221" lon="5.79166"/><trkpt lat="49.82195" lon="5.79242"/><trkpt lat="49.82171" lon="5.79318"/><trkpt lat="49.82131" lon="5.79346"/><trkpt lat="49.82044" lon="5.79349"/><trkpt lat="49.81899" lon="5.7942"/><trkpt lat="49.81866" lon="5.79482"/><trkpt lat="49.81793" lon="5.79666"/><trkpt lat="49.81771" lon="5.79697"/><trkpt lat="49.81728" lon="5.79592"/><trkpt lat="49.81643" lon="5.79494"/><trkpt lat="49.81559" lon="5.79242"/><trkpt lat="49.81434" lon="5.78983"/><trkpt lat="49.81415" lon="5.78897"/><trkpt lat="49.81423" lon="5.78644"/><trkpt lat="49.81405" lon="5.78605"/><trkpt lat="49.81339" lon="5.78578"/><trkpt lat="49.81288" lon="5.78544"/><trkpt lat="49.81143" lon="5.78494"/><trkpt lat="49.81058" lon="5.78443"/><trkpt lat="49.80972" lon="5.78443"/><trkpt lat="49.80914" lon="5.78396"/><trkpt lat="49.80926" lon="5.78442"/><trkpt lat="49.80927" lon="5.78478"/><trkpt lat="49.80915" lon="5.78562"/><trkpt lat="49.80916" lon="5.78747"/><trkpt lat="49.80836" lon="5.78997"/><trkpt lat="49.80822" lon="5.79028"/><trkpt lat="49.80806" lon="5.79045"/><trkpt lat="49.80766" lon="5.79068"/><trkpt lat="49.80709" lon="5.7908"/><trkpt lat="49.80696" lon="5.79091"/><trkpt lat="49.80667" lon="5.79071"/><trkpt lat="49.80656" lon="5.79036"/></trkseg></trk>
</gpx>
