<?xml version="1.0" encoding="UTF-8"?>
<gpx version="1.1" creator="ian.lu/trails" xmlns="http://www.topografix.com/GPX/1/1">
<metadata><name>Auto-Pédestre Howald</name><link href="https://ian.lu/trails/"/></metadata>
<trk><name>Auto-Pédestre Howald</name><trkseg><trkpt lat="49.58323" lon="6.14099"/><trkpt lat="49.58313" lon="6.14111"/><trkpt lat="49.58292" lon="6.14118"/><trkpt lat="49.58262" lon="6.14013"/><trkpt lat="49.58264" lon="6.13941"/><trkpt lat="49.58256" lon="6.13939"/><trkpt lat="49.58192" lon="6.14069"/><trkpt lat="49.58166" lon="6.14075"/><trkpt lat="49.58113" lon="6.14071"/><trkpt lat="49.57998" lon="6.14134"/><trkpt lat="49.57947" lon="6.14092"/><trkpt lat="49.57925" lon="6.14094"/><trkpt lat="49.57899" lon="6.14108"/><trkpt lat="49.57935" lon="6.14114"/><trkpt lat="49.57923" lon="6.14136"/><trkpt lat="49.57878" lon="6.14127"/><trkpt lat="49.57824" lon="6.14247"/><trkpt lat="49.57843" lon="6.14289"/><trkpt lat="49.57876" lon="6.14433"/><trkpt lat="49.57829" lon="6.1446"/><trkpt lat="49.57772" lon="6.14525"/><trkpt lat="49.57731" lon="6.14766"/><trkpt lat="49.57715" lon="6.14796"/><trkpt lat="49.57704" lon="6.14839"/><trkpt lat="49.57703" lon="6.1486"/><trkpt lat="49.57716" lon="6.14913"/><trkpt lat="49.57749" lon="6.14999"/><trkpt lat="49.57787" lon="6.15131"/><trkpt lat="49.57781" lon="6.15155"/><trkpt lat="49.57758" lon="6.15179"/><trkpt lat="49.57697" lon="6.15221"/><trkpt lat="49.57671" lon="6.1521"/><trkpt lat="49.57642" lon="6.15074"/><trkpt lat="49.57629" lon="6.1484"/><trkpt lat="49.57602" lon="6.14892"/><trkpt lat="49.57565" lon="6.15011"/><trkpt lat="49.57554" lon="6.15058"/><trkpt lat="49.57549" lon="6.15187"/><trkpt lat="49.57544" lon="6.15206"/><trkpt lat="49.57535" lon="6.15206"/><trkpt lat="49.57524" lon="6.1512"/><trkpt lat="49.57537" lon="6.14892"/><trkpt lat="49.57534" lon="6.14782"/><trkpt lat="49.57508" lon="6.14587"/><trkpt lat="49.57502" lon="6.14462"/><trkpt lat="49.57467" lon="6.14449"/><trkpt lat="49.5748" lon="6.14268"/><trkpt lat="49.57534" lon="6.14163"/><trkpt lat="49.57563" lon="6.14122"/><trkpt lat="49.57629" lon="6.14052"/><trkpt lat="49.57689" lon="6.14033"/><trkpt lat="49.57735" lon="6.14036"/><trkpt lat="49.5775" lon="6.14007"/><trkpt lat="49.57742" lon="6.13962"/><trkpt lat="49.57752" lon="6.13947"/><trkpt lat="49.5787" lon="6.14034"/><trkpt lat="49.57937" lon="6.14036"/><trkpt lat="49.57978" lon="6.14046"/><trkpt lat="49.58" lon="6.14046"/><trkpt lat="49.5806" lon="6.14028"/><trkpt lat="49.58081" lon="6.14019"/><trkpt lat="49.58093" lon="6.13992"/><trkpt lat="49.58133" lon="6.13989"/><trkpt lat="49.58139" lon="6.13951"/><trkpt lat="49.58111" lon="6.13885"/><trkpt lat="49.58118" lon="6.13838"/><trkpt lat="49.58117" lon="6.13737"/><trkpt lat="49.58167" lon="6.13694"/><trkpt lat="49.58207" lon="6.1369"/><trkpt lat="49.58248" lon="6.13702"/><trkpt lat="49.58253" lon="6.13733"/><trkpt lat="49.58248" lon="6.13813"/><trkpt lat="49.58208" lon="6.13953"/><trkpt lat="49.58196" lon="6.13981"/><trkpt lat="49.58183" lon="6.13993"/><trkpt lat="49.58211" lon="6.14026"/><trkpt lat="49.58257" lon="6.13933"/><trkpt lat="49.58266" lon="6.13933"/><trkpt lat="49.58265" lon="6.14003"/><trkpt lat="49.58289" lon="6.1409"/><trkpt lat="49.58298" lon="6.14105"/><trkpt lat="49.58323" lon="6.14098"/></trkseg></trk>
</gpx>
