<?xml version="1.0" encoding="UTF-8"?>
<gpx version="1.1" creator="ian.lu/trails" xmlns="http://www.topografix.com/GPX/1/1">
<metadata><name>Auto-Pédestre Junglinster</name><link href="https://ian.lu/trails/"/></metadata>
<trk><name>Auto-Pédestre Junglinster</name><trkseg><trkpt lat="49.71535" lon="6.24993"/><trkpt lat="49.71519" lon="6.25008"/><trkpt lat="49.71503" lon="6.25063"/><trkpt lat="49.71483" lon="6.25048"/><trkpt lat="49.71441" lon="6.25049"/><trkpt lat="49.71422" lon="6.25066"/><trkpt lat="49.71407" lon="6.25024"/><trkpt lat="49.71419" lon="6.2499"/><trkpt lat="49.71389" lon="6.24942"/><trkpt lat="49.71378" lon="6.24946"/><trkpt lat="49.71346" lon="6.24988"/><trkpt lat="49.71225" lon="6.25047"/><trkpt lat="49.71209" lon="6.25018"/><trkpt lat="49.71189" lon="6.25017"/><trkpt lat="49.71173" lon="6.24978"/><trkpt lat="49.71152" lon="6.24893"/><trkpt lat="49.71069" lon="6.24939"/><trkpt lat="49.71029" lon="6.24945"/><trkpt lat="49.71026" lon="6.24907"/><trkpt lat="49.7095" lon="6.24698"/><trkpt lat="49.70931" lon="6.24667"/><trkpt lat="49.70914" lon="6.24659"/><trkpt lat="49.70881" lon="6.24658"/><trkpt lat="49.70872" lon="6.24679"/><trkpt lat="49.70817" lon="6.24528"/><trkpt lat="49.7077" lon="6.24581"/><trkpt lat="49.70763" lon="6.2458"/><trkpt lat="49.70731" lon="6.24536"/><trkpt lat="49.70714" lon="6.24524"/><trkpt lat="49.70708" lon="6.24494"/><trkpt lat="49.70664" lon="6.24416"/><trkpt lat="49.7061" lon="6.24393"/><trkpt lat="49.70574" lon="6.24363"/><trkpt lat="49.70541" lon="6.24325"/><trkpt lat="49.70489" lon="6.24235"/><trkpt lat="49.70457" lon="6.24204"/><trkpt lat="49.70409" lon="6.2422"/><trkpt lat="49.7037" lon="6.24276"/><trkpt lat="49.70348" lon="6.24286"/><trkpt lat="49.7033" lon="6.24285"/><trkpt lat="49.70338" lon="6.24222"/><trkpt lat="49.70314" lon="6.24149"/><trkpt lat="49.70309" lon="6.24083"/><trkpt lat="49.70328" lon="6.23832"/><trkpt lat="49.70323" lon="6.23789"/><trkpt lat="49.70297" lon="6.23728"/><trkpt lat="49.70283" lon="6.23638"/><trkpt lat="49.70288" lon="6.23589"/><trkpt lat="49.70304" lon="6.2354"/><trkpt lat="49.70324" lon="6.23515"/><trkpt lat="49.70393" lon="6.2348"/><trkpt lat="49.70411" lon="6.23472"/><trkpt lat="49.70439" lon="6.23472"/><trkpt lat="49.70512" lon="6.23544"/><trkpt lat="49.70533" lon="6.23613"/><trkpt lat="49.70569" lon="6.23662"/><trkpt lat="49.70594" lon="6.2367"/><trkpt lat="49.70634" lon="6.23655"/><trkpt lat="49.70677" lon="6.23702"/><trkpt lat="49.70687" lon="6.23701"/><trkpt lat="49.70713" lon="6.23673"/><trkpt lat="49.70738" lon="6.23622"/><trkpt lat="49.70782" lon="6.23484"/><trkpt lat="49.70798" lon="6.23463"/><trkpt lat="49.7085" lon="6.23423"/><trkpt lat="49.70881" lon="6.23415"/><trkpt lat="49.70941" lon="6.23417"/><trkpt lat="49.70952" lon="6.23405"/><trkpt lat="49.70912" lon="6.23348"/><trkpt lat="49.70879" lon="6.23319"/><trkpt lat="49.70856" lon="6.23269"/><trkpt lat="49.70843" lon="6.23223"/><trkpt lat="49.70837" lon="6.23122"/><trkpt lat="49.70824" lon="6.23057"/><trkpt lat="49.70733" lon="6.22873"/><trkpt lat="49.70707" lon="6.22712"/><trkpt lat="49.70696" lon="6.22678"/><trkpt lat="49.70688" lon="6.22666"/><trkpt lat="49.70679" lon="6.22669"/><trkpt lat="49.70721" lon="6.22628"/><trkpt lat="49.70759" lon="6.22576"/><trkpt lat="49.70773" lon="6.22568"/><trkpt lat="49.70835" lon="6.22554"/><trkpt lat="49.70865" lon="6.2257"/><trkpt lat="49.70898" lon="6.22606"/><trkpt lat="49.70931" lon="6.22618"/><trkpt lat="49.70963" lon="6.22621"/><trkpt lat="49.7101" lon="6.22701"/><trkpt lat="49.71037" lon="6.2273"/><trkpt lat="49.7106" lon="6.22729"/><trkpt lat="49.71101" lon="6.22711"/><trkpt lat="49.71175" lon="6.22715"/><trkpt lat="49.71284" lon="6.22703"/><trkpt lat="49.71439" lon="6.22632"/><trkpt lat="49.71498" lon="6.22587"/><trkpt lat="49.71515" lon="6.22589"/><trkpt lat="49.71599" lon="6.22638"/><trkpt lat="49.71649" lon="6.22636"/><trkpt lat="49.71666" lon="6.22643"/><trkpt lat="49.71683" lon="6.22664"/><trkpt lat="49.71749" lon="6.22707"/><trkpt lat="49.71785" lon="6.22719"/><trkpt lat="49.71843" lon="6.22778"/><trkpt lat="49.71872" lon="6.22794"/><trkpt lat="49.71896" lon="6.22821"/><trkpt lat="49.7194" lon="6.22834"/><trkpt lat="49.71991" lon="6.2287"/><trkpt lat="49.71985" lon="6.22895"/><trkpt lat="49.7199" lon="6.22931"/><trkpt lat="49.72044" lon="6.22981"/><trkpt lat="49.72061" lon="6.23008"/><trkpt lat="49.7221" lon="6.23181"/><trkpt lat="49.72458" lon="6.23238"/><trkpt lat="49.72485" lon="6.2323"/><trkpt lat="49.72511" lon="6.23249"/><trkpt lat="49.72612" lon="6.2328"/><trkpt lat="49.72689" lon="6.23324"/><trkpt lat="49.72758" lon="6.23345"/><trkpt lat="49.72801" lon="6.23348"/><trkpt lat="49.72834" lon="6.23342"/><trkpt lat="49.72962" lon="6.23347"/><trkpt lat="49.73034" lon="6.23338"/><trkpt lat="49.72945" lon="6.23452"/><trkpt lat="49.72821" lon="6.23574"/><trkpt lat="49.7264" lon="6.23714"/><trkpt lat="49.72608" lon="6.23732"/><trkpt lat="49.72497" lon="6.23753"/><trkpt lat="49.72395" lon="6.23781"/><trkpt lat="49.72384" lon="6.23802"/><trkpt lat="49.72371" lon="6.23978"/><trkpt lat="49.72311" lon="6.24206"/><trkpt lat="49.72245" lon="6.24335"/><trkpt lat="49.72182" lon="6.24403"/><trkpt lat="49.7212" lon="6.24499"/><trkpt lat="49.72087" lon="6.2456"/><trkpt lat="49.71964" lon="6.24589"/><trkpt lat="49.71915" lon="6.24608"/><trkpt lat="49.71886" lon="6.24621"/><trkpt lat="49.71822" lon="6.24667"/><trkpt lat="49.7163" lon="6.24747"/><trkpt lat="49.7156" lon="6.24793"/><trkpt lat="49.71564" lon="6.24804"/><trkpt lat="49.71547" lon="6.24818"/><trkpt lat="49.71539" lon="6.2484"/><trkpt lat="49.71542" lon="6.24907"/><trkpt lat="49.71531" lon="6.24985"/><trkpt lat="49.71536" lon="6.24992"/></trkseg></trk>
</gpx>
