<?xml version="1.0" encoding="UTF-8"?>
<gpx version="1.1" creator="ian.lu/trails" xmlns="http://www.topografix.com/GPX/1/1">
<metadata><name>Auto-Pédestre Kaundorf</name><link href="https://ian.lu/trails/"/></metadata>
<trk><name>Auto-Pédestre Kaundorf</name><trkseg><trkpt lat="49.91825" lon="5.90708"/><trkpt lat="49.91756" lon="5.90765"/><trkpt lat="49.91732" lon="5.90792"/><trkpt lat="49.91701" lon="5.90681"/><trkpt lat="49.91653" lon="5.90549"/><trkpt lat="49.91623" lon="5.90519"/><trkpt lat="49.91611" lon="5.90488"/><trkpt lat="49.91587" lon="5.90299"/><trkpt lat="49.91526" lon="5.90137"/><trkpt lat="49.91525" lon="5.90128"/><trkpt lat="49.91548" lon="5.90105"/><trkpt lat="49.91559" lon="5.90077"/><trkpt lat="49.91599" lon="5.89951"/><trkpt lat="49.91614" lon="5.8995"/><trkpt lat="49.91632" lon="5.89963"/><trkpt lat="49.91746" lon="5.89923"/><trkpt lat="49.9179" lon="5.89927"/><trkpt lat="49.91758" lon="5.89748"/><trkpt lat="49.91708" lon="5.89617"/><trkpt lat="49.91706" lon="5.89547"/><trkpt lat="49.91697" lon="5.89514"/><trkpt lat="49.91671" lon="5.89481"/><trkpt lat="49.91601" lon="5.89427"/><trkpt lat="49.91535" lon="5.89292"/><trkpt lat="49.91541" lon="5.89269"/><trkpt lat="49.9155" lon="5.89268"/><trkpt lat="49.91623" lon="5.89383"/><trkpt lat="49.91648" lon="5.8941"/><trkpt lat="49.91709" lon="5.89444"/><trkpt lat="49.91728" lon="5.89463"/><trkpt lat="49.91763" lon="5.89564"/><trkpt lat="49.91798" lon="5.89719"/><trkpt lat="49.91821" lon="5.89767"/><trkpt lat="49.91843" lon="5.89777"/><trkpt lat="49.9192" lon="5.8978"/><trkpt lat="49.91958" lon="5.89556"/><trkpt lat="49.91983" lon="5.89466"/><trkpt lat="49.92" lon="5.89368"/><trkpt lat="49.92021" lon="5.89301"/><trkpt lat="49.92042" lon="5.89172"/><trkpt lat="49.92066" lon="5.89117"/><trkpt lat="49.92085" lon="5.89188"/><trkpt lat="49.92134" lon="5.89305"/><trkpt lat="49.92169" lon="5.89436"/><trkpt lat="49.92208" lon="5.89525"/><trkpt lat="49.92231" lon="5.89615"/><trkpt lat="49.92301" lon="5.89749"/><trkpt lat="49.92339" lon="5.89802"/><trkpt lat="49.9235" lon="5.89803"/><trkpt lat="49.92353" lon="5.89791"/><trkpt lat="49.92334" lon="5.89679"/><trkpt lat="49.92437" lon="5.89851"/><trkpt lat="49.92535" lon="5.89931"/><trkpt lat="49.92552" lon="5.8992"/><trkpt lat="49.9272" lon="5.8974"/><trkpt lat="49.92793" lon="5.89672"/><trkpt lat="49.92797" lon="5.89687"/><trkpt lat="49.92839" lon="5.89696"/><trkpt lat="49.92915" lon="5.89757"/><trkpt lat="49.92966" lon="5.89828"/><trkpt lat="49.92989" lon="5.89849"/><trkpt lat="49.93009" lon="5.89863"/><trkpt lat="49.9305" lon="5.89876"/><trkpt lat="49.93108" lon="5.90037"/><trkpt lat="49.93145" lon="5.9012"/><trkpt lat="49.9317" lon="5.90268"/><trkpt lat="49.93218" lon="5.90444"/><trkpt lat="49.9324" lon="5.90567"/><trkpt lat="49.93252" lon="5.90715"/><trkpt lat="49.9325" lon="5.90778"/><trkpt lat="49.93232" lon="5.90827"/><trkpt lat="49.93183" lon="5.90866"/><trkpt lat="49.93167" lon="5.90917"/><trkpt lat="49.93156" lon="5.90983"/><trkpt lat="49.93152" lon="5.91077"/><trkpt lat="49.93159" lon="5.91138"/><trkpt lat="49.93144" lon="5.91283"/><trkpt lat="49.93161" lon="5.91326"/><trkpt lat="49.93178" lon="5.91449"/><trkpt lat="49.9322" lon="5.91586"/><trkpt lat="49.9322" lon="5.91673"/><trkpt lat="49.93174" lon="5.91562"/><trkpt lat="49.93157" lon="5.91498"/><trkpt lat="49.93139" lon="5.91279"/><trkpt lat="49.9309" lon="5.91056"/><trkpt lat="49.93073" lon="5.90999"/><trkpt lat="49.93024" lon="5.90882"/><trkpt lat="49.92996" lon="5.90853"/><trkpt lat="49.92975" lon="5.90849"/><trkpt lat="49.92949" lon="5.90859"/><trkpt lat="49.92932" lon="5.90983"/><trkpt lat="49.92924" lon="5.90991"/><trkpt lat="49.92868" lon="5.90797"/><trkpt lat="49.92817" lon="5.90709"/><trkpt lat="49.92772" lon="5.90677"/><trkpt lat="49.92637" lon="5.90503"/><trkpt lat="49.92597" lon="5.90503"/><trkpt lat="49.9257" lon="5.90494"/><trkpt lat="49.92501" lon="5.90434"/><trkpt lat="49.92486" lon="5.90414"/><trkpt lat="49.92442" lon="5.90303"/><trkpt lat="49.92358" lon="5.90193"/><trkpt lat="49.92279" lon="5.90166"/><trkpt lat="49.92269" lon="5.90153"/><trkpt lat="49.92243" lon="5.90167"/><trkpt lat="49.92212" lon="5.9017"/><trkpt lat="49.92123" lon="5.90137"/><trkpt lat="49.92105" lon="5.90118"/><trkpt lat="49.92095" lon="5.90094"/><trkpt lat="49.92089" lon="5.90099"/><trkpt lat="49.92072" lon="5.90023"/><trkpt lat="49.92066" lon="5.90018"/><trkpt lat="49.92067" lon="5.90063"/><trkpt lat="49.92059" lon="5.90073"/><trkpt lat="49.9204" lon="5.90071"/><trkpt lat="49.92035" lon="5.90157"/><trkpt lat="49.92014" lon="5.90222"/><trkpt lat="49.91994" lon="5.90342"/><trkpt lat="49.9196" lon="5.90417"/><trkpt lat="49.91965" lon="5.90443"/><trkpt lat="49.91945" lon="5.90532"/><trkpt lat="49.91918" lon="5.90583"/><trkpt lat="49.9186" lon="5.90661"/><trkpt lat="49.9184" lon="5.9071"/><trkpt lat="49.91833" lon="5.90703"/><trkpt lat="49.91825" lon="5.90708"/></trkseg></trk>
</gpx>
