<?xml version="1.0" encoding="UTF-8"?>
<gpx version="1.1" creator="ian.lu/trails" xmlns="http://www.topografix.com/GPX/1/1">
<metadata><name>Auto-Pédestre Larochette</name><link href="https://ian.lu/trails/"/></metadata>
<trk><name>Auto-Pédestre Larochette</name><trkseg><trkpt lat="49.78414" lon="6.21939"/><trkpt lat="49.78311" lon="6.2184"/><trkpt lat="49.78296" lon="6.21837"/><trkpt lat="49.78192" lon="6.21771"/><trkpt lat="49.78112" lon="6.21755"/><trkpt lat="49.78087" lon="6.21727"/><trkpt lat="49.78073" lon="6.21722"/><trkpt lat="49.7795" lon="6.21721"/><trkpt lat="49.77901" lon="6.21743"/><trkpt lat="49.77883" lon="6.21707"/><trkpt lat="49.77877" lon="6.21681"/><trkpt lat="49.77877" lon="6.21599"/><trkpt lat="49.77887" lon="6.21539"/><trkpt lat="49.77914" lon="6.21496"/><trkpt lat="49.77935" lon="6.2148"/><trkpt lat="49.77932" lon="6.21474"/><trkpt lat="49.7795" lon="6.21446"/><trkpt lat="49.77945" lon="6.21487"/><trkpt lat="49.7793" lon="6.21534"/><trkpt lat="49.77918" lon="6.21623"/><trkpt lat="49.77918" lon="6.21652"/><trkpt lat="49.77926" lon="6.21669"/><trkpt lat="49.77962" lon="6.21679"/><trkpt lat="49.77987" lon="6.21674"/><trkpt lat="49.77996" lon="6.21661"/><trkpt lat="49.78012" lon="6.21654"/><trkpt lat="49.78025" lon="6.21655"/><trkpt lat="49.78036" lon="6.21647"/><trkpt lat="49.78075" lon="6.21652"/><trkpt lat="49.78107" lon="6.21617"/><trkpt lat="49.78142" lon="6.21634"/><trkpt lat="49.78168" lon="6.21621"/><trkpt lat="49.78177" lon="6.21621"/><trkpt lat="49.78192" lon="6.21637"/><trkpt lat="49.78209" lon="6.21626"/><trkpt lat="49.78228" lon="6.21661"/><trkpt lat="49.78244" lon="6.2165"/><trkpt lat="49.78263" lon="6.21657"/><trkpt lat="49.78272" lon="6.21697"/><trkpt lat="49.78291" lon="6.21709"/><trkpt lat="49.78303" lon="6.21732"/><trkpt lat="49.78332" lon="6.21741"/><trkpt lat="49.78325" lon="6.21718"/><trkpt lat="49.78348" lon="6.21726"/><trkpt lat="49.78359" lon="6.21776"/><trkpt lat="49.78371" lon="6.2178"/><trkpt lat="49.78372" lon="6.21742"/><trkpt lat="49.78384" lon="6.21701"/><trkpt lat="49.78378" lon="6.21673"/><trkpt lat="49.78387" lon="6.21657"/><trkpt lat="49.78399" lon="6.21575"/><trkpt lat="49.78418" lon="6.2154"/><trkpt lat="49.78436" lon="6.21471"/><trkpt lat="49.78455" lon="6.21428"/><trkpt lat="49.78452" lon="6.21364"/><trkpt lat="49.78474" lon="6.21329"/><trkpt lat="49.78485" lon="6.21295"/><trkpt lat="49.78497" lon="6.2128"/><trkpt lat="49.78516" lon="6.21276"/><trkpt lat="49.78528" lon="6.21252"/><trkpt lat="49.78537" lon="6.21177"/><trkpt lat="49.78547" lon="6.21155"/><trkpt lat="49.78534" lon="6.21159"/><trkpt lat="49.78536" lon="6.21151"/><trkpt lat="49.7857" lon="6.21136"/><trkpt lat="49.78585" lon="6.2112"/><trkpt lat="49.78592" lon="6.2103"/><trkpt lat="49.78598" lon="6.21015"/><trkpt lat="49.78624" lon="6.2099"/><trkpt lat="49.78639" lon="6.20945"/><trkpt lat="49.78681" lon="6.20911"/><trkpt lat="49.7865" lon="6.20811"/><trkpt lat="49.78647" lon="6.20768"/><trkpt lat="49.78682" lon="6.20557"/><trkpt lat="49.78694" lon="6.20556"/><trkpt lat="49.787" lon="6.20567"/><trkpt lat="49.78678" lon="6.20628"/><trkpt lat="49.78696" lon="6.20635"/><trkpt lat="49.78691" lon="6.20675"/><trkpt lat="49.78711" lon="6.20757"/><trkpt lat="49.78748" lon="6.20847"/><trkpt lat="49.78797" lon="6.20851"/><trkpt lat="49.78804" lon="6.20876"/><trkpt lat="49.78774" lon="6.20968"/><trkpt lat="49.78709" lon="6.21095"/><trkpt lat="49.78704" lon="6.21131"/><trkpt lat="49.78608" lon="6.21328"/><trkpt lat="49.78517" lon="6.21549"/><trkpt lat="49.78533" lon="6.21556"/><trkpt lat="49.78564" lon="6.21516"/><trkpt lat="49.78587" lon="6.21464"/><trkpt lat="49.78623" lon="6.21414"/><trkpt lat="49.78633" lon="6.21381"/><trkpt lat="49.7864" lon="6.21374"/><trkpt lat="49.78658" lon="6.21373"/><trkpt lat="49.78639" lon="6.21434"/><trkpt lat="49.786" lon="6.21525"/><trkpt lat="49.78589" lon="6.21605"/><trkpt lat="49.78618" lon="6.21636"/><trkpt lat="49.78623" lon="6.21653"/><trkpt lat="49.78611" lon="6.21664"/><trkpt lat="49.78616" lon="6.21679"/><trkpt lat="49.78649" lon="6.21667"/><trkpt lat="49.78732" lon="6.21614"/><trkpt lat="49.7878" lon="6.21594"/><trkpt lat="49.7881" lon="6.21589"/><trkpt lat="49.78876" lon="6.21598"/><trkpt lat="49.7896" lon="6.21425"/><trkpt lat="49.79078" lon="6.21256"/><trkpt lat="49.79128" lon="6.21195"/><trkpt lat="49.79146" lon="6.21185"/><trkpt lat="49.79168" lon="6.21157"/><trkpt lat="49.79171" lon="6.21123"/><trkpt lat="49.79191" lon="6.21143"/><trkpt lat="49.79246" lon="6.20999"/><trkpt lat="49.79315" lon="6.20924"/><trkpt lat="49.79337" lon="6.20918"/><trkpt lat="49.79359" lon="6.20885"/><trkpt lat="49.794" lon="6.20797"/><trkpt lat="49.7941" lon="6.20834"/><trkpt lat="49.79376" lon="6.20929"/><trkpt lat="49.79269" lon="6.21053"/><trkpt lat="49.79173" lon="6.21277"/><trkpt lat="49.79088" lon="6.21495"/><trkpt lat="49.79063" lon="6.21577"/><trkpt lat="49.7903" lon="6.21716"/><trkpt lat="49.79012" lon="6.21836"/><trkpt lat="49.79" lon="6.21836"/><trkpt lat="49.7894" lon="6.21812"/><trkpt lat="49.7893" lon="6.21869"/><trkpt lat="49.7892" lon="6.21929"/><trkpt lat="49.78972" lon="6.21954"/><trkpt lat="49.78953" lon="6.22038"/><trkpt lat="49.79036" lon="6.22151"/><trkpt lat="49.79083" lon="6.22277"/><trkpt lat="49.79083" lon="6.2233"/><trkpt lat="49.79111" lon="6.22562"/><trkpt lat="49.79102" lon="6.22585"/><trkpt lat="49.79102" lon="6.22618"/><trkpt lat="49.79098" lon="6.22636"/><trkpt lat="49.79036" lon="6.22461"/><trkpt lat="49.79007" lon="6.22315"/><trkpt lat="49.78943" lon="6.22236"/><trkpt lat="49.78879" lon="6.22183"/><trkpt lat="49.78851" lon="6.22173"/><trkpt lat="49.78805" lon="6.22109"/><trkpt lat="49.78781" lon="6.22086"/><trkpt lat="49.78745" lon="6.22072"/><trkpt lat="49.78732" lon="6.2208"/><trkpt lat="49.78713" lon="6.22106"/><trkpt lat="49.78701" lon="6.22155"/><trkpt lat="49.78717" lon="6.22306"/><trkpt lat="49.78684" lon="6.22366"/><trkpt lat="49.78673" lon="6.22363"/><trkpt lat="49.78665" lon="6.22349"/><trkpt lat="49.7865" lon="6.22299"/><trkpt lat="49.78614" lon="6.22239"/><trkpt lat="49.78602" lon="6.22239"/><trkpt lat="49.78536" lon="6.22284"/><trkpt lat="49.78498" lon="6.22277"/><trkpt lat="49.7844" lon="6.22242"/><trkpt lat="49.78409" lon="6.2221"/><trkpt lat="49.78392" lon="6.22168"/><trkpt lat="49.78372" lon="6.22144"/><trkpt lat="49.78371" lon="6.22133"/><trkpt lat="49.78405" lon="6.22128"/><trkpt lat="49.78378" lon="6.22076"/><trkpt lat="49.78383" lon="6.2202"/><trkpt lat="49.78399" lon="6.21998"/><trkpt lat="49.78418" lon="6.21945"/><trkpt lat="49.78414" lon="6.21939"/></trkseg></trk>
</gpx>
