<?xml version="1.0" encoding="UTF-8"?>
<gpx version="1.1" creator="ian.lu/trails" xmlns="http://www.topografix.com/GPX/1/1">
<metadata><name>Auto-Pédestre Lieler &lt; &gt; (ex Weiswampach 1)</name><link href="https://ian.lu/trails/"/></metadata>
<trk><name>Auto-Pédestre Lieler &lt; &gt; (ex Weiswampach 1)</name><trkseg><trkpt lat="50.12496" lon="6.11104"/><trkpt lat="50.12503" lon="6.11122"/><trkpt lat="50.1251" lon="6.11117"/><trkpt lat="50.12521" lon="6.11138"/><trkpt lat="50.12557" lon="6.11105"/><trkpt lat="50.12571" lon="6.1106"/><trkpt lat="50.12567" lon="6.10978"/><trkpt lat="50.12528" lon="6.1084"/><trkpt lat="50.12459" lon="6.1065"/><trkpt lat="50.12438" lon="6.10572"/><trkpt lat="50.12407" lon="6.10516"/><trkpt lat="50.1241" lon="6.10411"/><trkpt lat="50.1242" lon="6.10415"/><trkpt lat="50.12473" lon="6.10487"/><trkpt lat="50.12499" lon="6.10507"/><trkpt lat="50.12509" lon="6.10508"/><trkpt lat="50.12598" lon="6.10396"/><trkpt lat="50.12629" lon="6.104"/><trkpt lat="50.12637" lon="6.10394"/><trkpt lat="50.12664" lon="6.1036"/><trkpt lat="50.12685" lon="6.10314"/><trkpt lat="50.12753" lon="6.10301"/><trkpt lat="50.12799" lon="6.1028"/><trkpt lat="50.12831" lon="6.10281"/><trkpt lat="50.12854" lon="6.10296"/><trkpt lat="50.12916" lon="6.10392"/><trkpt lat="50.12967" lon="6.10452"/><trkpt lat="50.13053" lon="6.10475"/><trkpt lat="50.13134" lon="6.10486"/><trkpt lat="50.13171" lon="6.10498"/><trkpt lat="50.13205" lon="6.10523"/><trkpt lat="50.13249" lon="6.10566"/><trkpt lat="50.13319" lon="6.10663"/><trkpt lat="50.13435" lon="6.10731"/><trkpt lat="50.13459" lon="6.10789"/><trkpt lat="50.1351" lon="6.10856"/><trkpt lat="50.13514" lon="6.10944"/><trkpt lat="50.13548" lon="6.11124"/><trkpt lat="50.13548" lon="6.11181"/><trkpt lat="50.13572" lon="6.11216"/><trkpt lat="50.13589" lon="6.11267"/><trkpt lat="50.13607" lon="6.11351"/><trkpt lat="50.13614" lon="6.11424"/><trkpt lat="50.13613" lon="6.11525"/><trkpt lat="50.13586" lon="6.11826"/><trkpt lat="50.13583" lon="6.11976"/><trkpt lat="50.13591" lon="6.12048"/><trkpt lat="50.13589" lon="6.12091"/><trkpt lat="50.13558" lon="6.12175"/><trkpt lat="50.13472" lon="6.12337"/><trkpt lat="50.13444" lon="6.12402"/><trkpt lat="50.13436" lon="6.12406"/><trkpt lat="50.13424" lon="6.12398"/><trkpt lat="50.13411" lon="6.12406"/><trkpt lat="50.1341" lon="6.12478"/><trkpt lat="50.13395" lon="6.1254"/><trkpt lat="50.13366" lon="6.12604"/><trkpt lat="50.13346" lon="6.1263"/><trkpt lat="50.13239" lon="6.1272"/><trkpt lat="50.13158" lon="6.12764"/><trkpt lat="50.13153" lon="6.12794"/><trkpt lat="50.1314" lon="6.12821"/><trkpt lat="50.13029" lon="6.12954"/><trkpt lat="50.12971" lon="6.13034"/><trkpt lat="50.12937" lon="6.13124"/><trkpt lat="50.12924" lon="6.13235"/><trkpt lat="50.12928" lon="6.1334"/><trkpt lat="50.12974" lon="6.13516"/><trkpt lat="50.12972" lon="6.13564"/><trkpt lat="50.12995" lon="6.13616"/><trkpt lat="50.13074" lon="6.1367"/><trkpt lat="50.13083" lon="6.13709"/><trkpt lat="50.12972" lon="6.13729"/><trkpt lat="50.12914" lon="6.13719"/><trkpt lat="50.1286" lon="6.13693"/><trkpt lat="50.12825" lon="6.13688"/><trkpt lat="50.12759" lon="6.1371"/><trkpt lat="50.12727" lon="6.13713"/><trkpt lat="50.127" lon="6.13703"/><trkpt lat="50.1265" lon="6.13667"/><trkpt lat="50.12551" lon="6.13644"/><trkpt lat="50.12533" lon="6.13628"/><trkpt lat="50.12472" lon="6.13609"/><trkpt lat="50.12439" lon="6.1359"/><trkpt lat="50.1242" lon="6.13573"/><trkpt lat="50.12384" lon="6.13525"/><trkpt lat="50.12351" lon="6.13444"/><trkpt lat="50.1233" lon="6.13367"/><trkpt lat="50.12292" lon="6.13164"/><trkpt lat="50.12254" lon="6.13021"/><trkpt lat="50.12226" lon="6.12995"/><trkpt lat="50.12198" lon="6.12952"/><trkpt lat="50.12132" lon="6.12917"/><trkpt lat="50.12087" lon="6.12915"/><trkpt lat="50.1204" lon="6.12898"/><trkpt lat="50.11956" lon="6.12845"/><trkpt lat="50.11875" lon="6.12777"/><trkpt lat="50.11873" lon="6.12753"/><trkpt lat="50.11893" lon="6.12685"/><trkpt lat="50.11912" lon="6.12432"/><trkpt lat="50.119" lon="6.12335"/><trkpt lat="50.11856" lon="6.12141"/><trkpt lat="50.11854" lon="6.12081"/><trkpt lat="50.11861" lon="6.1204"/><trkpt lat="50.119" lon="6.11974"/><trkpt lat="50.11962" lon="6.11904"/><trkpt lat="50.11996" lon="6.1183"/><trkpt lat="50.12018" lon="6.11807"/><trkpt lat="50.12078" lon="6.1177"/><trkpt lat="50.12154" lon="6.11691"/><trkpt lat="50.12233" lon="6.11596"/><trkpt lat="50.12295" lon="6.11489"/><trkpt lat="50.12354" lon="6.11423"/><trkpt lat="50.12406" lon="6.1132"/><trkpt lat="50.12417" lon="6.11196"/><trkpt lat="50.12457" lon="6.11149"/><trkpt lat="50.12474" lon="6.11139"/><trkpt lat="50.12496" lon="6.11105"/></trkseg></trk>
</gpx>
