<?xml version="1.0" encoding="UTF-8"?>
<gpx version="1.1" creator="ian.lu/trails" xmlns="http://www.topografix.com/GPX/1/1">
<metadata><name>Auto-Pédestre Machtum</name><link href="https://ian.lu/trails/"/></metadata>
<trk><name>Auto-Pédestre Machtum</name><trkseg><trkpt lat="49.6594" lon="6.43619"/><trkpt lat="49.65928" lon="6.43662"/><trkpt lat="49.65905" lon="6.43701"/><trkpt lat="49.65887" lon="6.43713"/><trkpt lat="49.65876" lon="6.4371"/><trkpt lat="49.65802" lon="6.43649"/><trkpt lat="49.65745" lon="6.43659"/><trkpt lat="49.65527" lon="6.43761"/><trkpt lat="49.65431" lon="6.43756"/><trkpt lat="49.65358" lon="6.43735"/><trkpt lat="49.65256" lon="6.43636"/><trkpt lat="49.65215" lon="6.43578"/><trkpt lat="49.65154" lon="6.43521"/><trkpt lat="49.65133" lon="6.43493"/><trkpt lat="49.65108" lon="6.43457"/><trkpt lat="49.65043" lon="6.43281"/><trkpt lat="49.65007" lon="6.43237"/><trkpt lat="49.64969" lon="6.43226"/><trkpt lat="49.64943" lon="6.43158"/><trkpt lat="49.64894" lon="6.43085"/><trkpt lat="49.64803" lon="6.42975"/><trkpt lat="49.64693" lon="6.42873"/><trkpt lat="49.64643" lon="6.42799"/><trkpt lat="49.6452" lon="6.42701"/><trkpt lat="49.6443" lon="6.42603"/><trkpt lat="49.64414" lon="6.42603"/><trkpt lat="49.64363" lon="6.42573"/><trkpt lat="49.64339" lon="6.4253"/><trkpt lat="49.6431" lon="6.42516"/><trkpt lat="49.64247" lon="6.42504"/><trkpt lat="49.64218" lon="6.42505"/><trkpt lat="49.64182" lon="6.4252"/><trkpt lat="49.64117" lon="6.42502"/><trkpt lat="49.63981" lon="6.42488"/><trkpt lat="49.63819" lon="6.4243"/><trkpt lat="49.63727" lon="6.42386"/><trkpt lat="49.63734" lon="6.42368"/><trkpt lat="49.63725" lon="6.42262"/><trkpt lat="49.63655" lon="6.422"/><trkpt lat="49.636" lon="6.42167"/><trkpt lat="49.63364" lon="6.41969"/><trkpt lat="49.63195" lon="6.4185"/><trkpt lat="49.63133" lon="6.41768"/><trkpt lat="49.63113" lon="6.41753"/><trkpt lat="49.63107" lon="6.41726"/><trkpt lat="49.6311" lon="6.4172"/><trkpt lat="49.63133" lon="6.41717"/><trkpt lat="49.63223" lon="6.41721"/><trkpt lat="49.63261" lon="6.4177"/><trkpt lat="49.63293" lon="6.41786"/><trkpt lat="49.63327" lon="6.41815"/><trkpt lat="49.63334" lon="6.41816"/><trkpt lat="49.63338" lon="6.41807"/><trkpt lat="49.63336" lon="6.41784"/><trkpt lat="49.63574" lon="6.41936"/><trkpt lat="49.63623" lon="6.41979"/><trkpt lat="49.63678" lon="6.42042"/><trkpt lat="49.63718" lon="6.4206"/><trkpt lat="49.63767" lon="6.42071"/><trkpt lat="49.63825" lon="6.42121"/><trkpt lat="49.63838" lon="6.42095"/><trkpt lat="49.63853" lon="6.42114"/><trkpt lat="49.64032" lon="6.42259"/><trkpt lat="49.6415" lon="6.42282"/><trkpt lat="49.64255" lon="6.42332"/><trkpt lat="49.64267" lon="6.42367"/><trkpt lat="49.64311" lon="6.42387"/><trkpt lat="49.64428" lon="6.42474"/><trkpt lat="49.64586" lon="6.42646"/><trkpt lat="49.64774" lon="6.42784"/><trkpt lat="49.64833" lon="6.42833"/><trkpt lat="49.64906" lon="6.42854"/><trkpt lat="49.64995" lon="6.4286"/><trkpt lat="49.65139" lon="6.42855"/><trkpt lat="49.65156" lon="6.42915"/><trkpt lat="49.65217" lon="6.43067"/><trkpt lat="49.65483" lon="6.43423"/><trkpt lat="49.65544" lon="6.43514"/><trkpt lat="49.65605" lon="6.43373"/><trkpt lat="49.65657" lon="6.433"/><trkpt lat="49.65645" lon="6.43182"/><trkpt lat="49.65754" lon="6.43226"/><trkpt lat="49.65809" lon="6.43275"/><trkpt lat="49.65853" lon="6.4328"/><trkpt lat="49.65876" lon="6.43318"/><trkpt lat="49.6594" lon="6.43357"/><trkpt lat="49.65963" lon="6.43397"/><trkpt lat="49.65963" lon="6.43556"/><trkpt lat="49.65956" lon="6.43589"/><trkpt lat="49.6594" lon="6.43619"/></trkseg></trk>
</gpx>
