<?xml version="1.0" encoding="UTF-8"?>
<gpx version="1.1" creator="ian.lu/trails" xmlns="http://www.topografix.com/GPX/1/1">
<metadata><name>Auto-Pédestre Manternach</name><link href="https://ian.lu/trails/"/></metadata>
<trk><name>Auto-Pédestre Manternach</name><trkseg><trkpt lat="49.70673" lon="6.42381"/><trkpt lat="49.70671" lon="6.42393"/><trkpt lat="49.70549" lon="6.42411"/><trkpt lat="49.70524" lon="6.4243"/><trkpt lat="49.70592" lon="6.4274"/><trkpt lat="49.70626" lon="6.42725"/><trkpt lat="49.70646" lon="6.42853"/><trkpt lat="49.70615" lon="6.4288"/><trkpt lat="49.70629" lon="6.42938"/><trkpt lat="49.70645" lon="6.43088"/><trkpt lat="49.70638" lon="6.43132"/><trkpt lat="49.70622" lon="6.43133"/><trkpt lat="49.70626" lon="6.43242"/><trkpt lat="49.706" lon="6.43377"/><trkpt lat="49.70599" lon="6.43476"/><trkpt lat="49.70632" lon="6.43573"/><trkpt lat="49.70645" lon="6.43583"/><trkpt lat="49.70655" lon="6.43618"/><trkpt lat="49.70691" lon="6.43683"/><trkpt lat="49.70724" lon="6.43715"/><trkpt lat="49.70764" lon="6.43727"/><trkpt lat="49.70765" lon="6.43708"/><trkpt lat="49.70744" lon="6.43686"/><trkpt lat="49.70808" lon="6.43695"/><trkpt lat="49.70825" lon="6.43681"/><trkpt lat="49.70857" lon="6.43679"/><trkpt lat="49.70931" lon="6.43694"/><trkpt lat="49.70972" lon="6.43723"/><trkpt lat="49.71007" lon="6.43783"/><trkpt lat="49.71028" lon="6.43842"/><trkpt lat="49.71086" lon="6.43857"/><trkpt lat="49.71085" lon="6.43936"/><trkpt lat="49.71091" lon="6.43937"/><trkpt lat="49.71086" lon="6.44018"/><trkpt lat="49.711" lon="6.44049"/><trkpt lat="49.71136" lon="6.44098"/><trkpt lat="49.71204" lon="6.44131"/><trkpt lat="49.71216" lon="6.44145"/><trkpt lat="49.71244" lon="6.44204"/><trkpt lat="49.71262" lon="6.44188"/><trkpt lat="49.71263" lon="6.4417"/><trkpt lat="49.71291" lon="6.44149"/><trkpt lat="49.71307" lon="6.44172"/><trkpt lat="49.71311" lon="6.44154"/><trkpt lat="49.71267" lon="6.44062"/><trkpt lat="49.71234" lon="6.44025"/><trkpt lat="49.71231" lon="6.43969"/><trkpt lat="49.71241" lon="6.43946"/><trkpt lat="49.71235" lon="6.43927"/><trkpt lat="49.71244" lon="6.4393"/><trkpt lat="49.71321" lon="6.44018"/><trkpt lat="49.71365" lon="6.44089"/><trkpt lat="49.71397" lon="6.44095"/><trkpt lat="49.7145" lon="6.4414"/><trkpt lat="49.71437" lon="6.44244"/><trkpt lat="49.71411" lon="6.44373"/><trkpt lat="49.71408" lon="6.44439"/><trkpt lat="49.71415" lon="6.44546"/><trkpt lat="49.714" lon="6.44788"/><trkpt lat="49.71404" lon="6.44941"/><trkpt lat="49.7139" lon="6.45171"/><trkpt lat="49.71394" lon="6.45193"/><trkpt lat="49.71409" lon="6.45206"/><trkpt lat="49.71447" lon="6.4513"/><trkpt lat="49.71578" lon="6.45066"/><trkpt lat="49.71622" lon="6.45019"/><trkpt lat="49.71829" lon="6.44729"/><trkpt lat="49.72015" lon="6.44366"/><trkpt lat="49.72027" lon="6.44312"/><trkpt lat="49.72029" lon="6.4423"/><trkpt lat="49.72045" lon="6.44135"/><trkpt lat="49.72101" lon="6.43967"/><trkpt lat="49.72098" lon="6.43811"/><trkpt lat="49.72129" lon="6.43581"/><trkpt lat="49.7214" lon="6.43582"/><trkpt lat="49.72249" lon="6.43412"/><trkpt lat="49.72291" lon="6.43173"/><trkpt lat="49.72342" lon="6.4309"/><trkpt lat="49.72419" lon="6.42943"/><trkpt lat="49.72455" lon="6.42854"/><trkpt lat="49.72508" lon="6.42549"/><trkpt lat="49.72513" lon="6.42417"/><trkpt lat="49.7249" lon="6.42397"/><trkpt lat="49.72448" lon="6.42381"/><trkpt lat="49.72339" lon="6.42385"/><trkpt lat="49.72292" lon="6.42368"/><trkpt lat="49.7227" lon="6.4235"/><trkpt lat="49.72181" lon="6.42247"/><trkpt lat="49.72096" lon="6.42135"/><trkpt lat="49.72028" lon="6.42248"/><trkpt lat="49.71999" lon="6.42325"/><trkpt lat="49.71898" lon="6.42358"/><trkpt lat="49.7187" lon="6.42383"/><trkpt lat="49.71827" lon="6.42439"/><trkpt lat="49.71803" lon="6.42528"/><trkpt lat="49.71807" lon="6.42563"/><trkpt lat="49.7184" lon="6.42602"/><trkpt lat="49.7186" lon="6.42664"/><trkpt lat="49.71894" lon="6.42962"/><trkpt lat="49.71946" lon="6.43155"/><trkpt lat="49.7197" lon="6.43209"/><trkpt lat="49.72033" lon="6.4341"/><trkpt lat="49.72009" lon="6.43498"/><trkpt lat="49.71904" lon="6.43435"/><trkpt lat="49.71872" lon="6.43408"/><trkpt lat="49.71686" lon="6.43126"/><trkpt lat="49.71562" lon="6.43141"/><trkpt lat="49.71333" lon="6.43223"/><trkpt lat="49.71175" lon="6.43469"/><trkpt lat="49.7111" lon="6.43338"/><trkpt lat="49.71048" lon="6.43235"/><trkpt lat="49.71035" lon="6.43229"/><trkpt lat="49.7101" lon="6.4323"/><trkpt lat="49.70986" lon="6.43246"/><trkpt lat="49.70974" lon="6.43242"/><trkpt lat="49.70974" lon="6.43228"/><trkpt lat="49.71004" lon="6.43168"/><trkpt lat="49.70995" lon="6.43087"/><trkpt lat="49.71019" lon="6.42973"/><trkpt lat="49.7101" lon="6.42955"/><trkpt lat="49.70992" lon="6.42938"/><trkpt lat="49.70971" lon="6.42925"/><trkpt lat="49.70951" lon="6.42941"/><trkpt lat="49.70866" lon="6.43142"/><trkpt lat="49.70856" lon="6.43157"/><trkpt lat="49.70842" lon="6.43157"/><trkpt lat="49.70839" lon="6.43129"/><trkpt lat="49.70854" lon="6.43005"/><trkpt lat="49.70847" lon="6.42743"/><trkpt lat="49.70744" lon="6.42483"/><trkpt lat="49.70739" lon="6.42386"/><trkpt lat="49.70723" lon="6.42375"/><trkpt lat="49.70687" lon="6.42387"/><trkpt lat="49.70673" lon="6.42381"/></trkseg></trk>
</gpx>
