<?xml version="1.0" encoding="UTF-8"?>
<gpx version="1.1" creator="ian.lu/trails" xmlns="http://www.topografix.com/GPX/1/1">
<metadata><name>Auto-Pédestre Mertzig</name><link href="https://ian.lu/trails/"/></metadata>
<trk><name>Auto-Pédestre Mertzig</name><trkseg><trkpt lat="49.83444" lon="6.00593"/><trkpt lat="49.83375" lon="6.0062"/><trkpt lat="49.83372" lon="6.00641"/><trkpt lat="49.83381" lon="6.00666"/><trkpt lat="49.83374" lon="6.00672"/><trkpt lat="49.83398" lon="6.00755"/><trkpt lat="49.83434" lon="6.0085"/><trkpt lat="49.8343" lon="6.00881"/><trkpt lat="49.83406" lon="6.00923"/><trkpt lat="49.83353" lon="6.00959"/><trkpt lat="49.83335" lon="6.00984"/><trkpt lat="49.8331" lon="6.00958"/><trkpt lat="49.83243" lon="6.00763"/><trkpt lat="49.83243" lon="6.00677"/><trkpt lat="49.83224" lon="6.00655"/><trkpt lat="49.83227" lon="6.00625"/><trkpt lat="49.83199" lon="6.00514"/><trkpt lat="49.83208" lon="6.00409"/><trkpt lat="49.8318" lon="6.00393"/><trkpt lat="49.83153" lon="6.0037"/><trkpt lat="49.83145" lon="6.00354"/><trkpt lat="49.83153" lon="6.00339"/><trkpt lat="49.83141" lon="6.00224"/><trkpt lat="49.83144" lon="6.00182"/><trkpt lat="49.83138" lon="6.00166"/><trkpt lat="49.83125" lon="6.00157"/><trkpt lat="49.83127" lon="6.00136"/><trkpt lat="49.83105" lon="6.00088"/><trkpt lat="49.83113" lon="6.0008"/><trkpt lat="49.83108" lon="6.00062"/><trkpt lat="49.8317" lon="6.00012"/><trkpt lat="49.8319" lon="5.99987"/><trkpt lat="49.83217" lon="5.99925"/><trkpt lat="49.8336" lon="5.99661"/><trkpt lat="49.83381" lon="5.996"/><trkpt lat="49.83403" lon="5.9945"/><trkpt lat="49.83425" lon="5.99367"/><trkpt lat="49.83502" lon="5.99218"/><trkpt lat="49.83556" lon="5.99091"/><trkpt lat="49.83756" lon="5.98722"/><trkpt lat="49.83813" lon="5.98587"/><trkpt lat="49.83886" lon="5.9835"/><trkpt lat="49.83939" lon="5.98261"/><trkpt lat="49.83978" lon="5.98175"/><trkpt lat="49.84084" lon="5.98087"/><trkpt lat="49.84125" lon="5.97992"/><trkpt lat="49.84172" lon="5.97922"/><trkpt lat="49.84195" lon="5.97869"/><trkpt lat="49.8422" lon="5.97768"/><trkpt lat="49.84254" lon="5.97727"/><trkpt lat="49.8428" lon="5.97719"/><trkpt lat="49.84306" lon="5.97774"/><trkpt lat="49.84343" lon="5.97969"/><trkpt lat="49.84353" lon="5.98055"/><trkpt lat="49.84384" lon="5.9808"/><trkpt lat="49.84408" lon="5.98147"/><trkpt lat="49.84431" lon="5.98177"/><trkpt lat="49.84468" lon="5.9821"/><trkpt lat="49.8453" lon="5.98304"/><trkpt lat="49.84557" lon="5.9836"/><trkpt lat="49.84568" lon="5.98426"/><trkpt lat="49.84553" lon="5.98572"/><trkpt lat="49.84564" lon="5.98593"/><trkpt lat="49.84587" lon="5.98598"/><trkpt lat="49.84619" lon="5.98579"/><trkpt lat="49.84675" lon="5.9857"/><trkpt lat="49.84723" lon="5.98572"/><trkpt lat="49.84747" lon="5.98581"/><trkpt lat="49.84777" lon="5.98515"/><trkpt lat="49.84811" lon="5.98466"/><trkpt lat="49.84848" lon="5.98459"/><trkpt lat="49.84927" lon="5.98417"/><trkpt lat="49.84962" lon="5.98436"/><trkpt lat="49.8497" lon="5.98459"/><trkpt lat="49.85045" lon="5.98405"/><trkpt lat="49.85066" lon="5.98397"/><trkpt lat="49.85089" lon="5.98411"/><trkpt lat="49.85105" lon="5.98441"/><trkpt lat="49.85048" lon="5.98523"/><trkpt lat="49.85003" lon="5.98554"/><trkpt lat="49.84975" lon="5.98586"/><trkpt lat="49.84898" lon="5.98621"/><trkpt lat="49.84872" lon="5.98657"/><trkpt lat="49.84855" lon="5.98656"/><trkpt lat="49.8485" lon="5.98632"/><trkpt lat="49.84844" lon="5.98646"/><trkpt lat="49.84833" lon="5.98652"/><trkpt lat="49.84802" lon="5.98646"/><trkpt lat="49.84778" lon="5.9865"/><trkpt lat="49.84781" lon="5.98673"/><trkpt lat="49.84797" lon="5.98687"/><trkpt lat="49.84868" lon="5.98698"/><trkpt lat="49.84904" lon="5.98681"/><trkpt lat="49.84929" lon="5.98687"/><trkpt lat="49.84944" lon="5.98703"/><trkpt lat="49.85012" lon="5.98834"/><trkpt lat="49.85037" lon="5.98845"/><trkpt lat="49.85013" lon="5.989"/><trkpt lat="49.84998" lon="5.99073"/><trkpt lat="49.84964" lon="5.99181"/><trkpt lat="49.84939" lon="5.99194"/><trkpt lat="49.84895" lon="5.99199"/><trkpt lat="49.84878" lon="5.99209"/><trkpt lat="49.84795" lon="5.99326"/><trkpt lat="49.84778" lon="5.99391"/><trkpt lat="49.84726" lon="5.99433"/><trkpt lat="49.84737" lon="5.99546"/><trkpt lat="49.84773" lon="5.99698"/><trkpt lat="49.84774" lon="5.99758"/><trkpt lat="49.84759" lon="6.00004"/><trkpt lat="49.84739" lon="6.00147"/><trkpt lat="49.84722" lon="6.00211"/><trkpt lat="49.8472" lon="6.00263"/><trkpt lat="49.84662" lon="6.00235"/><trkpt lat="49.84636" lon="6.00184"/><trkpt lat="49.84604" lon="6.00189"/><trkpt lat="49.84564" lon="6.00186"/><trkpt lat="49.84466" lon="6.00157"/><trkpt lat="49.84374" lon="6.00097"/><trkpt lat="49.84323" lon="6.00043"/><trkpt lat="49.843" lon="6.00029"/><trkpt lat="49.84271" lon="6.00025"/><trkpt lat="49.84223" lon="6.00045"/><trkpt lat="49.84223" lon="5.99966"/><trkpt lat="49.84214" lon="5.99931"/><trkpt lat="49.84006" lon="6.00179"/><trkpt lat="49.83901" lon="6.00283"/><trkpt lat="49.83836" lon="6.00387"/><trkpt lat="49.83777" lon="6.00506"/><trkpt lat="49.83755" lon="6.00532"/><trkpt lat="49.8373" lon="6.00546"/><trkpt lat="49.83674" lon="6.0055"/><trkpt lat="49.83627" lon="6.00566"/><trkpt lat="49.83535" lon="6.00651"/><trkpt lat="49.83495" lon="6.00635"/><trkpt lat="49.83469" lon="6.00604"/><trkpt lat="49.83444" lon="6.00593"/></trkseg></trk>
</gpx>
