<?xml version="1.0" encoding="UTF-8"?>
<gpx version="1.1" creator="ian.lu/trails" xmlns="http://www.topografix.com/GPX/1/1">
<metadata><name>Auto-Pédestre Mertert</name><link href="https://ian.lu/trails/"/></metadata>
<trk><name>Auto-Pédestre Mertert</name><trkseg><trkpt lat="49.70281" lon="6.47662"/><trkpt lat="49.70227" lon="6.4776"/><trkpt lat="49.70213" lon="6.47739"/><trkpt lat="49.70203" lon="6.4774"/><trkpt lat="49.70172" lon="6.47753"/><trkpt lat="49.70152" lon="6.47778"/><trkpt lat="49.70143" lon="6.47781"/><trkpt lat="49.70122" lon="6.47767"/><trkpt lat="49.70106" lon="6.47766"/><trkpt lat="49.70062" lon="6.4779"/><trkpt lat="49.7005" lon="6.47787"/><trkpt lat="49.70031" lon="6.47757"/><trkpt lat="49.69998" lon="6.47684"/><trkpt lat="49.69981" lon="6.47677"/><trkpt lat="49.69915" lon="6.47806"/><trkpt lat="49.699" lon="6.4779"/><trkpt lat="49.70074" lon="6.47436"/><trkpt lat="49.7014" lon="6.47375"/><trkpt lat="49.70154" lon="6.47369"/><trkpt lat="49.70176" lon="6.47373"/><trkpt lat="49.70189" lon="6.47356"/><trkpt lat="49.70215" lon="6.47364"/><trkpt lat="49.70232" lon="6.4736"/><trkpt lat="49.70247" lon="6.47337"/><trkpt lat="49.70223" lon="6.47324"/><trkpt lat="49.70216" lon="6.47336"/><trkpt lat="49.70252" lon="6.47392"/><trkpt lat="49.70303" lon="6.47336"/><trkpt lat="49.70352" lon="6.47249"/><trkpt lat="49.70375" lon="6.4722"/><trkpt lat="49.70448" lon="6.4706"/><trkpt lat="49.70433" lon="6.47041"/><trkpt lat="49.70455" lon="6.46969"/><trkpt lat="49.70387" lon="6.46901"/><trkpt lat="49.70421" lon="6.46821"/><trkpt lat="49.70455" lon="6.46659"/><trkpt lat="49.7046" lon="6.46467"/><trkpt lat="49.70472" lon="6.4641"/><trkpt lat="49.70478" lon="6.46322"/><trkpt lat="49.70466" lon="6.46155"/><trkpt lat="49.70473" lon="6.45953"/><trkpt lat="49.7053" lon="6.45804"/><trkpt lat="49.70534" lon="6.45758"/><trkpt lat="49.70481" lon="6.45659"/><trkpt lat="49.70443" lon="6.45626"/><trkpt lat="49.70399" lon="6.4551"/><trkpt lat="49.70348" lon="6.45265"/><trkpt lat="49.7033" lon="6.45208"/><trkpt lat="49.70278" lon="6.44975"/><trkpt lat="49.70344" lon="6.45047"/><trkpt lat="49.704" lon="6.45083"/><trkpt lat="49.70477" lon="6.45146"/><trkpt lat="49.70583" lon="6.45259"/><trkpt lat="49.70622" lon="6.4531"/><trkpt lat="49.70647" lon="6.45331"/><trkpt lat="49.70707" lon="6.45358"/><trkpt lat="49.70737" lon="6.45359"/><trkpt lat="49.70763" lon="6.45351"/><trkpt lat="49.70784" lon="6.45329"/><trkpt lat="49.70832" lon="6.45245"/><trkpt lat="49.7091" lon="6.45057"/><trkpt lat="49.70954" lon="6.44972"/><trkpt lat="49.7099" lon="6.44884"/><trkpt lat="49.7099" lon="6.44865"/><trkpt lat="49.71018" lon="6.44847"/><trkpt lat="49.71044" lon="6.44791"/><trkpt lat="49.71048" lon="6.44705"/><trkpt lat="49.71065" lon="6.44628"/><trkpt lat="49.7111" lon="6.44644"/><trkpt lat="49.71109" lon="6.44622"/><trkpt lat="49.71117" lon="6.44604"/><trkpt lat="49.71165" lon="6.44565"/><trkpt lat="49.71173" lon="6.44547"/><trkpt lat="49.71211" lon="6.44531"/><trkpt lat="49.71226" lon="6.44514"/><trkpt lat="49.71238" lon="6.44537"/><trkpt lat="49.71252" lon="6.44599"/><trkpt lat="49.71259" lon="6.44587"/><trkpt lat="49.71276" lon="6.44581"/><trkpt lat="49.71312" lon="6.44518"/><trkpt lat="49.71328" lon="6.44561"/><trkpt lat="49.71333" lon="6.44639"/><trkpt lat="49.71325" lon="6.44662"/><trkpt lat="49.71321" lon="6.44701"/><trkpt lat="49.71332" lon="6.44811"/><trkpt lat="49.71351" lon="6.44906"/><trkpt lat="49.71318" lon="6.45071"/><trkpt lat="49.71322" lon="6.45164"/><trkpt lat="49.71318" lon="6.45206"/><trkpt lat="49.71306" lon="6.4524"/><trkpt lat="49.71243" lon="6.45346"/><trkpt lat="49.71234" lon="6.45375"/><trkpt lat="49.71221" lon="6.45385"/><trkpt lat="49.71191" lon="6.4544"/><trkpt lat="49.71154" lon="6.45475"/><trkpt lat="49.71136" lon="6.4552"/><trkpt lat="49.71144" lon="6.45523"/><trkpt lat="49.71149" lon="6.45536"/><trkpt lat="49.71159" lon="6.45531"/><trkpt lat="49.71175" lon="6.45501"/><trkpt lat="49.71187" lon="6.45511"/><trkpt lat="49.7118" lon="6.45518"/><trkpt lat="49.71181" lon="6.45542"/><trkpt lat="49.71194" lon="6.45593"/><trkpt lat="49.71216" lon="6.45622"/><trkpt lat="49.71217" lon="6.45735"/><trkpt lat="49.71205" lon="6.45826"/><trkpt lat="49.71205" lon="6.45891"/><trkpt lat="49.71179" lon="6.45932"/><trkpt lat="49.71177" lon="6.4596"/><trkpt lat="49.71164" lon="6.45976"/><trkpt lat="49.71187" lon="6.45982"/><trkpt lat="49.71241" lon="6.45945"/><trkpt lat="49.7126" lon="6.45844"/><trkpt lat="49.71286" lon="6.45808"/><trkpt lat="49.7129" lon="6.45776"/><trkpt lat="49.71362" lon="6.45716"/><trkpt lat="49.71381" lon="6.45685"/><trkpt lat="49.71411" lon="6.45674"/><trkpt lat="49.71436" lon="6.45642"/><trkpt lat="49.71445" lon="6.45659"/><trkpt lat="49.71489" lon="6.45576"/><trkpt lat="49.71586" lon="6.45548"/><trkpt lat="49.71617" lon="6.4555"/><trkpt lat="49.71654" lon="6.45566"/><trkpt lat="49.7169" lon="6.45563"/><trkpt lat="49.71739" lon="6.45525"/><trkpt lat="49.71759" lon="6.45485"/><trkpt lat="49.71766" lon="6.45454"/><trkpt lat="49.71766" lon="6.45374"/><trkpt lat="49.71776" lon="6.45344"/><trkpt lat="49.71783" lon="6.45343"/><trkpt lat="49.71788" lon="6.45359"/><trkpt lat="49.71798" lon="6.45349"/><trkpt lat="49.71804" lon="6.4536"/><trkpt lat="49.71821" lon="6.45369"/><trkpt lat="49.71812" lon="6.4541"/><trkpt lat="49.71819" lon="6.45462"/><trkpt lat="49.71845" lon="6.45511"/><trkpt lat="49.71898" lon="6.45653"/><trkpt lat="49.71934" lon="6.45788"/><trkpt lat="49.71826" lon="6.45916"/><trkpt lat="49.7175" lon="6.46053"/><trkpt lat="49.71745" lon="6.46071"/><trkpt lat="49.71809" lon="6.46175"/><trkpt lat="49.71836" lon="6.46246"/><trkpt lat="49.7187" lon="6.46292"/><trkpt lat="49.7191" lon="6.46454"/><trkpt lat="49.71895" lon="6.46464"/><trkpt lat="49.71875" lon="6.46452"/><trkpt lat="49.71847" lon="6.46455"/><trkpt lat="49.7179" lon="6.46434"/><trkpt lat="49.71695" lon="6.4642"/><trkpt lat="49.71644" lon="6.46452"/><trkpt lat="49.71564" lon="6.46542"/><trkpt lat="49.7152" lon="6.46576"/><trkpt lat="49.71479" lon="6.46593"/><trkpt lat="49.7142" lon="6.46601"/><trkpt lat="49.71358" lon="6.46604"/><trkpt lat="49.71225" lon="6.4654"/><trkpt lat="49.71183" lon="6.46629"/><trkpt lat="49.71187" lon="6.46674"/><trkpt lat="49.71166" lon="6.46743"/><trkpt lat="49.71161" lon="6.46845"/><trkpt lat="49.71155" lon="6.46859"/><trkpt lat="49.71093" lon="6.46899"/><trkpt lat="49.71055" lon="6.46967"/><trkpt lat="49.71031" lon="6.46981"/><trkpt lat="49.71052" lon="6.46999"/><trkpt lat="49.71063" lon="6.47026"/><trkpt lat="49.7107" lon="6.47075"/><trkpt lat="49.71066" lon="6.47152"/><trkpt lat="49.71052" lon="6.47161"/><trkpt lat="49.70989" lon="6.47162"/><trkpt lat="49.7093" lon="6.47257"/><trkpt lat="49.70886" lon="6.47346"/><trkpt lat="49.70813" lon="6.47438"/><trkpt lat="49.70756" lon="6.47581"/><trkpt lat="49.70758" lon="6.47651"/><trkpt lat="49.70509" lon="6.47729"/><trkpt lat="49.70429" lon="6.47735"/><trkpt lat="49.70397" lon="6.47803"/><trkpt lat="49.70367" lon="6.47669"/><trkpt lat="49.70355" lon="6.47675"/><trkpt lat="49.70346" lon="6.4766"/><trkpt lat="49.70323" lon="6.47652"/><trkpt lat="49.70318" lon="6.47637"/><trkpt lat="49.70281" lon="6.47663"/></trkseg></trk>
</gpx>
