<?xml version="1.0" encoding="UTF-8"?>
<gpx version="1.1" creator="ian.lu/trails" xmlns="http://www.topografix.com/GPX/1/1">
<metadata><name>Auto-Pédestre Moersdorf</name><link href="https://ian.lu/trails/"/></metadata>
<trk><name>Auto-Pédestre Moersdorf</name><trkseg><trkpt lat="49.74554" lon="6.50061"/><trkpt lat="49.74572" lon="6.50095"/><trkpt lat="49.74619" lon="6.50076"/><trkpt lat="49.74614" lon="6.50031"/><trkpt lat="49.74597" lon="6.49968"/><trkpt lat="49.74604" lon="6.4997"/><trkpt lat="49.74611" lon="6.49961"/><trkpt lat="49.74617" lon="6.49904"/><trkpt lat="49.74632" lon="6.49862"/><trkpt lat="49.74648" lon="6.49839"/><trkpt lat="49.74657" lon="6.49835"/><trkpt lat="49.74677" lon="6.4984"/><trkpt lat="49.74691" lon="6.49833"/><trkpt lat="49.74756" lon="6.49715"/><trkpt lat="49.74782" lon="6.49715"/><trkpt lat="49.74869" lon="6.49755"/><trkpt lat="49.74902" lon="6.49779"/><trkpt lat="49.74946" lon="6.49787"/><trkpt lat="49.75002" lon="6.49762"/><trkpt lat="49.75032" lon="6.49689"/><trkpt lat="49.74992" lon="6.49673"/><trkpt lat="49.74988" lon="6.49653"/><trkpt lat="49.74994" lon="6.49644"/><trkpt lat="49.75" lon="6.49637"/><trkpt lat="49.75066" lon="6.49612"/><trkpt lat="49.75091" lon="6.49584"/><trkpt lat="49.75093" lon="6.49567"/><trkpt lat="49.75061" lon="6.49553"/><trkpt lat="49.75039" lon="6.49551"/><trkpt lat="49.75053" lon="6.49529"/><trkpt lat="49.75057" lon="6.49504"/><trkpt lat="49.7502" lon="6.49482"/><trkpt lat="49.74981" lon="6.49468"/><trkpt lat="49.74965" lon="6.49473"/><trkpt lat="49.74944" lon="6.49494"/><trkpt lat="49.74935" lon="6.49491"/><trkpt lat="49.74917" lon="6.49463"/><trkpt lat="49.74906" lon="6.49429"/><trkpt lat="49.74892" lon="6.49413"/><trkpt lat="49.74868" lon="6.49409"/><trkpt lat="49.74802" lon="6.49411"/><trkpt lat="49.74772" lon="6.49401"/><trkpt lat="49.74743" lon="6.49401"/><trkpt lat="49.74728" lon="6.4939"/><trkpt lat="49.74708" lon="6.49387"/><trkpt lat="49.74667" lon="6.49408"/><trkpt lat="49.7467" lon="6.49394"/><trkpt lat="49.74652" lon="6.4929"/><trkpt lat="49.74609" lon="6.49198"/><trkpt lat="49.74617" lon="6.49197"/><trkpt lat="49.74647" lon="6.49232"/><trkpt lat="49.74668" lon="6.49237"/><trkpt lat="49.74746" lon="6.49219"/><trkpt lat="49.74779" lon="6.49296"/><trkpt lat="49.74789" lon="6.49243"/><trkpt lat="49.74807" lon="6.49199"/><trkpt lat="49.74835" lon="6.49171"/><trkpt lat="49.74871" lon="6.49147"/><trkpt lat="49.74888" lon="6.49137"/><trkpt lat="49.74926" lon="6.49135"/><trkpt lat="49.74982" lon="6.49148"/><trkpt lat="49.75024" lon="6.49146"/><trkpt lat="49.75041" lon="6.49142"/><trkpt lat="49.75069" lon="6.4912"/><trkpt lat="49.74956" lon="6.49048"/><trkpt lat="49.74882" lon="6.49016"/><trkpt lat="49.74872" lon="6.49015"/><trkpt lat="49.74816" lon="6.49039"/><trkpt lat="49.74761" lon="6.4902"/><trkpt lat="49.74735" lon="6.48979"/><trkpt lat="49.74669" lon="6.48748"/><trkpt lat="49.74667" lon="6.48687"/><trkpt lat="49.74674" lon="6.48642"/><trkpt lat="49.74712" lon="6.48579"/><trkpt lat="49.74747" lon="6.48469"/><trkpt lat="49.74819" lon="6.48312"/><trkpt lat="49.74887" lon="6.48219"/><trkpt lat="49.74894" lon="6.482"/><trkpt lat="49.74894" lon="6.48086"/><trkpt lat="49.74873" lon="6.4806"/><trkpt lat="49.7486" lon="6.48063"/><trkpt lat="49.74845" lon="6.48056"/><trkpt lat="49.74816" lon="6.4801"/><trkpt lat="49.74748" lon="6.47953"/><trkpt lat="49.74731" lon="6.4793"/><trkpt lat="49.74674" lon="6.47939"/><trkpt lat="49.74596" lon="6.47929"/><trkpt lat="49.74579" lon="6.47936"/><trkpt lat="49.74538" lon="6.47972"/><trkpt lat="49.7448" lon="6.48037"/><trkpt lat="49.74439" lon="6.48027"/><trkpt lat="49.74311" lon="6.48122"/><trkpt lat="49.74277" lon="6.47972"/><trkpt lat="49.74109" lon="6.48069"/><trkpt lat="49.74098" lon="6.48111"/><trkpt lat="49.74074" lon="6.4806"/><trkpt lat="49.74066" lon="6.4809"/><trkpt lat="49.73995" lon="6.48091"/><trkpt lat="49.7398" lon="6.48096"/><trkpt lat="49.73964" lon="6.48113"/><trkpt lat="49.73953" lon="6.48133"/><trkpt lat="49.73915" lon="6.48314"/><trkpt lat="49.73858" lon="6.48712"/><trkpt lat="49.7385" lon="6.48973"/><trkpt lat="49.73829" lon="6.49078"/><trkpt lat="49.73834" lon="6.49127"/><trkpt lat="49.73846" lon="6.49152"/><trkpt lat="49.73884" lon="6.49191"/><trkpt lat="49.7401" lon="6.49252"/><trkpt lat="49.73969" lon="6.49351"/><trkpt lat="49.73975" lon="6.49401"/><trkpt lat="49.73951" lon="6.4948"/><trkpt lat="49.74074" lon="6.49492"/><trkpt lat="49.74154" lon="6.49552"/><trkpt lat="49.74248" lon="6.49556"/><trkpt lat="49.74312" lon="6.49598"/><trkpt lat="49.74321" lon="6.49615"/><trkpt lat="49.74372" lon="6.49659"/><trkpt lat="49.74431" lon="6.49728"/><trkpt lat="49.74475" lon="6.49758"/><trkpt lat="49.74513" lon="6.49779"/><trkpt lat="49.74519" lon="6.49736"/><trkpt lat="49.74522" lon="6.49803"/><trkpt lat="49.74528" lon="6.49803"/><trkpt lat="49.7454" lon="6.49842"/><trkpt lat="49.7454" lon="6.49891"/><trkpt lat="49.74569" lon="6.49966"/><trkpt lat="49.7455" lon="6.4998"/><trkpt lat="49.74554" lon="6.50061"/></trkseg></trk>
</gpx>
