<?xml version="1.0" encoding="UTF-8"?>
<gpx version="1.1" creator="ian.lu/trails" xmlns="http://www.topografix.com/GPX/1/1">
<metadata><name>Auto-Pédestre Moesdorf</name><link href="https://ian.lu/trails/"/></metadata>
<trk><name>Auto-Pédestre Moesdorf</name><trkseg><trkpt lat="49.76878" lon="6.11478"/><trkpt lat="49.76879" lon="6.11485"/><trkpt lat="49.76858" lon="6.11496"/><trkpt lat="49.76808" lon="6.11513"/><trkpt lat="49.7671" lon="6.11498"/><trkpt lat="49.76706" lon="6.11532"/><trkpt lat="49.76683" lon="6.11563"/><trkpt lat="49.76673" lon="6.11719"/><trkpt lat="49.76709" lon="6.11734"/><trkpt lat="49.76714" lon="6.1176"/><trkpt lat="49.76714" lon="6.11902"/><trkpt lat="49.76707" lon="6.11979"/><trkpt lat="49.76665" lon="6.12291"/><trkpt lat="49.76687" lon="6.12307"/><trkpt lat="49.76693" lon="6.12333"/><trkpt lat="49.76688" lon="6.12359"/><trkpt lat="49.76644" lon="6.12464"/><trkpt lat="49.76598" lon="6.12543"/><trkpt lat="49.76587" lon="6.12574"/><trkpt lat="49.76586" lon="6.12598"/><trkpt lat="49.76602" lon="6.12669"/><trkpt lat="49.76606" lon="6.12723"/><trkpt lat="49.76558" lon="6.12919"/><trkpt lat="49.76552" lon="6.13029"/><trkpt lat="49.7654" lon="6.13103"/><trkpt lat="49.76585" lon="6.13316"/><trkpt lat="49.76658" lon="6.13389"/><trkpt lat="49.76689" lon="6.1347"/><trkpt lat="49.76715" lon="6.13516"/><trkpt lat="49.76737" lon="6.13614"/><trkpt lat="49.76762" lon="6.13787"/><trkpt lat="49.76882" lon="6.14111"/><trkpt lat="49.76917" lon="6.1419"/><trkpt lat="49.76921" lon="6.14215"/><trkpt lat="49.76931" lon="6.14225"/><trkpt lat="49.76903" lon="6.14018"/><trkpt lat="49.76916" lon="6.13996"/><trkpt lat="49.7695" lon="6.13981"/><trkpt lat="49.76952" lon="6.13965"/><trkpt lat="49.76937" lon="6.13939"/><trkpt lat="49.76889" lon="6.13897"/><trkpt lat="49.76876" lon="6.13861"/><trkpt lat="49.76882" lon="6.13833"/><trkpt lat="49.76915" lon="6.13828"/><trkpt lat="49.76921" lon="6.13822"/><trkpt lat="49.76941" lon="6.13761"/><trkpt lat="49.76935" lon="6.13656"/><trkpt lat="49.76909" lon="6.13567"/><trkpt lat="49.7691" lon="6.13537"/><trkpt lat="49.76941" lon="6.13502"/><trkpt lat="49.76989" lon="6.13481"/><trkpt lat="49.77038" lon="6.13427"/><trkpt lat="49.77079" lon="6.13404"/><trkpt lat="49.77105" lon="6.13397"/><trkpt lat="49.77117" lon="6.13411"/><trkpt lat="49.77134" lon="6.13455"/><trkpt lat="49.77166" lon="6.13484"/><trkpt lat="49.77225" lon="6.13584"/><trkpt lat="49.77362" lon="6.13348"/><trkpt lat="49.77386" lon="6.13317"/><trkpt lat="49.77533" lon="6.13034"/><trkpt lat="49.77498" lon="6.12868"/><trkpt lat="49.77474" lon="6.12699"/><trkpt lat="49.77431" lon="6.12621"/><trkpt lat="49.77385" lon="6.12501"/><trkpt lat="49.77379" lon="6.12472"/><trkpt lat="49.77385" lon="6.12443"/><trkpt lat="49.77472" lon="6.12575"/><trkpt lat="49.77588" lon="6.12704"/><trkpt lat="49.77628" lon="6.1273"/><trkpt lat="49.77661" lon="6.1277"/><trkpt lat="49.77708" lon="6.12846"/><trkpt lat="49.77748" lon="6.12943"/><trkpt lat="49.77796" lon="6.12972"/><trkpt lat="49.77897" lon="6.12866"/><trkpt lat="49.77929" lon="6.12853"/><trkpt lat="49.77955" lon="6.12855"/><trkpt lat="49.78074" lon="6.12894"/><trkpt lat="49.78141" lon="6.1293"/><trkpt lat="49.78151" lon="6.12916"/><trkpt lat="49.78156" lon="6.12887"/><trkpt lat="49.78159" lon="6.12824"/><trkpt lat="49.78157" lon="6.12762"/><trkpt lat="49.78068" lon="6.12684"/><trkpt lat="49.77976" lon="6.12624"/><trkpt lat="49.77893" lon="6.12557"/><trkpt lat="49.77866" lon="6.12562"/><trkpt lat="49.77845" lon="6.12598"/><trkpt lat="49.77838" lon="6.12599"/><trkpt lat="49.77798" lon="6.12484"/><trkpt lat="49.77753" lon="6.12428"/><trkpt lat="49.77688" lon="6.12376"/><trkpt lat="49.77642" lon="6.12377"/><trkpt lat="49.77608" lon="6.12367"/><trkpt lat="49.7755" lon="6.1216"/><trkpt lat="49.77494" lon="6.12062"/><trkpt lat="49.77305" lon="6.11837"/><trkpt lat="49.77255" lon="6.11766"/><trkpt lat="49.77179" lon="6.11633"/><trkpt lat="49.77085" lon="6.11573"/><trkpt lat="49.77059" lon="6.1157"/><trkpt lat="49.77018" lon="6.11578"/><trkpt lat="49.77015" lon="6.11548"/><trkpt lat="49.77029" lon="6.11502"/><trkpt lat="49.77023" lon="6.11492"/><trkpt lat="49.76984" lon="6.11484"/><trkpt lat="49.76931" lon="6.11499"/><trkpt lat="49.76904" lon="6.11493"/><trkpt lat="49.76892" lon="6.1148"/><trkpt lat="49.76881" lon="6.11485"/><trkpt lat="49.76881" lon="6.1148"/></trkseg></trk>
</gpx>
