<?xml version="1.0" encoding="UTF-8"?>
<gpx version="1.1" creator="ian.lu/trails" xmlns="http://www.topografix.com/GPX/1/1">
<metadata><name>Auto-Pédestre Moutfort</name><link href="https://ian.lu/trails/"/></metadata>
<trk><name>Auto-Pédestre Moutfort</name><trkseg><trkpt lat="49.58832" lon="6.25791"/><trkpt lat="49.58833" lon="6.25803"/><trkpt lat="49.5874" lon="6.25924"/><trkpt lat="49.58758" lon="6.26003"/><trkpt lat="49.5876" lon="6.26078"/><trkpt lat="49.58727" lon="6.26223"/><trkpt lat="49.58743" lon="6.2624"/><trkpt lat="49.58758" lon="6.26239"/><trkpt lat="49.58907" lon="6.26386"/><trkpt lat="49.58974" lon="6.26405"/><trkpt lat="49.59107" lon="6.26505"/><trkpt lat="49.59295" lon="6.26688"/><trkpt lat="49.59381" lon="6.26756"/><trkpt lat="49.59341" lon="6.27063"/><trkpt lat="49.59343" lon="6.27085"/><trkpt lat="49.59366" lon="6.27129"/><trkpt lat="49.59385" lon="6.27202"/><trkpt lat="49.59402" lon="6.27356"/><trkpt lat="49.5942" lon="6.27458"/><trkpt lat="49.59451" lon="6.27429"/><trkpt lat="49.59474" lon="6.27464"/><trkpt lat="49.59549" lon="6.27607"/><trkpt lat="49.59653" lon="6.2788"/><trkpt lat="49.59668" lon="6.27888"/><trkpt lat="49.60057" lon="6.27938"/><trkpt lat="49.60096" lon="6.27959"/><trkpt lat="49.60121" lon="6.27991"/><trkpt lat="49.60136" lon="6.2803"/><trkpt lat="49.6019" lon="6.28322"/><trkpt lat="49.60195" lon="6.28429"/><trkpt lat="49.60185" lon="6.28531"/><trkpt lat="49.60172" lon="6.28576"/><trkpt lat="49.60136" lon="6.28637"/><trkpt lat="49.60127" lon="6.2865"/><trkpt lat="49.60101" lon="6.28666"/><trkpt lat="49.60068" lon="6.28662"/><trkpt lat="49.60048" lon="6.28645"/><trkpt lat="49.59898" lon="6.28356"/><trkpt lat="49.59799" lon="6.28676"/><trkpt lat="49.59761" lon="6.28747"/><trkpt lat="49.5957" lon="6.28999"/><trkpt lat="49.59564" lon="6.29145"/><trkpt lat="49.5952" lon="6.29209"/><trkpt lat="49.59402" lon="6.29311"/><trkpt lat="49.59299" lon="6.29458"/><trkpt lat="49.59282" lon="6.29473"/><trkpt lat="49.58831" lon="6.29632"/><trkpt lat="49.58806" lon="6.29433"/><trkpt lat="49.58764" lon="6.29198"/><trkpt lat="49.58681" lon="6.29099"/><trkpt lat="49.58655" lon="6.29192"/><trkpt lat="49.58615" lon="6.29098"/><trkpt lat="49.5848" lon="6.28917"/><trkpt lat="49.5834" lon="6.28789"/><trkpt lat="49.58269" lon="6.28687"/><trkpt lat="49.58216" lon="6.28649"/><trkpt lat="49.58168" lon="6.28628"/><trkpt lat="49.58147" lon="6.28604"/><trkpt lat="49.58134" lon="6.28568"/><trkpt lat="49.58121" lon="6.28464"/><trkpt lat="49.58114" lon="6.28267"/><trkpt lat="49.58032" lon="6.27977"/><trkpt lat="49.57983" lon="6.27718"/><trkpt lat="49.57967" lon="6.27695"/><trkpt lat="49.57884" lon="6.27621"/><trkpt lat="49.57814" lon="6.27541"/><trkpt lat="49.57744" lon="6.27528"/><trkpt lat="49.57725" lon="6.27519"/><trkpt lat="49.57705" lon="6.27489"/><trkpt lat="49.57685" lon="6.27423"/><trkpt lat="49.57674" lon="6.27412"/><trkpt lat="49.57694" lon="6.2739"/><trkpt lat="49.57716" lon="6.27343"/><trkpt lat="49.57748" lon="6.2722"/><trkpt lat="49.57804" lon="6.27074"/><trkpt lat="49.57822" lon="6.26956"/><trkpt lat="49.57851" lon="6.26882"/><trkpt lat="49.57882" lon="6.26835"/><trkpt lat="49.57927" lon="6.2681"/><trkpt lat="49.57974" lon="6.26758"/><trkpt lat="49.58055" lon="6.26722"/><trkpt lat="49.582" lon="6.26798"/><trkpt lat="49.58298" lon="6.2687"/><trkpt lat="49.58318" lon="6.26873"/><trkpt lat="49.58401" lon="6.26856"/><trkpt lat="49.58455" lon="6.26673"/><trkpt lat="49.58645" lon="6.26423"/><trkpt lat="49.58665" lon="6.26188"/><trkpt lat="49.58594" lon="6.26118"/><trkpt lat="49.58825" lon="6.25804"/><trkpt lat="49.58823" lon="6.25796"/></trkseg></trk>
</gpx>
