<?xml version="1.0" encoding="UTF-8"?>
<gpx version="1.1" creator="ian.lu/trails" xmlns="http://www.topografix.com/GPX/1/1">
<metadata><name>Auto-Pédestre Munshausen</name><link href="https://ian.lu/trails/"/></metadata>
<trk><name>Auto-Pédestre Munshausen</name><trkseg><trkpt lat="50.03272" lon="6.03763"/><trkpt lat="50.03276" lon="6.03813"/><trkpt lat="50.0326" lon="6.03818"/><trkpt lat="50.03255" lon="6.03916"/><trkpt lat="50.03248" lon="6.03946"/><trkpt lat="50.03236" lon="6.03954"/><trkpt lat="50.0322" lon="6.0393"/><trkpt lat="50.0321" lon="6.03872"/><trkpt lat="50.03135" lon="6.03776"/><trkpt lat="50.0311" lon="6.03759"/><trkpt lat="50.03087" lon="6.03752"/><trkpt lat="50.03008" lon="6.03743"/><trkpt lat="50.02972" lon="6.03713"/><trkpt lat="50.02942" lon="6.03611"/><trkpt lat="50.02893" lon="6.03487"/><trkpt lat="50.02913" lon="6.03433"/><trkpt lat="50.02977" lon="6.035"/><trkpt lat="50.02982" lon="6.03493"/><trkpt lat="50.0297" lon="6.03378"/><trkpt lat="50.02946" lon="6.03314"/><trkpt lat="50.02906" lon="6.0325"/><trkpt lat="50.02823" lon="6.03139"/><trkpt lat="50.02798" lon="6.03089"/><trkpt lat="50.02777" lon="6.03012"/><trkpt lat="50.02769" lon="6.02872"/><trkpt lat="50.02743" lon="6.02788"/><trkpt lat="50.02718" lon="6.02735"/><trkpt lat="50.02693" lon="6.02702"/><trkpt lat="50.02666" lon="6.02682"/><trkpt lat="50.02631" lon="6.02672"/><trkpt lat="50.0258" lon="6.02708"/><trkpt lat="50.02552" lon="6.02744"/><trkpt lat="50.02539" lon="6.02744"/><trkpt lat="50.02526" lon="6.02637"/><trkpt lat="50.02487" lon="6.02613"/><trkpt lat="50.02488" lon="6.02608"/><trkpt lat="50.02564" lon="6.02601"/><trkpt lat="50.02575" lon="6.02562"/><trkpt lat="50.02567" lon="6.02502"/><trkpt lat="50.02512" lon="6.02481"/><trkpt lat="50.02469" lon="6.02328"/><trkpt lat="50.02448" lon="6.02287"/><trkpt lat="50.02406" lon="6.02247"/><trkpt lat="50.02389" lon="6.02238"/><trkpt lat="50.02353" lon="6.02234"/><trkpt lat="50.02322" lon="6.02213"/><trkpt lat="50.02234" lon="6.02063"/><trkpt lat="50.02179" lon="6.02026"/><trkpt lat="50.02122" lon="6.02005"/><trkpt lat="50.02073" lon="6.01979"/><trkpt lat="50.02057" lon="6.01967"/><trkpt lat="50.02039" lon="6.0194"/><trkpt lat="50.02024" lon="6.01903"/><trkpt lat="50.01964" lon="6.01674"/><trkpt lat="50.01847" lon="6.01384"/><trkpt lat="50.01788" lon="6.01271"/><trkpt lat="50.01741" lon="6.01051"/><trkpt lat="50.01694" lon="6.00909"/><trkpt lat="50.01738" lon="6.00989"/><trkpt lat="50.01782" lon="6.01037"/><trkpt lat="50.01816" lon="6.01056"/><trkpt lat="50.01801" lon="6.00927"/><trkpt lat="50.01812" lon="6.00907"/><trkpt lat="50.01835" lon="6.00905"/><trkpt lat="50.01845" lon="6.00913"/><trkpt lat="50.0185" lon="6.00923"/><trkpt lat="50.01837" lon="6.00929"/><trkpt lat="50.01838" lon="6.00943"/><trkpt lat="50.01905" lon="6.01074"/><trkpt lat="50.01916" lon="6.01089"/><trkpt lat="50.01925" lon="6.0109"/><trkpt lat="50.01942" lon="6.01142"/><trkpt lat="50.0199" lon="6.0122"/><trkpt lat="50.02029" lon="6.0125"/><trkpt lat="50.02153" lon="6.01269"/><trkpt lat="50.02254" lon="6.01301"/><trkpt lat="50.02302" lon="6.01301"/><trkpt lat="50.02412" lon="6.01336"/><trkpt lat="50.02493" lon="6.01336"/><trkpt lat="50.02562" lon="6.01364"/><trkpt lat="50.02624" lon="6.01365"/><trkpt lat="50.02674" lon="6.01384"/><trkpt lat="50.02732" lon="6.01378"/><trkpt lat="50.02828" lon="6.01305"/><trkpt lat="50.02852" lon="6.01216"/><trkpt lat="50.0286" lon="6.01207"/><trkpt lat="50.0292" lon="6.0126"/><trkpt lat="50.03004" lon="6.01428"/><trkpt lat="50.03035" lon="6.01564"/><trkpt lat="50.03073" lon="6.01684"/><trkpt lat="50.03136" lon="6.01936"/><trkpt lat="50.03201" lon="6.0208"/><trkpt lat="50.03211" lon="6.0213"/><trkpt lat="50.03223" lon="6.02144"/><trkpt lat="50.03257" lon="6.02159"/><trkpt lat="50.03376" lon="6.02155"/><trkpt lat="50.03397" lon="6.02167"/><trkpt lat="50.03366" lon="6.02208"/><trkpt lat="50.03309" lon="6.02233"/><trkpt lat="50.03181" lon="6.0232"/><trkpt lat="50.03137" lon="6.02402"/><trkpt lat="50.03086" lon="6.02725"/><trkpt lat="50.03114" lon="6.02748"/><trkpt lat="50.03122" lon="6.02768"/><trkpt lat="50.03113" lon="6.02834"/><trkpt lat="50.03283" lon="6.02458"/><trkpt lat="50.03309" lon="6.02425"/><trkpt lat="50.03351" lon="6.02418"/><trkpt lat="50.0338" lon="6.02424"/><trkpt lat="50.0344" lon="6.02467"/><trkpt lat="50.03444" lon="6.02491"/><trkpt lat="50.03514" lon="6.02656"/><trkpt lat="50.03558" lon="6.02859"/><trkpt lat="50.03568" lon="6.02939"/><trkpt lat="50.03572" lon="6.0311"/><trkpt lat="50.03549" lon="6.03199"/><trkpt lat="50.03482" lon="6.03332"/><trkpt lat="50.03501" lon="6.03437"/><trkpt lat="50.03476" lon="6.03457"/><trkpt lat="50.03425" lon="6.03532"/><trkpt lat="50.03359" lon="6.03659"/><trkpt lat="50.03326" lon="6.03695"/><trkpt lat="50.0331" lon="6.03736"/><trkpt lat="50.03294" lon="6.0375"/><trkpt lat="50.03279" lon="6.03744"/><trkpt lat="50.03272" lon="6.03758"/></trkseg></trk>
</gpx>
