<?xml version="1.0" encoding="UTF-8"?>
<gpx version="1.1" creator="ian.lu/trails" xmlns="http://www.topografix.com/GPX/1/1">
<metadata><name>Auto-Pédestre Nommern</name><link href="https://ian.lu/trails/"/></metadata>
<trk><name>Auto-Pédestre Nommern</name><trkseg><trkpt lat="49.78601" lon="6.16773"/><trkpt lat="49.78542" lon="6.16681"/><trkpt lat="49.78524" lon="6.16638"/><trkpt lat="49.78494" lon="6.16508"/><trkpt lat="49.78428" lon="6.1655"/><trkpt lat="49.78411" lon="6.16572"/><trkpt lat="49.78395" lon="6.16613"/><trkpt lat="49.78322" lon="6.16587"/><trkpt lat="49.78274" lon="6.16562"/><trkpt lat="49.78267" lon="6.16436"/><trkpt lat="49.7825" lon="6.16444"/><trkpt lat="49.78216" lon="6.1644"/><trkpt lat="49.78201" lon="6.16423"/><trkpt lat="49.78198" lon="6.16407"/><trkpt lat="49.78179" lon="6.1645"/><trkpt lat="49.78141" lon="6.16487"/><trkpt lat="49.78063" lon="6.16536"/><trkpt lat="49.78014" lon="6.16532"/><trkpt lat="49.78003" lon="6.16547"/><trkpt lat="49.78015" lon="6.16596"/><trkpt lat="49.78094" lon="6.16617"/><trkpt lat="49.78115" lon="6.16654"/><trkpt lat="49.78117" lon="6.16643"/><trkpt lat="49.78106" lon="6.16638"/><trkpt lat="49.78103" lon="6.16647"/><trkpt lat="49.78114" lon="6.16665"/><trkpt lat="49.781" lon="6.1667"/><trkpt lat="49.78083" lon="6.16695"/><trkpt lat="49.78054" lon="6.16758"/><trkpt lat="49.7799" lon="6.16774"/><trkpt lat="49.78037" lon="6.16859"/><trkpt lat="49.78063" lon="6.16892"/><trkpt lat="49.78062" lon="6.16905"/><trkpt lat="49.78023" lon="6.16987"/><trkpt lat="49.78027" lon="6.17017"/><trkpt lat="49.7805" lon="6.17043"/><trkpt lat="49.78043" lon="6.171"/><trkpt lat="49.78056" lon="6.17137"/><trkpt lat="49.78057" lon="6.17162"/><trkpt lat="49.78067" lon="6.17186"/><trkpt lat="49.78083" lon="6.17203"/><trkpt lat="49.78113" lon="6.17196"/><trkpt lat="49.78127" lon="6.17288"/><trkpt lat="49.78133" lon="6.17292"/><trkpt lat="49.78162" lon="6.17267"/><trkpt lat="49.7817" lon="6.1727"/><trkpt lat="49.78178" lon="6.17329"/><trkpt lat="49.7819" lon="6.17358"/><trkpt lat="49.78187" lon="6.17433"/><trkpt lat="49.78194" lon="6.17451"/><trkpt lat="49.78206" lon="6.17459"/><trkpt lat="49.78237" lon="6.17441"/><trkpt lat="49.78263" lon="6.17399"/><trkpt lat="49.78268" lon="6.17367"/><trkpt lat="49.78279" lon="6.17348"/><trkpt lat="49.78307" lon="6.17345"/><trkpt lat="49.78337" lon="6.17378"/><trkpt lat="49.78337" lon="6.17428"/><trkpt lat="49.78323" lon="6.17489"/><trkpt lat="49.78295" lon="6.17549"/><trkpt lat="49.78298" lon="6.17565"/><trkpt lat="49.78321" lon="6.17592"/><trkpt lat="49.78344" lon="6.17719"/><trkpt lat="49.7837" lon="6.17744"/><trkpt lat="49.78392" lon="6.17818"/><trkpt lat="49.78401" lon="6.17889"/><trkpt lat="49.78438" lon="6.17986"/><trkpt lat="49.78492" lon="6.18084"/><trkpt lat="49.78508" lon="6.18156"/><trkpt lat="49.78517" lon="6.18161"/><trkpt lat="49.78525" lon="6.1814"/><trkpt lat="49.78526" lon="6.18023"/><trkpt lat="49.78529" lon="6.18002"/><trkpt lat="49.78547" lon="6.17976"/><trkpt lat="49.78551" lon="6.17942"/><trkpt lat="49.78544" lon="6.17908"/><trkpt lat="49.78522" lon="6.17868"/><trkpt lat="49.78519" lon="6.1784"/><trkpt lat="49.78526" lon="6.17829"/><trkpt lat="49.78552" lon="6.1783"/><trkpt lat="49.78557" lon="6.1782"/><trkpt lat="49.78527" lon="6.17786"/><trkpt lat="49.78478" lon="6.17701"/><trkpt lat="49.78453" lon="6.17586"/><trkpt lat="49.78462" lon="6.17507"/><trkpt lat="49.78475" lon="6.17488"/><trkpt lat="49.78476" lon="6.17455"/><trkpt lat="49.78466" lon="6.17431"/><trkpt lat="49.78469" lon="6.174"/><trkpt lat="49.78452" lon="6.17403"/><trkpt lat="49.78438" lon="6.17433"/><trkpt lat="49.78426" lon="6.17496"/><trkpt lat="49.78396" lon="6.17571"/><trkpt lat="49.78382" lon="6.17542"/><trkpt lat="49.78376" lon="6.1751"/><trkpt lat="49.7838" lon="6.17474"/><trkpt lat="49.78371" lon="6.1744"/><trkpt lat="49.78377" lon="6.17362"/><trkpt lat="49.78393" lon="6.17294"/><trkpt lat="49.78381" lon="6.17224"/><trkpt lat="49.78365" lon="6.17213"/><trkpt lat="49.7833" lon="6.17217"/><trkpt lat="49.78307" lon="6.17197"/><trkpt lat="49.78266" lon="6.17184"/><trkpt lat="49.78256" lon="6.1719"/><trkpt lat="49.78233" lon="6.17242"/><trkpt lat="49.78219" lon="6.17256"/><trkpt lat="49.78213" lon="6.17173"/><trkpt lat="49.78192" lon="6.17144"/><trkpt lat="49.78173" lon="6.1715"/><trkpt lat="49.78159" lon="6.1714"/><trkpt lat="49.78137" lon="6.17108"/><trkpt lat="49.7813" lon="6.17069"/><trkpt lat="49.78143" lon="6.17056"/><trkpt lat="49.78165" lon="6.17057"/><trkpt lat="49.78213" lon="6.17025"/><trkpt lat="49.78231" lon="6.17039"/><trkpt lat="49.78256" lon="6.17043"/><trkpt lat="49.78267" lon="6.17037"/><trkpt lat="49.78278" lon="6.17023"/><trkpt lat="49.78303" lon="6.17012"/><trkpt lat="49.78317" lon="6.16981"/><trkpt lat="49.78305" lon="6.16951"/><trkpt lat="49.78287" lon="6.16939"/><trkpt lat="49.78288" lon="6.16914"/><trkpt lat="49.78275" lon="6.16898"/><trkpt lat="49.78274" lon="6.16864"/><trkpt lat="49.78299" lon="6.16834"/><trkpt lat="49.78304" lon="6.16804"/><trkpt lat="49.78298" lon="6.16778"/><trkpt lat="49.78277" lon="6.16745"/><trkpt lat="49.78263" lon="6.16736"/><trkpt lat="49.78254" lon="6.16738"/><trkpt lat="49.78228" lon="6.16756"/><trkpt lat="49.78209" lon="6.16757"/><trkpt lat="49.78172" lon="6.16792"/><trkpt lat="49.78162" lon="6.16787"/><trkpt lat="49.78201" lon="6.16678"/><trkpt lat="49.78239" lon="6.16662"/><trkpt lat="49.78262" lon="6.16664"/><trkpt lat="49.78314" lon="6.16705"/><trkpt lat="49.78363" lon="6.16796"/><trkpt lat="49.7838" lon="6.16883"/><trkpt lat="49.78401" lon="6.16915"/><trkpt lat="49.78501" lon="6.16829"/><trkpt lat="49.78598" lon="6.16797"/><trkpt lat="49.78608" lon="6.16779"/></trkseg></trk>
</gpx>
