<?xml version="1.0" encoding="UTF-8"?>
<gpx version="1.1" creator="ian.lu/trails" xmlns="http://www.topografix.com/GPX/1/1">
<metadata><name>Auto-Pédestre Oberpallen</name><link href="https://ian.lu/trails/"/></metadata>
<trk><name>Auto-Pédestre Oberpallen</name><trkseg><trkpt lat="49.72931" lon="5.84274"/><trkpt lat="49.72926" lon="5.84242"/><trkpt lat="49.72936" lon="5.84225"/><trkpt lat="49.7298" lon="5.84241"/><trkpt lat="49.73022" lon="5.84222"/><trkpt lat="49.73005" lon="5.84147"/><trkpt lat="49.73021" lon="5.84096"/><trkpt lat="49.73093" lon="5.84039"/><trkpt lat="49.73092" lon="5.83984"/><trkpt lat="49.73104" lon="5.83963"/><trkpt lat="49.73123" lon="5.83953"/><trkpt lat="49.7315" lon="5.83958"/><trkpt lat="49.7319" lon="5.83894"/><trkpt lat="49.73148" lon="5.83713"/><trkpt lat="49.73099" lon="5.83682"/><trkpt lat="49.73085" lon="5.83693"/><trkpt lat="49.73059" lon="5.83731"/><trkpt lat="49.73022" lon="5.83647"/><trkpt lat="49.7298" lon="5.83518"/><trkpt lat="49.72947" lon="5.83399"/><trkpt lat="49.72928" lon="5.83297"/><trkpt lat="49.72903" lon="5.83151"/><trkpt lat="49.72884" lon="5.82962"/><trkpt lat="49.7285" lon="5.82895"/><trkpt lat="49.72817" lon="5.82784"/><trkpt lat="49.72778" lon="5.82602"/><trkpt lat="49.72748" lon="5.82511"/><trkpt lat="49.7273" lon="5.82399"/><trkpt lat="49.72737" lon="5.82292"/><trkpt lat="49.72777" lon="5.81998"/><trkpt lat="49.72783" lon="5.81499"/><trkpt lat="49.72799" lon="5.81293"/><trkpt lat="49.72762" lon="5.81242"/><trkpt lat="49.72741" lon="5.81183"/><trkpt lat="49.72722" lon="5.81177"/><trkpt lat="49.72684" lon="5.8118"/><trkpt lat="49.72643" lon="5.81084"/><trkpt lat="49.72629" lon="5.80958"/><trkpt lat="49.72648" lon="5.80902"/><trkpt lat="49.72624" lon="5.80894"/><trkpt lat="49.72568" lon="5.80919"/><trkpt lat="49.72589" lon="5.80987"/><trkpt lat="49.72523" lon="5.81061"/><trkpt lat="49.72539" lon="5.81177"/><trkpt lat="49.72492" lon="5.81313"/><trkpt lat="49.72458" lon="5.81348"/><trkpt lat="49.72338" lon="5.81422"/><trkpt lat="49.7226" lon="5.81482"/><trkpt lat="49.72167" lon="5.81634"/><trkpt lat="49.72146" lon="5.81709"/><trkpt lat="49.72164" lon="5.818"/><trkpt lat="49.72214" lon="5.81887"/><trkpt lat="49.7224" lon="5.81961"/><trkpt lat="49.72342" lon="5.82384"/><trkpt lat="49.72219" lon="5.82437"/><trkpt lat="49.72045" lon="5.82535"/><trkpt lat="49.72015" lon="5.8257"/><trkpt lat="49.71986" lon="5.82662"/><trkpt lat="49.72275" lon="5.82977"/><trkpt lat="49.72284" lon="5.83029"/><trkpt lat="49.72282" lon="5.83081"/><trkpt lat="49.72266" lon="5.83176"/><trkpt lat="49.72263" lon="5.83255"/><trkpt lat="49.72297" lon="5.83372"/><trkpt lat="49.72285" lon="5.83585"/><trkpt lat="49.72277" lon="5.83612"/><trkpt lat="49.72172" lon="5.83661"/><trkpt lat="49.72166" lon="5.83675"/><trkpt lat="49.72296" lon="5.83772"/><trkpt lat="49.72283" lon="5.83811"/><trkpt lat="49.72223" lon="5.83908"/><trkpt lat="49.72206" lon="5.83962"/><trkpt lat="49.72147" lon="5.84089"/><trkpt lat="49.72129" lon="5.8428"/><trkpt lat="49.72131" lon="5.84447"/><trkpt lat="49.71985" lon="5.84638"/><trkpt lat="49.72071" lon="5.84784"/><trkpt lat="49.72061" lon="5.84802"/><trkpt lat="49.71968" lon="5.84738"/><trkpt lat="49.71951" lon="5.84735"/><trkpt lat="49.71923" lon="5.84801"/><trkpt lat="49.71951" lon="5.84862"/><trkpt lat="49.71909" lon="5.8494"/><trkpt lat="49.71856" lon="5.85063"/><trkpt lat="49.71773" lon="5.85189"/><trkpt lat="49.71782" lon="5.85215"/><trkpt lat="49.71886" lon="5.85387"/><trkpt lat="49.71936" lon="5.8541"/><trkpt lat="49.71998" lon="5.85344"/><trkpt lat="49.72008" lon="5.85344"/><trkpt lat="49.72027" lon="5.85359"/><trkpt lat="49.72078" lon="5.85445"/><trkpt lat="49.72204" lon="5.85615"/><trkpt lat="49.72241" lon="5.85695"/><trkpt lat="49.72309" lon="5.85769"/><trkpt lat="49.72467" lon="5.85768"/><trkpt lat="49.72569" lon="5.85821"/><trkpt lat="49.72635" lon="5.85785"/><trkpt lat="49.726" lon="5.85702"/><trkpt lat="49.72562" lon="5.85637"/><trkpt lat="49.72511" lon="5.85571"/><trkpt lat="49.72466" lon="5.85453"/><trkpt lat="49.7244" lon="5.8518"/><trkpt lat="49.72484" lon="5.85045"/><trkpt lat="49.72505" lon="5.84878"/><trkpt lat="49.72572" lon="5.84777"/><trkpt lat="49.72714" lon="5.84606"/><trkpt lat="49.72946" lon="5.84301"/><trkpt lat="49.72947" lon="5.84284"/><trkpt lat="49.72932" lon="5.84278"/></trkseg></trk>
</gpx>
