<?xml version="1.0" encoding="UTF-8"?>
<gpx version="1.1" creator="ian.lu/trails" xmlns="http://www.topografix.com/GPX/1/1">
<metadata><name>Auto-Pédestre Oberdonven</name><link href="https://ian.lu/trails/"/></metadata>
<trk><name>Auto-Pédestre Oberdonven</name><trkseg><trkpt lat="49.64988" lon="6.39957"/><trkpt lat="49.65017" lon="6.39947"/><trkpt lat="49.65019" lon="6.39951"/><trkpt lat="49.65018" lon="6.39996"/><trkpt lat="49.65033" lon="6.40112"/><trkpt lat="49.65023" lon="6.40229"/><trkpt lat="49.65037" lon="6.40418"/><trkpt lat="49.65032" lon="6.40647"/><trkpt lat="49.65009" lon="6.40936"/><trkpt lat="49.65023" lon="6.41172"/><trkpt lat="49.65019" lon="6.41194"/><trkpt lat="49.64886" lon="6.41177"/><trkpt lat="49.64827" lon="6.41162"/><trkpt lat="49.6479" lon="6.4115"/><trkpt lat="49.64754" lon="6.41125"/><trkpt lat="49.64668" lon="6.4102"/><trkpt lat="49.6462" lon="6.40973"/><trkpt lat="49.64609" lon="6.40968"/><trkpt lat="49.64602" lon="6.40972"/><trkpt lat="49.64543" lon="6.41033"/><trkpt lat="49.64478" lon="6.40982"/><trkpt lat="49.64402" lon="6.40886"/><trkpt lat="49.64264" lon="6.40653"/><trkpt lat="49.64218" lon="6.40592"/><trkpt lat="49.64116" lon="6.40506"/><trkpt lat="49.64066" lon="6.40492"/><trkpt lat="49.64009" lon="6.4044"/><trkpt lat="49.6399" lon="6.40464"/><trkpt lat="49.63987" lon="6.40505"/><trkpt lat="49.64074" lon="6.40643"/><trkpt lat="49.64075" lon="6.40654"/><trkpt lat="49.64069" lon="6.40662"/><trkpt lat="49.6405" lon="6.40672"/><trkpt lat="49.6402" lon="6.40681"/><trkpt lat="49.63934" lon="6.40584"/><trkpt lat="49.63894" lon="6.40526"/><trkpt lat="49.63869" lon="6.40533"/><trkpt lat="49.63836" lon="6.4057"/><trkpt lat="49.63832" lon="6.40546"/><trkpt lat="49.63824" lon="6.40547"/><trkpt lat="49.63793" lon="6.40531"/><trkpt lat="49.63779" lon="6.40531"/><trkpt lat="49.63717" lon="6.40553"/><trkpt lat="49.63695" lon="6.40555"/><trkpt lat="49.63675" lon="6.40543"/><trkpt lat="49.63628" lon="6.40485"/><trkpt lat="49.63483" lon="6.40354"/><trkpt lat="49.63441" lon="6.40285"/><trkpt lat="49.63438" lon="6.40268"/><trkpt lat="49.6347" lon="6.40107"/><trkpt lat="49.6343" lon="6.40069"/><trkpt lat="49.63362" lon="6.39921"/><trkpt lat="49.63325" lon="6.39815"/><trkpt lat="49.63312" lon="6.39823"/><trkpt lat="49.63292" lon="6.39981"/><trkpt lat="49.63311" lon="6.40064"/><trkpt lat="49.63303" lon="6.40067"/><trkpt lat="49.63264" lon="6.40046"/><trkpt lat="49.6323" lon="6.40191"/><trkpt lat="49.63214" lon="6.40226"/><trkpt lat="49.63197" lon="6.40211"/><trkpt lat="49.63148" lon="6.40203"/><trkpt lat="49.63122" lon="6.40176"/><trkpt lat="49.63092" lon="6.40198"/><trkpt lat="49.63063" lon="6.40203"/><trkpt lat="49.63002" lon="6.40178"/><trkpt lat="49.62979" lon="6.40125"/><trkpt lat="49.62854" lon="6.39998"/><trkpt lat="49.62753" lon="6.39917"/><trkpt lat="49.62703" lon="6.39868"/><trkpt lat="49.62813" lon="6.39641"/><trkpt lat="49.62738" lon="6.3952"/><trkpt lat="49.6264" lon="6.394"/><trkpt lat="49.62644" lon="6.39296"/><trkpt lat="49.62656" lon="6.39238"/><trkpt lat="49.62706" lon="6.3914"/><trkpt lat="49.62761" lon="6.39083"/><trkpt lat="49.62807" lon="6.39063"/><trkpt lat="49.62856" lon="6.39058"/><trkpt lat="49.62991" lon="6.39008"/><trkpt lat="49.6305" lon="6.38802"/><trkpt lat="49.63068" lon="6.38781"/><trkpt lat="49.63135" lon="6.38731"/><trkpt lat="49.63162" lon="6.38736"/><trkpt lat="49.63183" lon="6.38752"/><trkpt lat="49.63271" lon="6.3894"/><trkpt lat="49.63279" lon="6.38953"/><trkpt lat="49.63319" lon="6.38984"/><trkpt lat="49.63319" lon="6.38761"/><trkpt lat="49.63334" lon="6.38607"/><trkpt lat="49.63343" lon="6.38574"/><trkpt lat="49.63355" lon="6.38537"/><trkpt lat="49.63561" lon="6.38163"/><trkpt lat="49.63591" lon="6.38092"/><trkpt lat="49.63616" lon="6.38132"/><trkpt lat="49.63715" lon="6.38249"/><trkpt lat="49.63792" lon="6.38468"/><trkpt lat="49.63841" lon="6.3867"/><trkpt lat="49.63925" lon="6.38799"/><trkpt lat="49.63945" lon="6.38838"/><trkpt lat="49.6395" lon="6.38862"/><trkpt lat="49.63993" lon="6.39253"/><trkpt lat="49.64023" lon="6.39346"/><trkpt lat="49.64042" lon="6.39367"/><trkpt lat="49.64038" lon="6.39441"/><trkpt lat="49.64024" lon="6.39506"/><trkpt lat="49.63953" lon="6.39758"/><trkpt lat="49.63944" lon="6.39818"/><trkpt lat="49.63977" lon="6.39809"/><trkpt lat="49.64025" lon="6.3977"/><trkpt lat="49.64169" lon="6.39606"/><trkpt lat="49.64199" lon="6.39555"/><trkpt lat="49.64276" lon="6.39349"/><trkpt lat="49.64291" lon="6.39332"/><trkpt lat="49.64298" lon="6.39332"/><trkpt lat="49.64407" lon="6.39438"/><trkpt lat="49.64503" lon="6.39555"/><trkpt lat="49.64787" lon="6.39813"/><trkpt lat="49.64817" lon="6.3991"/><trkpt lat="49.6485" lon="6.39972"/><trkpt lat="49.64884" lon="6.39983"/><trkpt lat="49.64988" lon="6.39957"/></trkseg></trk>
</gpx>
