<?xml version="1.0" encoding="UTF-8"?>
<gpx version="1.1" creator="ian.lu/trails" xmlns="http://www.topografix.com/GPX/1/1">
<metadata><name>Auto-Pédestre Osweiler</name><link href="https://ian.lu/trails/"/></metadata>
<trk><name>Auto-Pédestre Osweiler</name><trkseg><trkpt lat="49.78616" lon="6.44206"/><trkpt lat="49.78605" lon="6.44222"/><trkpt lat="49.78531" lon="6.44135"/><trkpt lat="49.78545" lon="6.44108"/><trkpt lat="49.78529" lon="6.44064"/><trkpt lat="49.78529" lon="6.44028"/><trkpt lat="49.78521" lon="6.44023"/><trkpt lat="49.78415" lon="6.4407"/><trkpt lat="49.78331" lon="6.44149"/><trkpt lat="49.78292" lon="6.44156"/><trkpt lat="49.78272" lon="6.44167"/><trkpt lat="49.78239" lon="6.4421"/><trkpt lat="49.78176" lon="6.4434"/><trkpt lat="49.78131" lon="6.44393"/><trkpt lat="49.78119" lon="6.44423"/><trkpt lat="49.78121" lon="6.44622"/><trkpt lat="49.78128" lon="6.44684"/><trkpt lat="49.78157" lon="6.44804"/><trkpt lat="49.78154" lon="6.44824"/><trkpt lat="49.78046" lon="6.44873"/><trkpt lat="49.77924" lon="6.45"/><trkpt lat="49.77873" lon="6.45032"/><trkpt lat="49.77736" lon="6.45051"/><trkpt lat="49.77654" lon="6.45054"/><trkpt lat="49.7762" lon="6.45069"/><trkpt lat="49.77565" lon="6.45123"/><trkpt lat="49.77468" lon="6.44992"/><trkpt lat="49.774" lon="6.44813"/><trkpt lat="49.77293" lon="6.44669"/><trkpt lat="49.77256" lon="6.44608"/><trkpt lat="49.77167" lon="6.44402"/><trkpt lat="49.77125" lon="6.4432"/><trkpt lat="49.7687" lon="6.44003"/><trkpt lat="49.76815" lon="6.43956"/><trkpt lat="49.76734" lon="6.43722"/><trkpt lat="49.76675" lon="6.43598"/><trkpt lat="49.76665" lon="6.43565"/><trkpt lat="49.7654" lon="6.43339"/><trkpt lat="49.76523" lon="6.43318"/><trkpt lat="49.76523" lon="6.4331"/><trkpt lat="49.76542" lon="6.43316"/><trkpt lat="49.76559" lon="6.43334"/><trkpt lat="49.76615" lon="6.43364"/><trkpt lat="49.76655" lon="6.4337"/><trkpt lat="49.76693" lon="6.43409"/><trkpt lat="49.76703" lon="6.43403"/><trkpt lat="49.76669" lon="6.43289"/><trkpt lat="49.7664" lon="6.43152"/><trkpt lat="49.76655" lon="6.43061"/><trkpt lat="49.76614" lon="6.42987"/><trkpt lat="49.76603" lon="6.42926"/><trkpt lat="49.7659" lon="6.42688"/><trkpt lat="49.76596" lon="6.42563"/><trkpt lat="49.76643" lon="6.42375"/><trkpt lat="49.76636" lon="6.4234"/><trkpt lat="49.76597" lon="6.42244"/><trkpt lat="49.76587" lon="6.42026"/><trkpt lat="49.76596" lon="6.41961"/><trkpt lat="49.76593" lon="6.41896"/><trkpt lat="49.76569" lon="6.41824"/><trkpt lat="49.76542" lon="6.41777"/><trkpt lat="49.76285" lon="6.41396"/><trkpt lat="49.76176" lon="6.41168"/><trkpt lat="49.76206" lon="6.41149"/><trkpt lat="49.76227" lon="6.41125"/><trkpt lat="49.76285" lon="6.41044"/><trkpt lat="49.76327" lon="6.40962"/><trkpt lat="49.76414" lon="6.40721"/><trkpt lat="49.76464" lon="6.40623"/><trkpt lat="49.76538" lon="6.40402"/><trkpt lat="49.76654" lon="6.40129"/><trkpt lat="49.76659" lon="6.40091"/><trkpt lat="49.769" lon="6.39978"/><trkpt lat="49.76975" lon="6.3995"/><trkpt lat="49.77043" lon="6.39907"/><trkpt lat="49.77172" lon="6.39806"/><trkpt lat="49.77189" lon="6.39802"/><trkpt lat="49.77258" lon="6.39752"/><trkpt lat="49.77377" lon="6.39723"/><trkpt lat="49.77468" lon="6.39742"/><trkpt lat="49.77581" lon="6.39852"/><trkpt lat="49.77778" lon="6.3993"/><trkpt lat="49.77804" lon="6.40093"/><trkpt lat="49.77871" lon="6.4022"/><trkpt lat="49.77933" lon="6.40298"/><trkpt lat="49.77966" lon="6.40378"/><trkpt lat="49.77974" lon="6.40441"/><trkpt lat="49.77995" lon="6.40511"/><trkpt lat="49.77986" lon="6.40536"/><trkpt lat="49.77951" lon="6.40577"/><trkpt lat="49.77942" lon="6.40649"/><trkpt lat="49.77959" lon="6.40729"/><trkpt lat="49.78003" lon="6.4082"/><trkpt lat="49.78081" lon="6.4091"/><trkpt lat="49.78097" lon="6.40913"/><trkpt lat="49.78111" lon="6.40902"/><trkpt lat="49.78154" lon="6.40834"/><trkpt lat="49.78165" lon="6.40821"/><trkpt lat="49.78189" lon="6.40811"/><trkpt lat="49.78209" lon="6.40819"/><trkpt lat="49.78305" lon="6.40888"/><trkpt lat="49.78325" lon="6.40913"/><trkpt lat="49.78346" lon="6.41018"/><trkpt lat="49.78378" lon="6.41107"/><trkpt lat="49.78419" lon="6.41342"/><trkpt lat="49.78453" lon="6.41471"/><trkpt lat="49.7846" lon="6.41528"/><trkpt lat="49.78482" lon="6.41594"/><trkpt lat="49.7849" lon="6.41744"/><trkpt lat="49.78482" lon="6.41756"/><trkpt lat="49.78448" lon="6.41777"/><trkpt lat="49.78441" lon="6.41791"/><trkpt lat="49.78436" lon="6.41852"/><trkpt lat="49.78354" lon="6.42097"/><trkpt lat="49.78406" lon="6.42185"/><trkpt lat="49.78472" lon="6.42624"/><trkpt lat="49.78519" lon="6.42761"/><trkpt lat="49.78568" lon="6.42999"/><trkpt lat="49.78592" lon="6.43084"/><trkpt lat="49.78561" lon="6.43347"/><trkpt lat="49.78566" lon="6.43503"/><trkpt lat="49.78559" lon="6.43589"/><trkpt lat="49.78516" lon="6.43873"/><trkpt lat="49.78556" lon="6.43975"/><trkpt lat="49.78547" lon="6.44039"/><trkpt lat="49.78547" lon="6.44089"/><trkpt lat="49.78577" lon="6.44138"/><trkpt lat="49.78617" lon="6.44181"/><trkpt lat="49.7867" lon="6.44287"/><trkpt lat="49.78665" lon="6.44296"/><trkpt lat="49.78618" lon="6.44203"/></trkseg></trk>
</gpx>
