<?xml version="1.0" encoding="UTF-8"?>
<gpx version="1.1" creator="ian.lu/trails" xmlns="http://www.topografix.com/GPX/1/1">
<metadata><name>Auto-Pédestre Rambrouch</name><link href="https://ian.lu/trails/"/></metadata>
<trk><name>Auto-Pédestre Rambrouch</name><trkseg><trkpt lat="49.83864" lon="5.82792"/><trkpt lat="49.83901" lon="5.82852"/><trkpt lat="49.83966" lon="5.83354"/><trkpt lat="49.83955" lon="5.83689"/><trkpt lat="49.83944" lon="5.83766"/><trkpt lat="49.8391" lon="5.83834"/><trkpt lat="49.83872" lon="5.83857"/><trkpt lat="49.83882" lon="5.8391"/><trkpt lat="49.83874" lon="5.83936"/><trkpt lat="49.83701" lon="5.84093"/><trkpt lat="49.83606" lon="5.8419"/><trkpt lat="49.83575" lon="5.84362"/><trkpt lat="49.83537" lon="5.84481"/><trkpt lat="49.83501" lon="5.84557"/><trkpt lat="49.8347" lon="5.84647"/><trkpt lat="49.83434" lon="5.84716"/><trkpt lat="49.83428" lon="5.84711"/><trkpt lat="49.83416" lon="5.84775"/><trkpt lat="49.83316" lon="5.84958"/><trkpt lat="49.83276" lon="5.85099"/><trkpt lat="49.83258" lon="5.85135"/><trkpt lat="49.83174" lon="5.85241"/><trkpt lat="49.83101" lon="5.85227"/><trkpt lat="49.83042" lon="5.85202"/><trkpt lat="49.83024" lon="5.8518"/><trkpt lat="49.83014" lon="5.85156"/><trkpt lat="49.83002" lon="5.8506"/><trkpt lat="49.83001" lon="5.84985"/><trkpt lat="49.83016" lon="5.84893"/><trkpt lat="49.83007" lon="5.84894"/><trkpt lat="49.82991" lon="5.84365"/><trkpt lat="49.8297" lon="5.84278"/><trkpt lat="49.82947" lon="5.84212"/><trkpt lat="49.82851" lon="5.84018"/><trkpt lat="49.82844" lon="5.83982"/><trkpt lat="49.82845" lon="5.8387"/><trkpt lat="49.82837" lon="5.83808"/><trkpt lat="49.82827" lon="5.83776"/><trkpt lat="49.82774" lon="5.83697"/><trkpt lat="49.82742" lon="5.8359"/><trkpt lat="49.82743" lon="5.83499"/><trkpt lat="49.82756" lon="5.83435"/><trkpt lat="49.82756" lon="5.83391"/><trkpt lat="49.82717" lon="5.8325"/><trkpt lat="49.82671" lon="5.82865"/><trkpt lat="49.82644" lon="5.8273"/><trkpt lat="49.82657" lon="5.82506"/><trkpt lat="49.8263" lon="5.82385"/><trkpt lat="49.82573" lon="5.82308"/><trkpt lat="49.82515" lon="5.8225"/><trkpt lat="49.82447" lon="5.82162"/><trkpt lat="49.82396" lon="5.82142"/><trkpt lat="49.82381" lon="5.8213"/><trkpt lat="49.82206" lon="5.82139"/><trkpt lat="49.82081" lon="5.82121"/><trkpt lat="49.82019" lon="5.82119"/><trkpt lat="49.81983" lon="5.82123"/><trkpt lat="49.81953" lon="5.82141"/><trkpt lat="49.81913" lon="5.82151"/><trkpt lat="49.81887" lon="5.82145"/><trkpt lat="49.81834" lon="5.82091"/><trkpt lat="49.81776" lon="5.81973"/><trkpt lat="49.81752" lon="5.81943"/><trkpt lat="49.81715" lon="5.81919"/><trkpt lat="49.81752" lon="5.81978"/><trkpt lat="49.81755" lon="5.81994"/><trkpt lat="49.81739" lon="5.81988"/><trkpt lat="49.81669" lon="5.81937"/><trkpt lat="49.81579" lon="5.81886"/><trkpt lat="49.81476" lon="5.81775"/><trkpt lat="49.81351" lon="5.81621"/><trkpt lat="49.81197" lon="5.81388"/><trkpt lat="49.81262" lon="5.81205"/><trkpt lat="49.81305" lon="5.81107"/><trkpt lat="49.81395" lon="5.80998"/><trkpt lat="49.81436" lon="5.80971"/><trkpt lat="49.81489" lon="5.80974"/><trkpt lat="49.81563" lon="5.80994"/><trkpt lat="49.81621" lon="5.81019"/><trkpt lat="49.8166" lon="5.81046"/><trkpt lat="49.81724" lon="5.81115"/><trkpt lat="49.81801" lon="5.81169"/><trkpt lat="49.81792" lon="5.8117"/><trkpt lat="49.81723" lon="5.81146"/><trkpt lat="49.81664" lon="5.81106"/><trkpt lat="49.81596" lon="5.8108"/><trkpt lat="49.8153" lon="5.81073"/><trkpt lat="49.81485" lon="5.81081"/><trkpt lat="49.81481" lon="5.81091"/><trkpt lat="49.81487" lon="5.81098"/><trkpt lat="49.81514" lon="5.81104"/><trkpt lat="49.81545" lon="5.81127"/><trkpt lat="49.81585" lon="5.81181"/><trkpt lat="49.81691" lon="5.81367"/><trkpt lat="49.81709" lon="5.8142"/><trkpt lat="49.81732" lon="5.81549"/><trkpt lat="49.81769" lon="5.81588"/><trkpt lat="49.81805" lon="5.81612"/><trkpt lat="49.81948" lon="5.81672"/><trkpt lat="49.82124" lon="5.81666"/><trkpt lat="49.82168" lon="5.81634"/><trkpt lat="49.82187" lon="5.81635"/><trkpt lat="49.8228" lon="5.81685"/><trkpt lat="49.82375" lon="5.81779"/><trkpt lat="49.82392" lon="5.81788"/><trkpt lat="49.82452" lon="5.81788"/><trkpt lat="49.82522" lon="5.81815"/><trkpt lat="49.82633" lon="5.81832"/><trkpt lat="49.82717" lon="5.81861"/><trkpt lat="49.82784" lon="5.8187"/><trkpt lat="49.82881" lon="5.81906"/><trkpt lat="49.8298" lon="5.8197"/><trkpt lat="49.83045" lon="5.82028"/><trkpt lat="49.83168" lon="5.821"/><trkpt lat="49.83183" lon="5.82112"/><trkpt lat="49.8323" lon="5.82186"/><trkpt lat="49.83308" lon="5.82256"/><trkpt lat="49.83335" lon="5.8227"/><trkpt lat="49.834" lon="5.82264"/><trkpt lat="49.83459" lon="5.82278"/><trkpt lat="49.83491" lon="5.82298"/><trkpt lat="49.83627" lon="5.8235"/><trkpt lat="49.83644" lon="5.82365"/><trkpt lat="49.83719" lon="5.82473"/><trkpt lat="49.83746" lon="5.82499"/><trkpt lat="49.83799" lon="5.82655"/><trkpt lat="49.83865" lon="5.82792"/></trkseg></trk>
</gpx>
