<?xml version="1.0" encoding="UTF-8"?>
<gpx version="1.1" creator="ian.lu/trails" xmlns="http://www.topografix.com/GPX/1/1">
<metadata><name>Auto-Pédestre Remerschen</name><link href="https://ian.lu/trails/"/></metadata>
<trk><name>Auto-Pédestre Remerschen</name><trkseg><trkpt lat="49.4926" lon="6.362"/><trkpt lat="49.4927" lon="6.36213"/><trkpt lat="49.49294" lon="6.36214"/><trkpt lat="49.49296" lon="6.36168"/><trkpt lat="49.49285" lon="6.36126"/><trkpt lat="49.49286" lon="6.36038"/><trkpt lat="49.49272" lon="6.35926"/><trkpt lat="49.49279" lon="6.35778"/><trkpt lat="49.49286" lon="6.35762"/><trkpt lat="49.49294" lon="6.35757"/><trkpt lat="49.49348" lon="6.35758"/><trkpt lat="49.49366" lon="6.35776"/><trkpt lat="49.49381" lon="6.35812"/><trkpt lat="49.49408" lon="6.35844"/><trkpt lat="49.49452" lon="6.35929"/><trkpt lat="49.49538" lon="6.36027"/><trkpt lat="49.49543" lon="6.36027"/><trkpt lat="49.4955" lon="6.36063"/><trkpt lat="49.49535" lon="6.36094"/><trkpt lat="49.49547" lon="6.36114"/><trkpt lat="49.49618" lon="6.36149"/><trkpt lat="49.49646" lon="6.3615"/><trkpt lat="49.49658" lon="6.36146"/><trkpt lat="49.49681" lon="6.36099"/><trkpt lat="49.49689" lon="6.36217"/><trkpt lat="49.49683" lon="6.36325"/><trkpt lat="49.49662" lon="6.36457"/><trkpt lat="49.49643" lon="6.36512"/><trkpt lat="49.49636" lon="6.36589"/><trkpt lat="49.49652" lon="6.36587"/><trkpt lat="49.49695" lon="6.36563"/><trkpt lat="49.49731" lon="6.36553"/><trkpt lat="49.49773" lon="6.36562"/><trkpt lat="49.49924" lon="6.36558"/><trkpt lat="49.49964" lon="6.36513"/><trkpt lat="49.49999" lon="6.3646"/><trkpt lat="49.50034" lon="6.36449"/><trkpt lat="49.50083" lon="6.36405"/><trkpt lat="49.50128" lon="6.36387"/><trkpt lat="49.50115" lon="6.36188"/><trkpt lat="49.50101" lon="6.36107"/><trkpt lat="49.50056" lon="6.36014"/><trkpt lat="49.50051" lon="6.35993"/><trkpt lat="49.50088" lon="6.35511"/><trkpt lat="49.50067" lon="6.35507"/><trkpt lat="49.49913" lon="6.35399"/><trkpt lat="49.49909" lon="6.35364"/><trkpt lat="49.49993" lon="6.35318"/><trkpt lat="49.49995" lon="6.35307"/><trkpt lat="49.49961" lon="6.35274"/><trkpt lat="49.49938" lon="6.35254"/><trkpt lat="49.49832" lon="6.35201"/><trkpt lat="49.49724" lon="6.35164"/><trkpt lat="49.49607" lon="6.35112"/><trkpt lat="49.49537" lon="6.35013"/><trkpt lat="49.49516" lon="6.35009"/><trkpt lat="49.49496" lon="6.34924"/><trkpt lat="49.49481" lon="6.34809"/><trkpt lat="49.49445" lon="6.34717"/><trkpt lat="49.49434" lon="6.34666"/><trkpt lat="49.49431" lon="6.3463"/><trkpt lat="49.4945" lon="6.34532"/><trkpt lat="49.49444" lon="6.34515"/><trkpt lat="49.49422" lon="6.34505"/><trkpt lat="49.49361" lon="6.34516"/><trkpt lat="49.49341" lon="6.34528"/><trkpt lat="49.49298" lon="6.34672"/><trkpt lat="49.49289" lon="6.34756"/><trkpt lat="49.49309" lon="6.34825"/><trkpt lat="49.49241" lon="6.34792"/><trkpt lat="49.49196" lon="6.34784"/><trkpt lat="49.49145" lon="6.34716"/><trkpt lat="49.49108" lon="6.34692"/><trkpt lat="49.49095" lon="6.34686"/><trkpt lat="49.4903" lon="6.34689"/><trkpt lat="49.4899" lon="6.348"/><trkpt lat="49.48946" lon="6.34987"/><trkpt lat="49.48941" lon="6.34999"/><trkpt lat="49.48922" lon="6.35013"/><trkpt lat="49.48914" lon="6.35049"/><trkpt lat="49.48919" lon="6.35066"/><trkpt lat="49.48875" lon="6.35096"/><trkpt lat="49.48773" lon="6.35123"/><trkpt lat="49.48744" lon="6.35157"/><trkpt lat="49.48709" lon="6.35151"/><trkpt lat="49.4842" lon="6.35167"/><trkpt lat="49.483" lon="6.35182"/><trkpt lat="49.4825" lon="6.352"/><trkpt lat="49.48185" lon="6.35186"/><trkpt lat="49.48157" lon="6.35189"/><trkpt lat="49.48072" lon="6.35228"/><trkpt lat="49.48043" lon="6.35305"/><trkpt lat="49.48012" lon="6.35343"/><trkpt lat="49.47961" lon="6.35435"/><trkpt lat="49.47986" lon="6.35427"/><trkpt lat="49.48049" lon="6.35517"/><trkpt lat="49.48025" lon="6.35555"/><trkpt lat="49.47991" lon="6.35585"/><trkpt lat="49.47966" lon="6.35635"/><trkpt lat="49.47947" lon="6.35648"/><trkpt lat="49.47921" lon="6.3568"/><trkpt lat="49.47907" lon="6.35713"/><trkpt lat="49.47854" lon="6.35786"/><trkpt lat="49.47837" lon="6.35843"/><trkpt lat="49.47813" lon="6.35961"/><trkpt lat="49.4782" lon="6.36083"/><trkpt lat="49.47845" lon="6.36149"/><trkpt lat="49.47825" lon="6.36163"/><trkpt lat="49.47749" lon="6.36134"/><trkpt lat="49.47747" lon="6.36275"/><trkpt lat="49.47726" lon="6.3636"/><trkpt lat="49.47724" lon="6.36392"/><trkpt lat="49.47725" lon="6.36443"/><trkpt lat="49.47743" lon="6.36513"/><trkpt lat="49.47733" lon="6.36526"/><trkpt lat="49.47702" lon="6.36527"/><trkpt lat="49.47642" lon="6.36504"/><trkpt lat="49.47622" lon="6.36522"/><trkpt lat="49.47604" lon="6.36557"/><trkpt lat="49.47594" lon="6.36641"/><trkpt lat="49.47587" lon="6.36677"/><trkpt lat="49.47576" lon="6.36692"/><trkpt lat="49.47576" lon="6.36717"/><trkpt lat="49.47862" lon="6.36704"/><trkpt lat="49.48038" lon="6.36705"/><trkpt lat="49.4814" lon="6.3671"/><trkpt lat="49.4835" lon="6.36736"/><trkpt lat="49.48374" lon="6.36715"/><trkpt lat="49.48409" lon="6.36651"/><trkpt lat="49.48452" lon="6.36677"/><trkpt lat="49.48511" lon="6.36697"/><trkpt lat="49.48617" lon="6.36703"/><trkpt lat="49.48724" lon="6.367"/><trkpt lat="49.48933" lon="6.3668"/><trkpt lat="49.49286" lon="6.36605"/><trkpt lat="49.4926" lon="6.362"/></trkseg></trk>
</gpx>
