<?xml version="1.0" encoding="UTF-8"?>
<gpx version="1.1" creator="ian.lu/trails" xmlns="http://www.topografix.com/GPX/1/1">
<metadata><name>Auto-Pédestre Saeul</name><link href="https://ian.lu/trails/"/></metadata>
<trk><name>Auto-Pédestre Saeul</name><trkseg><trkpt lat="49.72679" lon="5.98514"/><trkpt lat="49.72717" lon="5.98475"/><trkpt lat="49.72679" lon="5.98415"/><trkpt lat="49.7267" lon="5.98413"/><trkpt lat="49.72663" lon="5.98376"/><trkpt lat="49.72636" lon="5.98304"/><trkpt lat="49.72642" lon="5.98277"/><trkpt lat="49.72674" lon="5.98228"/><trkpt lat="49.72703" lon="5.98234"/><trkpt lat="49.72724" lon="5.98246"/><trkpt lat="49.7278" lon="5.98332"/><trkpt lat="49.72801" lon="5.9834"/><trkpt lat="49.72837" lon="5.98332"/><trkpt lat="49.72858" lon="5.98321"/><trkpt lat="49.729" lon="5.98277"/><trkpt lat="49.72912" lon="5.98257"/><trkpt lat="49.72943" lon="5.98167"/><trkpt lat="49.72943" lon="5.98082"/><trkpt lat="49.72954" lon="5.97969"/><trkpt lat="49.72965" lon="5.97918"/><trkpt lat="49.73022" lon="5.97834"/><trkpt lat="49.73046" lon="5.9781"/><trkpt lat="49.73064" lon="5.97807"/><trkpt lat="49.73086" lon="5.97813"/><trkpt lat="49.73109" lon="5.97832"/><trkpt lat="49.73116" lon="5.97921"/><trkpt lat="49.73158" lon="5.98011"/><trkpt lat="49.73175" lon="5.98124"/><trkpt lat="49.73204" lon="5.98102"/><trkpt lat="49.73231" lon="5.9812"/><trkpt lat="49.73216" lon="5.98133"/><trkpt lat="49.73222" lon="5.98148"/><trkpt lat="49.73228" lon="5.98146"/><trkpt lat="49.73358" lon="5.98025"/><trkpt lat="49.73367" lon="5.9799"/><trkpt lat="49.73382" lon="5.9798"/><trkpt lat="49.73402" lon="5.97926"/><trkpt lat="49.73397" lon="5.97905"/><trkpt lat="49.73359" lon="5.97847"/><trkpt lat="49.73335" lon="5.9783"/><trkpt lat="49.73323" lon="5.97832"/><trkpt lat="49.73303" lon="5.97849"/><trkpt lat="49.73268" lon="5.97843"/><trkpt lat="49.73244" lon="5.97851"/><trkpt lat="49.73213" lon="5.97836"/><trkpt lat="49.73202" lon="5.97823"/><trkpt lat="49.73185" lon="5.97782"/><trkpt lat="49.73176" lon="5.97776"/><trkpt lat="49.73144" lon="5.97785"/><trkpt lat="49.73085" lon="5.9776"/><trkpt lat="49.7305" lon="5.97754"/><trkpt lat="49.73074" lon="5.97739"/><trkpt lat="49.73093" lon="5.97739"/><trkpt lat="49.73127" lon="5.97761"/><trkpt lat="49.73183" lon="5.97764"/><trkpt lat="49.73199" lon="5.97777"/><trkpt lat="49.73206" lon="5.97795"/><trkpt lat="49.73232" lon="5.97824"/><trkpt lat="49.73246" lon="5.97827"/><trkpt lat="49.73278" lon="5.97816"/><trkpt lat="49.73295" lon="5.97795"/><trkpt lat="49.73307" lon="5.97763"/><trkpt lat="49.73358" lon="5.97714"/><trkpt lat="49.73344" lon="5.97637"/><trkpt lat="49.73317" lon="5.97561"/><trkpt lat="49.732" lon="5.97346"/><trkpt lat="49.73095" lon="5.97134"/><trkpt lat="49.73019" lon="5.96959"/><trkpt lat="49.72965" lon="5.96876"/><trkpt lat="49.72921" lon="5.96839"/><trkpt lat="49.72878" lon="5.96788"/><trkpt lat="49.72853" lon="5.96775"/><trkpt lat="49.72812" lon="5.96775"/><trkpt lat="49.72764" lon="5.96809"/><trkpt lat="49.72748" lon="5.96833"/><trkpt lat="49.72739" lon="5.96887"/><trkpt lat="49.72741" lon="5.96985"/><trkpt lat="49.72748" lon="5.97037"/><trkpt lat="49.72739" lon="5.9722"/><trkpt lat="49.72718" lon="5.97268"/><trkpt lat="49.727" lon="5.97271"/><trkpt lat="49.72687" lon="5.97264"/><trkpt lat="49.72651" lon="5.97229"/><trkpt lat="49.72597" lon="5.97132"/><trkpt lat="49.72565" lon="5.9711"/><trkpt lat="49.72528" lon="5.97057"/><trkpt lat="49.72454" lon="5.97003"/><trkpt lat="49.72402" lon="5.96933"/><trkpt lat="49.72372" lon="5.9688"/><trkpt lat="49.7234" lon="5.96868"/><trkpt lat="49.72263" lon="5.96877"/><trkpt lat="49.72233" lon="5.9687"/><trkpt lat="49.72191" lon="5.96848"/><trkpt lat="49.72104" lon="5.96781"/><trkpt lat="49.72073" lon="5.96774"/><trkpt lat="49.72056" lon="5.96762"/><trkpt lat="49.72027" lon="5.96648"/><trkpt lat="49.72012" lon="5.96625"/><trkpt lat="49.71966" lon="5.96583"/><trkpt lat="49.71935" lon="5.96525"/><trkpt lat="49.7192" lon="5.96441"/><trkpt lat="49.71905" lon="5.96403"/><trkpt lat="49.71889" lon="5.96383"/><trkpt lat="49.71844" lon="5.9635"/><trkpt lat="49.71831" lon="5.96249"/><trkpt lat="49.71816" lon="5.96221"/><trkpt lat="49.7179" lon="5.96191"/><trkpt lat="49.71689" lon="5.96133"/><trkpt lat="49.71642" lon="5.96055"/><trkpt lat="49.71595" lon="5.96011"/><trkpt lat="49.71539" lon="5.95991"/><trkpt lat="49.71609" lon="5.96037"/><trkpt lat="49.71677" lon="5.96153"/><trkpt lat="49.71772" lon="5.96225"/><trkpt lat="49.71801" lon="5.96264"/><trkpt lat="49.71808" lon="5.96353"/><trkpt lat="49.71816" lon="5.9638"/><trkpt lat="49.7186" lon="5.96446"/><trkpt lat="49.71881" lon="5.96488"/><trkpt lat="49.71906" lon="5.96598"/><trkpt lat="49.71926" lon="5.96631"/><trkpt lat="49.71975" lon="5.96678"/><trkpt lat="49.71989" lon="5.967"/><trkpt lat="49.72006" lon="5.96799"/><trkpt lat="49.72022" lon="5.96834"/><trkpt lat="49.72219" lon="5.96985"/><trkpt lat="49.72266" lon="5.97001"/><trkpt lat="49.72335" lon="5.9701"/><trkpt lat="49.72399" lon="5.97109"/><trkpt lat="49.7242" lon="5.97166"/><trkpt lat="49.72365" lon="5.97215"/><trkpt lat="49.72327" lon="5.97261"/><trkpt lat="49.7228" lon="5.97261"/><trkpt lat="49.72513" lon="5.97643"/><trkpt lat="49.72559" lon="5.97805"/><trkpt lat="49.72584" lon="5.97864"/><trkpt lat="49.72707" lon="5.97995"/><trkpt lat="49.72734" lon="5.98009"/><trkpt lat="49.72742" lon="5.98009"/><trkpt lat="49.72759" lon="5.97995"/><trkpt lat="49.72771" lon="5.98019"/><trkpt lat="49.72804" lon="5.98043"/><trkpt lat="49.72836" lon="5.98104"/><trkpt lat="49.72836" lon="5.98218"/><trkpt lat="49.72827" lon="5.98244"/><trkpt lat="49.72812" lon="5.98247"/><trkpt lat="49.72785" lon="5.98228"/><trkpt lat="49.7278" lon="5.98232"/><trkpt lat="49.7279" lon="5.98289"/><trkpt lat="49.72814" lon="5.98292"/><trkpt lat="49.72851" lon="5.98267"/><trkpt lat="49.72898" lon="5.98167"/><trkpt lat="49.72886" lon="5.98252"/><trkpt lat="49.7287" lon="5.98296"/><trkpt lat="49.72861" lon="5.98313"/><trkpt lat="49.72827" lon="5.98333"/><trkpt lat="49.72795" lon="5.98337"/><trkpt lat="49.72784" lon="5.98331"/><trkpt lat="49.72725" lon="5.98243"/><trkpt lat="49.72681" lon="5.98222"/><trkpt lat="49.72673" lon="5.98223"/><trkpt lat="49.72657" lon="5.98243"/><trkpt lat="49.72633" lon="5.98291"/><trkpt lat="49.72632" lon="5.98305"/><trkpt lat="49.72668" lon="5.98419"/><trkpt lat="49.72678" lon="5.9842"/><trkpt lat="49.72715" lon="5.98475"/><trkpt lat="49.72677" lon="5.98513"/></trkseg></trk>
</gpx>
