<?xml version="1.0" encoding="UTF-8"?>
<gpx version="1.1" creator="ian.lu/trails" xmlns="http://www.topografix.com/GPX/1/1">
<metadata><name>Auto-Pédestre Scheidgen</name><link href="https://ian.lu/trails/"/></metadata>
<trk><name>Auto-Pédestre Scheidgen</name><trkseg><trkpt lat="49.78166" lon="6.35969"/><trkpt lat="49.7813" lon="6.35877"/><trkpt lat="49.78121" lon="6.35878"/><trkpt lat="49.78107" lon="6.35848"/><trkpt lat="49.78035" lon="6.35788"/><trkpt lat="49.78012" lon="6.35781"/><trkpt lat="49.77802" lon="6.35792"/><trkpt lat="49.77777" lon="6.35803"/><trkpt lat="49.77659" lon="6.35819"/><trkpt lat="49.77601" lon="6.35851"/><trkpt lat="49.77589" lon="6.35845"/><trkpt lat="49.77576" lon="6.35822"/><trkpt lat="49.77558" lon="6.35814"/><trkpt lat="49.77524" lon="6.35809"/><trkpt lat="49.77437" lon="6.35809"/><trkpt lat="49.77407" lon="6.35842"/><trkpt lat="49.77365" lon="6.35945"/><trkpt lat="49.7737" lon="6.36052"/><trkpt lat="49.77342" lon="6.36252"/><trkpt lat="49.77299" lon="6.36369"/><trkpt lat="49.77288" lon="6.36385"/><trkpt lat="49.77274" lon="6.36388"/><trkpt lat="49.77275" lon="6.36317"/><trkpt lat="49.77299" lon="6.36221"/><trkpt lat="49.77299" lon="6.36108"/><trkpt lat="49.77328" lon="6.35923"/><trkpt lat="49.77404" lon="6.35773"/><trkpt lat="49.77414" lon="6.3576"/><trkpt lat="49.77439" lon="6.35749"/><trkpt lat="49.77518" lon="6.35742"/><trkpt lat="49.7763" lon="6.35748"/><trkpt lat="49.77672" lon="6.35757"/><trkpt lat="49.77715" lon="6.35749"/><trkpt lat="49.77729" lon="6.35737"/><trkpt lat="49.78005" lon="6.35718"/><trkpt lat="49.78056" lon="6.3572"/><trkpt lat="49.78081" lon="6.35737"/><trkpt lat="49.78091" lon="6.35672"/><trkpt lat="49.78156" lon="6.35563"/><trkpt lat="49.78217" lon="6.35498"/><trkpt lat="49.78225" lon="6.35493"/><trkpt lat="49.78234" lon="6.35498"/><trkpt lat="49.7831" lon="6.35421"/><trkpt lat="49.78315" lon="6.35399"/><trkpt lat="49.78363" lon="6.35326"/><trkpt lat="49.78375" lon="6.35273"/><trkpt lat="49.78377" lon="6.35198"/><trkpt lat="49.78389" lon="6.35201"/><trkpt lat="49.7842" lon="6.3525"/><trkpt lat="49.78474" lon="6.35376"/><trkpt lat="49.78517" lon="6.35392"/><trkpt lat="49.7854" lon="6.35423"/><trkpt lat="49.78625" lon="6.35619"/><trkpt lat="49.78633" lon="6.35627"/><trkpt lat="49.78667" lon="6.35633"/><trkpt lat="49.78693" lon="6.35681"/><trkpt lat="49.78717" lon="6.35703"/><trkpt lat="49.78732" lon="6.35697"/><trkpt lat="49.78765" lon="6.35665"/><trkpt lat="49.78788" lon="6.35659"/><trkpt lat="49.7879" lon="6.35739"/><trkpt lat="49.78817" lon="6.36026"/><trkpt lat="49.78813" lon="6.36064"/><trkpt lat="49.78864" lon="6.36108"/><trkpt lat="49.78874" lon="6.36108"/><trkpt lat="49.78883" lon="6.36153"/><trkpt lat="49.78885" lon="6.36226"/><trkpt lat="49.78899" lon="6.3625"/><trkpt lat="49.78892" lon="6.36263"/><trkpt lat="49.78914" lon="6.36287"/><trkpt lat="49.78946" lon="6.36272"/><trkpt lat="49.79004" lon="6.36272"/><trkpt lat="49.79048" lon="6.36245"/><trkpt lat="49.79079" lon="6.36191"/><trkpt lat="49.79123" lon="6.36035"/><trkpt lat="49.79156" lon="6.35998"/><trkpt lat="49.79202" lon="6.35972"/><trkpt lat="49.79226" lon="6.35976"/><trkpt lat="49.79256" lon="6.35998"/><trkpt lat="49.79309" lon="6.36051"/><trkpt lat="49.79332" lon="6.36085"/><trkpt lat="49.79366" lon="6.36099"/><trkpt lat="49.79385" lon="6.36131"/><trkpt lat="49.79424" lon="6.36149"/><trkpt lat="49.79444" lon="6.36172"/><trkpt lat="49.79485" lon="6.36191"/><trkpt lat="49.79499" lon="6.36236"/><trkpt lat="49.79529" lon="6.36295"/><trkpt lat="49.79527" lon="6.36322"/><trkpt lat="49.79514" lon="6.36339"/><trkpt lat="49.79486" lon="6.3628"/><trkpt lat="49.79471" lon="6.36269"/><trkpt lat="49.7947" lon="6.36254"/><trkpt lat="49.79365" lon="6.36169"/><trkpt lat="49.79352" lon="6.36168"/><trkpt lat="49.79295" lon="6.36099"/><trkpt lat="49.79284" lon="6.36069"/><trkpt lat="49.79248" lon="6.36032"/><trkpt lat="49.79205" lon="6.36019"/><trkpt lat="49.79156" lon="6.36024"/><trkpt lat="49.79138" lon="6.36053"/><trkpt lat="49.79119" lon="6.36068"/><trkpt lat="49.79108" lon="6.36115"/><trkpt lat="49.79124" lon="6.36194"/><trkpt lat="49.79116" lon="6.36233"/><trkpt lat="49.79058" lon="6.36278"/><trkpt lat="49.79029" lon="6.36314"/><trkpt lat="49.78975" lon="6.36332"/><trkpt lat="49.78956" lon="6.36331"/><trkpt lat="49.78925" lon="6.36343"/><trkpt lat="49.78914" lon="6.36357"/><trkpt lat="49.789" lon="6.36406"/><trkpt lat="49.78902" lon="6.36493"/><trkpt lat="49.78893" lon="6.3661"/><trkpt lat="49.7888" lon="6.36647"/><trkpt lat="49.78862" lon="6.36652"/><trkpt lat="49.78842" lon="6.36639"/><trkpt lat="49.78809" lon="6.36634"/><trkpt lat="49.78774" lon="6.36581"/><trkpt lat="49.78726" lon="6.36538"/><trkpt lat="49.78629" lon="6.36505"/><trkpt lat="49.7849" lon="6.3642"/><trkpt lat="49.78449" lon="6.36389"/><trkpt lat="49.78421" lon="6.36359"/><trkpt lat="49.78398" lon="6.36316"/><trkpt lat="49.78345" lon="6.36246"/><trkpt lat="49.78298" lon="6.36136"/><trkpt lat="49.78252" lon="6.36066"/><trkpt lat="49.78227" lon="6.35994"/><trkpt lat="49.7818" lon="6.35908"/><trkpt lat="49.78167" lon="6.35897"/><trkpt lat="49.78181" lon="6.35942"/><trkpt lat="49.78172" lon="6.35949"/><trkpt lat="49.78166" lon="6.3597"/></trkseg></trk>
</gpx>
