<?xml version="1.0" encoding="UTF-8"?>
<gpx version="1.1" creator="ian.lu/trails" xmlns="http://www.topografix.com/GPX/1/1">
<metadata><name>Auto-Pédestre Schengen</name><link href="https://ian.lu/trails/"/></metadata>
<trk><name>Auto-Pédestre Schengen</name><trkseg><trkpt lat="49.47189" lon="6.36672"/><trkpt lat="49.47163" lon="6.36667"/><trkpt lat="49.47154" lon="6.36653"/><trkpt lat="49.47131" lon="6.36643"/><trkpt lat="49.47066" lon="6.36643"/><trkpt lat="49.47071" lon="6.36514"/><trkpt lat="49.4699" lon="6.36536"/><trkpt lat="49.46901" lon="6.36517"/><trkpt lat="49.46875" lon="6.3649"/><trkpt lat="49.46813" lon="6.36476"/><trkpt lat="49.46787" lon="6.36435"/><trkpt lat="49.46757" lon="6.36419"/><trkpt lat="49.46744" lon="6.36392"/><trkpt lat="49.46704" lon="6.3637"/><trkpt lat="49.46661" lon="6.36366"/><trkpt lat="49.46615" lon="6.36351"/><trkpt lat="49.46555" lon="6.36387"/><trkpt lat="49.46522" lon="6.36391"/><trkpt lat="49.46508" lon="6.36383"/><trkpt lat="49.46518" lon="6.36374"/><trkpt lat="49.46535" lon="6.36324"/><trkpt lat="49.46548" lon="6.36304"/><trkpt lat="49.46597" lon="6.36286"/><trkpt lat="49.4661" lon="6.36275"/><trkpt lat="49.46628" lon="6.36207"/><trkpt lat="49.46623" lon="6.36104"/><trkpt lat="49.46544" lon="6.35988"/><trkpt lat="49.46545" lon="6.35974"/><trkpt lat="49.46602" lon="6.35906"/><trkpt lat="49.46689" lon="6.35834"/><trkpt lat="49.46719" lon="6.35801"/><trkpt lat="49.4683" lon="6.35644"/><trkpt lat="49.4688" lon="6.35679"/><trkpt lat="49.46925" lon="6.35748"/><trkpt lat="49.46934" lon="6.35773"/><trkpt lat="49.46938" lon="6.35771"/><trkpt lat="49.46947" lon="6.35853"/><trkpt lat="49.46971" lon="6.35845"/><trkpt lat="49.47088" lon="6.35749"/><trkpt lat="49.47114" lon="6.35702"/><trkpt lat="49.47141" lon="6.35519"/><trkpt lat="49.47163" lon="6.35424"/><trkpt lat="49.47195" lon="6.35338"/><trkpt lat="49.47241" lon="6.35243"/><trkpt lat="49.47307" lon="6.35374"/><trkpt lat="49.47388" lon="6.35598"/><trkpt lat="49.47409" lon="6.35714"/><trkpt lat="49.47414" lon="6.35784"/><trkpt lat="49.47408" lon="6.3585"/><trkpt lat="49.47422" lon="6.35911"/><trkpt lat="49.4747" lon="6.36013"/><trkpt lat="49.4753" lon="6.36092"/><trkpt lat="49.47576" lon="6.36171"/><trkpt lat="49.476" lon="6.36228"/><trkpt lat="49.47607" lon="6.3634"/><trkpt lat="49.47595" lon="6.36383"/><trkpt lat="49.47573" lon="6.36412"/><trkpt lat="49.47543" lon="6.36431"/><trkpt lat="49.47514" lon="6.36438"/><trkpt lat="49.47485" lon="6.36349"/><trkpt lat="49.47386" lon="6.3633"/><trkpt lat="49.47375" lon="6.36271"/><trkpt lat="49.47319" lon="6.36221"/><trkpt lat="49.47283" lon="6.36203"/><trkpt lat="49.47208" lon="6.36101"/><trkpt lat="49.47188" lon="6.36055"/><trkpt lat="49.4716" lon="6.35937"/><trkpt lat="49.4714" lon="6.35902"/><trkpt lat="49.47088" lon="6.35844"/><trkpt lat="49.47076" lon="6.35823"/><trkpt lat="49.47072" lon="6.35907"/><trkpt lat="49.47076" lon="6.36054"/><trkpt lat="49.47" lon="6.36084"/><trkpt lat="49.47033" lon="6.36147"/><trkpt lat="49.47061" lon="6.36181"/><trkpt lat="49.47098" lon="6.36272"/><trkpt lat="49.47137" lon="6.36336"/><trkpt lat="49.47186" lon="6.36401"/><trkpt lat="49.47207" lon="6.36409"/><trkpt lat="49.47262" lon="6.36402"/><trkpt lat="49.47291" lon="6.36388"/><trkpt lat="49.47306" lon="6.3639"/><trkpt lat="49.47298" lon="6.36497"/><trkpt lat="49.47256" lon="6.36503"/><trkpt lat="49.47215" lon="6.365"/><trkpt lat="49.47208" lon="6.3654"/><trkpt lat="49.47199" lon="6.36539"/><trkpt lat="49.47192" lon="6.36579"/><trkpt lat="49.47203" lon="6.36647"/><trkpt lat="49.47214" lon="6.36658"/><trkpt lat="49.47208" lon="6.36673"/><trkpt lat="49.47215" lon="6.36681"/><trkpt lat="49.47192" lon="6.36671"/></trkseg></trk>
</gpx>
