<?xml version="1.0" encoding="UTF-8"?>
<gpx version="1.1" creator="ian.lu/trails" xmlns="http://www.topografix.com/GPX/1/1">
<metadata><name>Auto-Pédestre Schimpach</name><link href="https://ian.lu/trails/"/></metadata>
<trk><name>Auto-Pédestre Schimpach</name><trkseg><trkpt lat="50.00993" lon="5.84889"/><trkpt lat="50.01031" lon="5.84988"/><trkpt lat="50.01027" lon="5.85068"/><trkpt lat="50.01044" lon="5.85086"/><trkpt lat="50.01087" lon="5.85091"/><trkpt lat="50.01121" lon="5.85066"/><trkpt lat="50.01164" lon="5.85"/><trkpt lat="50.01206" lon="5.84916"/><trkpt lat="50.01277" lon="5.84855"/><trkpt lat="50.01286" lon="5.84808"/><trkpt lat="50.01291" lon="5.84805"/><trkpt lat="50.01357" lon="5.85023"/><trkpt lat="50.01317" lon="5.85112"/><trkpt lat="50.01255" lon="5.85291"/><trkpt lat="50.01126" lon="5.85502"/><trkpt lat="50.0108" lon="5.85648"/><trkpt lat="50.0109" lon="5.8566"/><trkpt lat="50.01074" lon="5.8571"/><trkpt lat="50.01041" lon="5.85782"/><trkpt lat="50.01007" lon="5.85835"/><trkpt lat="50.00996" lon="5.85881"/><trkpt lat="50.00998" lon="5.85912"/><trkpt lat="50.0103" lon="5.86035"/><trkpt lat="50.0105" lon="5.86051"/><trkpt lat="50.01085" lon="5.86192"/><trkpt lat="50.01094" lon="5.86375"/><trkpt lat="50.01166" lon="5.86582"/><trkpt lat="50.01104" lon="5.86629"/><trkpt lat="50.01077" lon="5.86638"/><trkpt lat="50.01055" lon="5.86636"/><trkpt lat="50.00969" lon="5.86583"/><trkpt lat="50.00967" lon="5.86502"/><trkpt lat="50.00954" lon="5.86424"/><trkpt lat="50.00863" lon="5.86218"/><trkpt lat="50.00801" lon="5.8598"/><trkpt lat="50.00783" lon="5.85851"/><trkpt lat="50.00786" lon="5.8576"/><trkpt lat="50.00769" lon="5.85737"/><trkpt lat="50.00731" lon="5.85645"/><trkpt lat="50.00692" lon="5.85599"/><trkpt lat="50.00667" lon="5.8559"/><trkpt lat="50.00627" lon="5.85588"/><trkpt lat="50.00571" lon="5.856"/><trkpt lat="50.00542" lon="5.8563"/><trkpt lat="50.00516" lon="5.85677"/><trkpt lat="50.00423" lon="5.85771"/><trkpt lat="50.00376" lon="5.85793"/><trkpt lat="50.00348" lon="5.85791"/><trkpt lat="50.00302" lon="5.85804"/><trkpt lat="50.00283" lon="5.85816"/><trkpt lat="50.00254" lon="5.85848"/><trkpt lat="50.00197" lon="5.85939"/><trkpt lat="50.00138" lon="5.86055"/><trkpt lat="49.99923" lon="5.85896"/><trkpt lat="49.99864" lon="5.85843"/><trkpt lat="49.99842" lon="5.85829"/><trkpt lat="49.99802" lon="5.85822"/><trkpt lat="49.99758" lon="5.85799"/><trkpt lat="49.99722" lon="5.85763"/><trkpt lat="49.99768" lon="5.85763"/><trkpt lat="49.99818" lon="5.85737"/><trkpt lat="49.99856" lon="5.85745"/><trkpt lat="49.99882" lon="5.85725"/><trkpt lat="49.99895" lon="5.85684"/><trkpt lat="49.99921" lon="5.85506"/><trkpt lat="49.99941" lon="5.85415"/><trkpt lat="49.9993" lon="5.85293"/><trkpt lat="49.99941" lon="5.85147"/><trkpt lat="49.99928" lon="5.85066"/><trkpt lat="49.99944" lon="5.85046"/><trkpt lat="50.0002" lon="5.84992"/><trkpt lat="50.00054" lon="5.84971"/><trkpt lat="50.00089" lon="5.84959"/><trkpt lat="50.00176" lon="5.84956"/><trkpt lat="50.00203" lon="5.84943"/><trkpt lat="50.00227" lon="5.8492"/><trkpt lat="50.00236" lon="5.84919"/><trkpt lat="50.0032" lon="5.84999"/><trkpt lat="50.00415" lon="5.85074"/><trkpt lat="50.00459" lon="5.85157"/><trkpt lat="50.00487" lon="5.85254"/><trkpt lat="50.00499" lon="5.85265"/><trkpt lat="50.00509" lon="5.8526"/><trkpt lat="50.00511" lon="5.85179"/><trkpt lat="50.00491" lon="5.85019"/><trkpt lat="50.00507" lon="5.84882"/><trkpt lat="50.00492" lon="5.84791"/><trkpt lat="50.00488" lon="5.84701"/><trkpt lat="50.00497" lon="5.84652"/><trkpt lat="50.00523" lon="5.84613"/><trkpt lat="50.00504" lon="5.84525"/><trkpt lat="50.00496" lon="5.84462"/><trkpt lat="50.00501" lon="5.8445"/><trkpt lat="50.00511" lon="5.84449"/><trkpt lat="50.0052" lon="5.84457"/><trkpt lat="50.00583" lon="5.84561"/><trkpt lat="50.00642" lon="5.84723"/><trkpt lat="50.00745" lon="5.84822"/><trkpt lat="50.00794" lon="5.84885"/><trkpt lat="50.00858" lon="5.84986"/><trkpt lat="50.00904" lon="5.85028"/><trkpt lat="50.00979" lon="5.85077"/><trkpt lat="50.01026" lon="5.85067"/><trkpt lat="50.01033" lon="5.85016"/><trkpt lat="50.0103" lon="5.84988"/><trkpt lat="50.00993" lon="5.84889"/></trkseg></trk>
</gpx>
