<?xml version="1.0" encoding="UTF-8"?>
<gpx version="1.1" creator="ian.lu/trails" xmlns="http://www.topografix.com/GPX/1/1">
<metadata><name>Auto-Pédestre Schoenfels</name><link href="https://ian.lu/trails/"/></metadata>
<trk><name>Auto-Pédestre Schoenfels</name><trkseg><trkpt lat="49.71914" lon="6.09139"/><trkpt lat="49.71899" lon="6.09093"/><trkpt lat="49.71863" lon="6.09024"/><trkpt lat="49.7186" lon="6.08997"/><trkpt lat="49.71804" lon="6.08936"/><trkpt lat="49.71743" lon="6.08846"/><trkpt lat="49.71693" lon="6.08803"/><trkpt lat="49.71582" lon="6.08756"/><trkpt lat="49.71523" lon="6.08721"/><trkpt lat="49.71466" lon="6.08676"/><trkpt lat="49.71374" lon="6.08631"/><trkpt lat="49.71278" lon="6.08511"/><trkpt lat="49.71191" lon="6.08368"/><trkpt lat="49.71114" lon="6.08325"/><trkpt lat="49.71071" lon="6.08292"/><trkpt lat="49.71055" lon="6.08297"/><trkpt lat="49.7104" lon="6.08336"/><trkpt lat="49.70997" lon="6.08601"/><trkpt lat="49.70994" lon="6.08558"/><trkpt lat="49.70957" lon="6.08367"/><trkpt lat="49.70955" lon="6.08329"/><trkpt lat="49.70987" lon="6.08167"/><trkpt lat="49.71009" lon="6.08111"/><trkpt lat="49.71032" lon="6.08099"/><trkpt lat="49.71078" lon="6.08102"/><trkpt lat="49.71189" lon="6.08132"/><trkpt lat="49.71201" lon="6.08124"/><trkpt lat="49.71225" lon="6.08084"/><trkpt lat="49.71234" lon="6.08081"/><trkpt lat="49.71418" lon="6.08175"/><trkpt lat="49.71461" lon="6.0821"/><trkpt lat="49.71549" lon="6.08258"/><trkpt lat="49.71546" lon="6.08256"/><trkpt lat="49.7158" lon="6.08094"/><trkpt lat="49.71649" lon="6.07866"/><trkpt lat="49.7165" lon="6.07811"/><trkpt lat="49.71639" lon="6.07801"/><trkpt lat="49.71623" lon="6.07747"/><trkpt lat="49.71597" lon="6.07616"/><trkpt lat="49.71537" lon="6.07408"/><trkpt lat="49.71504" lon="6.07192"/><trkpt lat="49.71421" lon="6.06901"/><trkpt lat="49.71397" lon="6.06755"/><trkpt lat="49.71379" lon="6.06716"/><trkpt lat="49.71344" lon="6.06688"/><trkpt lat="49.71328" lon="6.06661"/><trkpt lat="49.71318" lon="6.06535"/><trkpt lat="49.71319" lon="6.06474"/><trkpt lat="49.71331" lon="6.06391"/><trkpt lat="49.71361" lon="6.06282"/><trkpt lat="49.71366" lon="6.0616"/><trkpt lat="49.71391" lon="6.06113"/><trkpt lat="49.71396" lon="6.06071"/><trkpt lat="49.71373" lon="6.05882"/><trkpt lat="49.71347" lon="6.05845"/><trkpt lat="49.71313" lon="6.05845"/><trkpt lat="49.71295" lon="6.05856"/><trkpt lat="49.71269" lon="6.05897"/><trkpt lat="49.71224" lon="6.05993"/><trkpt lat="49.71196" lon="6.0609"/><trkpt lat="49.71181" lon="6.06116"/><trkpt lat="49.71183" lon="6.06037"/><trkpt lat="49.71194" lon="6.05968"/><trkpt lat="49.71213" lon="6.05893"/><trkpt lat="49.71234" lon="6.05843"/><trkpt lat="49.71291" lon="6.0574"/><trkpt lat="49.71319" lon="6.05714"/><trkpt lat="49.71337" lon="6.05708"/><trkpt lat="49.71359" lon="6.05712"/><trkpt lat="49.71419" lon="6.05767"/><trkpt lat="49.71438" lon="6.05792"/><trkpt lat="49.71504" lon="6.05948"/><trkpt lat="49.71546" lon="6.05985"/><trkpt lat="49.71564" lon="6.06088"/><trkpt lat="49.71553" lon="6.06106"/><trkpt lat="49.71544" lon="6.06142"/><trkpt lat="49.71535" lon="6.06255"/><trkpt lat="49.71539" lon="6.06504"/><trkpt lat="49.71562" lon="6.06676"/><trkpt lat="49.71582" lon="6.06887"/><trkpt lat="49.71617" lon="6.07012"/><trkpt lat="49.71643" lon="6.07293"/><trkpt lat="49.71657" lon="6.07323"/><trkpt lat="49.7168" lon="6.07338"/><trkpt lat="49.71678" lon="6.07475"/><trkpt lat="49.71686" lon="6.07506"/><trkpt lat="49.71691" lon="6.07601"/><trkpt lat="49.7175" lon="6.07773"/><trkpt lat="49.71824" lon="6.07875"/><trkpt lat="49.71853" lon="6.07905"/><trkpt lat="49.71888" lon="6.08003"/><trkpt lat="49.71994" lon="6.08039"/><trkpt lat="49.72023" lon="6.08055"/><trkpt lat="49.7208" lon="6.08113"/><trkpt lat="49.72136" lon="6.08207"/><trkpt lat="49.72171" lon="6.08312"/><trkpt lat="49.72211" lon="6.08494"/><trkpt lat="49.72293" lon="6.08646"/><trkpt lat="49.72347" lon="6.08765"/><trkpt lat="49.72387" lon="6.08819"/><trkpt lat="49.72452" lon="6.08945"/><trkpt lat="49.72412" lon="6.08986"/><trkpt lat="49.72354" lon="6.09011"/><trkpt lat="49.72301" lon="6.09132"/><trkpt lat="49.72291" lon="6.09138"/><trkpt lat="49.72244" lon="6.09149"/><trkpt lat="49.72221" lon="6.09138"/><trkpt lat="49.72213" lon="6.09122"/><trkpt lat="49.72194" lon="6.0911"/><trkpt lat="49.72134" lon="6.09108"/><trkpt lat="49.72144" lon="6.09139"/><trkpt lat="49.72148" lon="6.09184"/><trkpt lat="49.72176" lon="6.09243"/><trkpt lat="49.72182" lon="6.09316"/><trkpt lat="49.72209" lon="6.09352"/><trkpt lat="49.72219" lon="6.09413"/><trkpt lat="49.72233" lon="6.09439"/><trkpt lat="49.72241" lon="6.09485"/><trkpt lat="49.72291" lon="6.09564"/><trkpt lat="49.72315" lon="6.09621"/><trkpt lat="49.72337" lon="6.09631"/><trkpt lat="49.72349" lon="6.0966"/><trkpt lat="49.72377" lon="6.09685"/><trkpt lat="49.72379" lon="6.09701"/><trkpt lat="49.72395" lon="6.09705"/><trkpt lat="49.72413" lon="6.09721"/><trkpt lat="49.72458" lon="6.09721"/><trkpt lat="49.72437" lon="6.09744"/><trkpt lat="49.72409" lon="6.0976"/><trkpt lat="49.72347" lon="6.0975"/><trkpt lat="49.7233" lon="6.09728"/><trkpt lat="49.72306" lon="6.09714"/><trkpt lat="49.72231" lon="6.09628"/><trkpt lat="49.72182" lon="6.09558"/><trkpt lat="49.72142" lon="6.09474"/><trkpt lat="49.72126" lon="6.09454"/><trkpt lat="49.72099" lon="6.09436"/><trkpt lat="49.72065" lon="6.09334"/><trkpt lat="49.72045" lon="6.09292"/><trkpt lat="49.71974" lon="6.09234"/><trkpt lat="49.71963" lon="6.09242"/><trkpt lat="49.71933" lon="6.09193"/><trkpt lat="49.71915" lon="6.09143"/></trkseg></trk>
</gpx>
