<?xml version="1.0" encoding="UTF-8"?>
<gpx version="1.1" creator="ian.lu/trails" xmlns="http://www.topografix.com/GPX/1/1">
<metadata><name>Auto-Pédestre Septfontaines</name><link href="https://ian.lu/trails/"/></metadata>
<trk><name>Auto-Pédestre Septfontaines</name><trkseg><trkpt lat="49.6998" lon="5.96377"/><trkpt lat="49.69948" lon="5.96259"/><trkpt lat="49.69975" lon="5.96269"/><trkpt lat="49.70046" lon="5.96348"/><trkpt lat="49.70062" lon="5.96347"/><trkpt lat="49.70081" lon="5.96319"/><trkpt lat="49.70087" lon="5.96297"/><trkpt lat="49.70105" lon="5.96195"/><trkpt lat="49.70123" lon="5.95885"/><trkpt lat="49.70128" lon="5.95877"/><trkpt lat="49.70172" lon="5.95612"/><trkpt lat="49.70206" lon="5.95469"/><trkpt lat="49.7025" lon="5.95328"/><trkpt lat="49.70284" lon="5.95263"/><trkpt lat="49.70326" lon="5.95221"/><trkpt lat="49.70416" lon="5.95104"/><trkpt lat="49.7045" lon="5.95098"/><trkpt lat="49.70492" lon="5.95112"/><trkpt lat="49.70589" lon="5.95205"/><trkpt lat="49.70645" lon="5.95295"/><trkpt lat="49.70657" lon="5.95282"/><trkpt lat="49.7068" lon="5.95196"/><trkpt lat="49.70688" lon="5.95187"/><trkpt lat="49.7071" lon="5.95188"/><trkpt lat="49.70741" lon="5.95212"/><trkpt lat="49.7075" lon="5.95229"/><trkpt lat="49.70772" lon="5.95242"/><trkpt lat="49.70837" lon="5.95171"/><trkpt lat="49.70888" lon="5.95072"/><trkpt lat="49.70901" lon="5.95056"/><trkpt lat="49.70926" lon="5.95041"/><trkpt lat="49.70958" lon="5.95041"/><trkpt lat="49.70968" lon="5.95035"/><trkpt lat="49.70977" lon="5.95043"/><trkpt lat="49.70991" lon="5.95078"/><trkpt lat="49.70985" lon="5.95088"/><trkpt lat="49.70989" lon="5.95113"/><trkpt lat="49.70999" lon="5.95115"/><trkpt lat="49.71006" lon="5.95108"/><trkpt lat="49.71021" lon="5.95124"/><trkpt lat="49.71073" lon="5.95155"/><trkpt lat="49.71119" lon="5.95218"/><trkpt lat="49.71122" lon="5.95245"/><trkpt lat="49.71133" lon="5.95239"/><trkpt lat="49.71207" lon="5.95259"/><trkpt lat="49.71231" lon="5.95254"/><trkpt lat="49.71264" lon="5.95226"/><trkpt lat="49.7131" lon="5.95168"/><trkpt lat="49.71332" lon="5.95123"/><trkpt lat="49.7134" lon="5.95132"/><trkpt lat="49.71304" lon="5.94995"/><trkpt lat="49.71279" lon="5.94947"/><trkpt lat="49.71238" lon="5.94893"/><trkpt lat="49.71184" lon="5.94803"/><trkpt lat="49.71106" lon="5.94741"/><trkpt lat="49.71124" lon="5.9474"/><trkpt lat="49.71161" lon="5.94684"/><trkpt lat="49.71178" lon="5.94671"/><trkpt lat="49.71196" lon="5.94678"/><trkpt lat="49.71253" lon="5.94726"/><trkpt lat="49.71307" lon="5.94745"/><trkpt lat="49.71317" lon="5.94731"/><trkpt lat="49.71313" lon="5.94703"/><trkpt lat="49.71253" lon="5.94625"/><trkpt lat="49.7101" lon="5.94426"/><trkpt lat="49.71118" lon="5.94451"/><trkpt lat="49.71013" lon="5.94354"/><trkpt lat="49.70962" lon="5.94318"/><trkpt lat="49.7091" lon="5.94237"/><trkpt lat="49.70898" lon="5.94194"/><trkpt lat="49.7084" lon="5.94134"/><trkpt lat="49.70758" lon="5.9403"/><trkpt lat="49.7073" lon="5.93981"/><trkpt lat="49.70713" lon="5.93965"/><trkpt lat="49.70698" lon="5.93959"/><trkpt lat="49.70631" lon="5.93861"/><trkpt lat="49.70604" lon="5.93813"/><trkpt lat="49.70589" lon="5.93767"/><trkpt lat="49.7052" lon="5.93651"/><trkpt lat="49.70459" lon="5.93509"/><trkpt lat="49.7043" lon="5.93474"/><trkpt lat="49.70421" lon="5.93403"/><trkpt lat="49.70398" lon="5.93359"/><trkpt lat="49.70397" lon="5.9334"/><trkpt lat="49.7041" lon="5.93297"/><trkpt lat="49.70407" lon="5.93277"/><trkpt lat="49.70397" lon="5.93259"/><trkpt lat="49.70362" lon="5.93241"/><trkpt lat="49.70355" lon="5.93222"/><trkpt lat="49.70372" lon="5.93135"/><trkpt lat="49.70298" lon="5.93152"/><trkpt lat="49.70237" lon="5.93203"/><trkpt lat="49.70232" lon="5.93196"/><trkpt lat="49.70145" lon="5.93427"/><trkpt lat="49.70117" lon="5.93547"/><trkpt lat="49.70109" lon="5.93661"/><trkpt lat="49.69999" lon="5.94143"/><trkpt lat="49.69998" lon="5.94288"/><trkpt lat="49.69894" lon="5.94326"/><trkpt lat="49.69866" lon="5.94359"/><trkpt lat="49.69821" lon="5.94305"/><trkpt lat="49.69765" lon="5.94218"/><trkpt lat="49.6972" lon="5.94129"/><trkpt lat="49.6968" lon="5.94045"/><trkpt lat="49.69695" lon="5.94016"/><trkpt lat="49.69683" lon="5.9399"/><trkpt lat="49.69624" lon="5.93944"/><trkpt lat="49.69519" lon="5.93898"/><trkpt lat="49.69434" lon="5.9392"/><trkpt lat="49.69439" lon="5.93964"/><trkpt lat="49.69386" lon="5.9403"/><trkpt lat="49.69311" lon="5.94182"/><trkpt lat="49.69274" lon="5.94241"/><trkpt lat="49.69176" lon="5.94332"/><trkpt lat="49.6915" lon="5.94388"/><trkpt lat="49.69128" lon="5.94455"/><trkpt lat="49.69127" lon="5.94535"/><trkpt lat="49.6914" lon="5.94606"/><trkpt lat="49.6924" lon="5.94805"/><trkpt lat="49.69264" lon="5.94863"/><trkpt lat="49.69305" lon="5.95012"/><trkpt lat="49.6931" lon="5.95087"/><trkpt lat="49.69292" lon="5.95259"/><trkpt lat="49.69303" lon="5.95319"/><trkpt lat="49.69312" lon="5.95331"/><trkpt lat="49.69346" lon="5.9535"/><trkpt lat="49.69436" lon="5.95443"/><trkpt lat="49.69455" lon="5.95456"/><trkpt lat="49.69473" lon="5.95454"/><trkpt lat="49.6949" lon="5.95461"/><trkpt lat="49.69574" lon="5.95552"/><trkpt lat="49.69614" lon="5.95624"/><trkpt lat="49.69663" lon="5.95635"/><trkpt lat="49.69692" lon="5.95624"/><trkpt lat="49.69688" lon="5.95853"/><trkpt lat="49.6968" lon="5.95869"/><trkpt lat="49.69693" lon="5.95959"/><trkpt lat="49.69724" lon="5.95995"/><trkpt lat="49.69762" lon="5.96004"/><trkpt lat="49.69803" lon="5.96024"/><trkpt lat="49.69859" lon="5.9608"/><trkpt lat="49.69906" lon="5.96154"/><trkpt lat="49.69979" lon="5.96376"/></trkseg></trk>
</gpx>
