<?xml version="1.0" encoding="UTF-8"?>
<gpx version="1.1" creator="ian.lu/trails" xmlns="http://www.topografix.com/GPX/1/1">
<metadata><name>Auto-Pédestre Stolzembourg</name><link href="https://ian.lu/trails/"/></metadata>
<trk><name>Auto-Pédestre Stolzembourg</name><trkseg><trkpt lat="49.96508" lon="6.16755"/><trkpt lat="49.9656" lon="6.16723"/><trkpt lat="49.96558" lon="6.16713"/><trkpt lat="49.96589" lon="6.16692"/><trkpt lat="49.96662" lon="6.16653"/><trkpt lat="49.96657" lon="6.16541"/><trkpt lat="49.96675" lon="6.16408"/><trkpt lat="49.96644" lon="6.16445"/><trkpt lat="49.96639" lon="6.1646"/><trkpt lat="49.9663" lon="6.16465"/><trkpt lat="49.96626" lon="6.16459"/><trkpt lat="49.96629" lon="6.16372"/><trkpt lat="49.96617" lon="6.16276"/><trkpt lat="49.96611" lon="6.16262"/><trkpt lat="49.96604" lon="6.16265"/><trkpt lat="49.96586" lon="6.16169"/><trkpt lat="49.96548" lon="6.16044"/><trkpt lat="49.96511" lon="6.15987"/><trkpt lat="49.96462" lon="6.1593"/><trkpt lat="49.96324" lon="6.15713"/><trkpt lat="49.96309" lon="6.15678"/><trkpt lat="49.96302" lon="6.15636"/><trkpt lat="49.96234" lon="6.15479"/><trkpt lat="49.9621" lon="6.154"/><trkpt lat="49.96108" lon="6.15216"/><trkpt lat="49.96004" lon="6.15102"/><trkpt lat="49.95966" lon="6.1508"/><trkpt lat="49.95899" lon="6.15018"/><trkpt lat="49.95852" lon="6.14993"/><trkpt lat="49.95756" lon="6.14921"/><trkpt lat="49.95749" lon="6.14909"/><trkpt lat="49.95708" lon="6.14794"/><trkpt lat="49.95684" lon="6.14642"/><trkpt lat="49.95669" lon="6.14585"/><trkpt lat="49.95616" lon="6.14447"/><trkpt lat="49.95556" lon="6.14341"/><trkpt lat="49.95515" lon="6.14233"/><trkpt lat="49.95477" lon="6.14025"/><trkpt lat="49.95435" lon="6.13937"/><trkpt lat="49.95376" lon="6.13765"/><trkpt lat="49.95345" lon="6.13712"/><trkpt lat="49.953" lon="6.13658"/><trkpt lat="49.95303" lon="6.13646"/><trkpt lat="49.95315" lon="6.13636"/><trkpt lat="49.95433" lon="6.13645"/><trkpt lat="49.95508" lon="6.13729"/><trkpt lat="49.95559" lon="6.13802"/><trkpt lat="49.95627" lon="6.13859"/><trkpt lat="49.95649" lon="6.13851"/><trkpt lat="49.95677" lon="6.13809"/><trkpt lat="49.95696" lon="6.13797"/><trkpt lat="49.95733" lon="6.13802"/><trkpt lat="49.95787" lon="6.13834"/><trkpt lat="49.95813" lon="6.13832"/><trkpt lat="49.95857" lon="6.13874"/><trkpt lat="49.95919" lon="6.13946"/><trkpt lat="49.95945" lon="6.14001"/><trkpt lat="49.95958" lon="6.14"/><trkpt lat="49.95969" lon="6.14013"/><trkpt lat="49.95983" lon="6.13999"/><trkpt lat="49.96027" lon="6.13911"/><trkpt lat="49.9605" lon="6.13893"/><trkpt lat="49.96094" lon="6.13886"/><trkpt lat="49.9614" lon="6.13904"/><trkpt lat="49.96155" lon="6.13921"/><trkpt lat="49.96164" lon="6.13947"/><trkpt lat="49.96187" lon="6.14075"/><trkpt lat="49.96202" lon="6.14089"/><trkpt lat="49.9622" lon="6.14091"/><trkpt lat="49.96249" lon="6.14085"/><trkpt lat="49.96265" lon="6.14073"/><trkpt lat="49.9628" lon="6.14048"/><trkpt lat="49.96289" lon="6.14013"/><trkpt lat="49.96288" lon="6.13842"/><trkpt lat="49.96302" lon="6.13754"/><trkpt lat="49.96286" lon="6.13613"/><trkpt lat="49.96304" lon="6.13597"/><trkpt lat="49.96339" lon="6.13616"/><trkpt lat="49.96351" lon="6.13705"/><trkpt lat="49.96352" lon="6.13821"/><trkpt lat="49.96449" lon="6.13978"/><trkpt lat="49.96455" lon="6.14129"/><trkpt lat="49.96451" lon="6.14204"/><trkpt lat="49.96598" lon="6.14408"/><trkpt lat="49.96693" lon="6.14732"/><trkpt lat="49.96746" lon="6.1487"/><trkpt lat="49.96766" lon="6.14904"/><trkpt lat="49.96775" lon="6.15001"/><trkpt lat="49.9677" lon="6.15042"/><trkpt lat="49.96772" lon="6.15213"/><trkpt lat="49.968" lon="6.15319"/><trkpt lat="49.96805" lon="6.15367"/><trkpt lat="49.96803" lon="6.15417"/><trkpt lat="49.96776" lon="6.15579"/><trkpt lat="49.96784" lon="6.1568"/><trkpt lat="49.96804" lon="6.15738"/><trkpt lat="49.96855" lon="6.15836"/><trkpt lat="49.96916" lon="6.15922"/><trkpt lat="49.96956" lon="6.16006"/><trkpt lat="49.96971" lon="6.16067"/><trkpt lat="49.96957" lon="6.16131"/><trkpt lat="49.96934" lon="6.16167"/><trkpt lat="49.96891" lon="6.16204"/><trkpt lat="49.96868" lon="6.16244"/><trkpt lat="49.96831" lon="6.16285"/><trkpt lat="49.96772" lon="6.1632"/><trkpt lat="49.96735" lon="6.16356"/><trkpt lat="49.9666" lon="6.16524"/><trkpt lat="49.96662" lon="6.16653"/><trkpt lat="49.96589" lon="6.16691"/><trkpt lat="49.96558" lon="6.16713"/><trkpt lat="49.9656" lon="6.16723"/><trkpt lat="49.96508" lon="6.16755"/></trkseg></trk>
</gpx>
