<?xml version="1.0" encoding="UTF-8"?>
<gpx version="1.1" creator="ian.lu/trails" xmlns="http://www.topografix.com/GPX/1/1">
<metadata><name>Auto-Pédestre Surré</name><link href="https://ian.lu/trails/"/></metadata>
<trk><name>Auto-Pédestre Surré</name><trkseg><trkpt lat="49.90223" lon="5.77808"/><trkpt lat="49.90215" lon="5.77809"/><trkpt lat="49.90205" lon="5.77847"/><trkpt lat="49.90208" lon="5.77907"/><trkpt lat="49.90179" lon="5.7792"/><trkpt lat="49.9015" lon="5.77892"/><trkpt lat="49.90137" lon="5.77895"/><trkpt lat="49.90114" lon="5.77991"/><trkpt lat="49.90074" lon="5.7805"/><trkpt lat="49.90041" lon="5.78072"/><trkpt lat="49.90016" lon="5.78073"/><trkpt lat="49.89835" lon="5.77976"/><trkpt lat="49.8977" lon="5.77957"/><trkpt lat="49.89672" lon="5.77971"/><trkpt lat="49.89634" lon="5.77991"/><trkpt lat="49.89574" lon="5.78005"/><trkpt lat="49.8953" lon="5.78006"/><trkpt lat="49.89501" lon="5.78022"/><trkpt lat="49.89409" lon="5.78019"/><trkpt lat="49.89388" lon="5.78012"/><trkpt lat="49.89371" lon="5.77994"/><trkpt lat="49.89359" lon="5.77992"/><trkpt lat="49.89318" lon="5.78018"/><trkpt lat="49.89255" lon="5.78092"/><trkpt lat="49.89202" lon="5.78116"/><trkpt lat="49.89195" lon="5.78105"/><trkpt lat="49.89187" lon="5.78061"/><trkpt lat="49.89165" lon="5.78039"/><trkpt lat="49.89099" lon="5.77936"/><trkpt lat="49.89014" lon="5.77854"/><trkpt lat="49.88933" lon="5.77788"/><trkpt lat="49.88899" lon="5.77771"/><trkpt lat="49.88624" lon="5.77703"/><trkpt lat="49.88563" lon="5.7767"/><trkpt lat="49.88548" lon="5.77656"/><trkpt lat="49.88526" lon="5.77616"/><trkpt lat="49.88509" lon="5.77555"/><trkpt lat="49.88519" lon="5.77436"/><trkpt lat="49.88548" lon="5.77341"/><trkpt lat="49.88571" lon="5.77301"/><trkpt lat="49.88598" lon="5.77271"/><trkpt lat="49.88653" lon="5.77245"/><trkpt lat="49.88691" lon="5.77236"/><trkpt lat="49.88707" lon="5.77239"/><trkpt lat="49.88737" lon="5.77268"/><trkpt lat="49.88771" lon="5.77336"/><trkpt lat="49.88778" lon="5.77364"/><trkpt lat="49.88766" lon="5.77402"/><trkpt lat="49.88723" lon="5.77419"/><trkpt lat="49.88714" lon="5.77429"/><trkpt lat="49.88712" lon="5.7749"/><trkpt lat="49.88725" lon="5.77548"/><trkpt lat="49.88759" lon="5.77561"/><trkpt lat="49.88864" lon="5.77581"/><trkpt lat="49.88982" lon="5.77587"/><trkpt lat="49.89061" lon="5.77572"/><trkpt lat="49.8909" lon="5.77554"/><trkpt lat="49.89144" lon="5.77492"/><trkpt lat="49.89222" lon="5.77387"/><trkpt lat="49.89283" lon="5.7733"/><trkpt lat="49.89308" lon="5.7733"/><trkpt lat="49.8936" lon="5.77348"/><trkpt lat="49.89392" lon="5.77348"/><trkpt lat="49.89435" lon="5.77338"/><trkpt lat="49.89504" lon="5.77304"/><trkpt lat="49.89554" lon="5.77302"/><trkpt lat="49.89641" lon="5.77271"/><trkpt lat="49.89685" lon="5.77265"/><trkpt lat="49.89726" lon="5.77223"/><trkpt lat="49.89858" lon="5.77161"/><trkpt lat="49.89854" lon="5.77136"/><trkpt lat="49.89875" lon="5.77088"/><trkpt lat="49.89879" lon="5.77062"/><trkpt lat="49.89872" lon="5.7691"/><trkpt lat="49.89878" lon="5.76902"/><trkpt lat="49.89888" lon="5.76905"/><trkpt lat="49.89939" lon="5.76948"/><trkpt lat="49.89951" lon="5.76949"/><trkpt lat="49.89964" lon="5.76935"/><trkpt lat="49.89965" lon="5.76712"/><trkpt lat="49.89979" lon="5.76682"/><trkpt lat="49.90018" lon="5.76661"/><trkpt lat="49.90047" lon="5.76624"/><trkpt lat="49.90091" lon="5.76481"/><trkpt lat="49.90102" lon="5.76601"/><trkpt lat="49.90138" lon="5.76776"/><trkpt lat="49.9021" lon="5.76985"/><trkpt lat="49.90276" lon="5.77149"/><trkpt lat="49.9034" lon="5.77347"/><trkpt lat="49.90332" lon="5.77399"/><trkpt lat="49.90313" lon="5.77431"/><trkpt lat="49.90302" lon="5.77435"/><trkpt lat="49.90228" lon="5.77417"/><trkpt lat="49.90218" lon="5.77419"/><trkpt lat="49.90212" lon="5.77431"/><trkpt lat="49.90208" lon="5.77544"/><trkpt lat="49.90196" lon="5.77605"/><trkpt lat="49.90201" lon="5.77727"/><trkpt lat="49.90223" lon="5.77808"/></trkseg></trk>
</gpx>
