<?xml version="1.0" encoding="UTF-8"?>
<gpx version="1.1" creator="ian.lu/trails" xmlns="http://www.topografix.com/GPX/1/1">
<metadata><name>Auto-Pédestre Tadler</name><link href="https://ian.lu/trails/"/></metadata>
<trk><name>Auto-Pédestre Tadler</name><trkseg><trkpt lat="49.91145" lon="5.99725"/><trkpt lat="49.91131" lon="5.99697"/><trkpt lat="49.91147" lon="5.99711"/><trkpt lat="49.91159" lon="5.9971"/><trkpt lat="49.91173" lon="5.9969"/><trkpt lat="49.9118" lon="5.99665"/><trkpt lat="49.91174" lon="5.99619"/><trkpt lat="49.9115" lon="5.99578"/><trkpt lat="49.91154" lon="5.99569"/><trkpt lat="49.9116" lon="5.99569"/><trkpt lat="49.91198" lon="5.99608"/><trkpt lat="49.91227" lon="5.99694"/><trkpt lat="49.91285" lon="5.99782"/><trkpt lat="49.91286" lon="5.99908"/><trkpt lat="49.91307" lon="5.99963"/><trkpt lat="49.91289" lon="6.00019"/><trkpt lat="49.91285" lon="6.00129"/><trkpt lat="49.91272" lon="6.00156"/><trkpt lat="49.91255" lon="6.00172"/><trkpt lat="49.91221" lon="6.00187"/><trkpt lat="49.91218" lon="6.00198"/><trkpt lat="49.91225" lon="6.00205"/><trkpt lat="49.91256" lon="6.00202"/><trkpt lat="49.91265" lon="6.00208"/><trkpt lat="49.91276" lon="6.00265"/><trkpt lat="49.9134" lon="6.00461"/><trkpt lat="49.91388" lon="6.00572"/><trkpt lat="49.91416" lon="6.00616"/><trkpt lat="49.91495" lon="6.00708"/><trkpt lat="49.91553" lon="6.00747"/><trkpt lat="49.91553" lon="6.00761"/><trkpt lat="49.91504" lon="6.00751"/><trkpt lat="49.91448" lon="6.00727"/><trkpt lat="49.91414" lon="6.00689"/><trkpt lat="49.91347" lon="6.00631"/><trkpt lat="49.91215" lon="6.00482"/><trkpt lat="49.9117" lon="6.00443"/><trkpt lat="49.91143" lon="6.0044"/><trkpt lat="49.91061" lon="6.00476"/><trkpt lat="49.91027" lon="6.00475"/><trkpt lat="49.9096" lon="6.00441"/><trkpt lat="49.90901" lon="6.004"/><trkpt lat="49.90858" lon="6.00383"/><trkpt lat="49.90802" lon="6.0038"/><trkpt lat="49.90746" lon="6.00388"/><trkpt lat="49.90662" lon="6.00481"/><trkpt lat="49.90616" lon="6.00378"/><trkpt lat="49.90512" lon="6.00223"/><trkpt lat="49.90493" lon="6.0022"/><trkpt lat="49.90469" lon="6.00226"/><trkpt lat="49.90458" lon="6.00239"/><trkpt lat="49.9044" lon="6.00308"/><trkpt lat="49.90431" lon="6.0031"/><trkpt lat="49.90395" lon="6.00172"/><trkpt lat="49.90409" lon="6.00158"/><trkpt lat="49.90423" lon="6.00108"/><trkpt lat="49.90467" lon="6.00042"/><trkpt lat="49.9047" lon="6.00009"/><trkpt lat="49.90463" lon="5.9996"/><trkpt lat="49.90417" lon="5.99855"/><trkpt lat="49.90423" lon="5.99835"/><trkpt lat="49.90445" lon="5.99829"/><trkpt lat="49.90504" lon="5.99871"/><trkpt lat="49.9064" lon="6.00021"/><trkpt lat="49.90682" lon="6.00042"/><trkpt lat="49.90709" lon="6.00045"/><trkpt lat="49.90739" lon="6.00032"/><trkpt lat="49.90776" lon="5.9999"/><trkpt lat="49.90855" lon="5.99932"/><trkpt lat="49.90935" lon="5.9992"/><trkpt lat="49.90942" lon="5.99901"/><trkpt lat="49.90942" lon="5.99817"/><trkpt lat="49.90948" lon="5.99811"/><trkpt lat="49.91016" lon="5.99938"/><trkpt lat="49.91024" lon="5.99964"/><trkpt lat="49.91032" lon="5.99969"/><trkpt lat="49.91043" lon="5.99607"/><trkpt lat="49.91046" lon="5.9959"/><trkpt lat="49.91059" lon="5.99572"/><trkpt lat="49.91145" lon="5.99726"/></trkseg></trk>
</gpx>
