<?xml version="1.0" encoding="UTF-8"?>
<gpx version="1.1" creator="ian.lu/trails" xmlns="http://www.topografix.com/GPX/1/1">
<metadata><name>Auto-Pédestre Useldange</name><link href="https://ian.lu/trails/"/></metadata>
<trk><name>Auto-Pédestre Useldange</name><trkseg><trkpt lat="49.76877" lon="5.98094"/><trkpt lat="49.76916" lon="5.9807"/><trkpt lat="49.76968" lon="5.98056"/><trkpt lat="49.76973" lon="5.98032"/><trkpt lat="49.76989" lon="5.98054"/><trkpt lat="49.77021" lon="5.98056"/><trkpt lat="49.77022" lon="5.98069"/><trkpt lat="49.77044" lon="5.98087"/><trkpt lat="49.77081" lon="5.98157"/><trkpt lat="49.77085" lon="5.9815"/><trkpt lat="49.77105" lon="5.98204"/><trkpt lat="49.77142" lon="5.98263"/><trkpt lat="49.77196" lon="5.98413"/><trkpt lat="49.77203" lon="5.98432"/><trkpt lat="49.77204" lon="5.98683"/><trkpt lat="49.77199" lon="5.98791"/><trkpt lat="49.77212" lon="5.98916"/><trkpt lat="49.77209" lon="5.99179"/><trkpt lat="49.77217" lon="5.99214"/><trkpt lat="49.7726" lon="5.99243"/><trkpt lat="49.77344" lon="5.99279"/><trkpt lat="49.77426" lon="5.99278"/><trkpt lat="49.77448" lon="5.99289"/><trkpt lat="49.77438" lon="5.99301"/><trkpt lat="49.77405" lon="5.99312"/><trkpt lat="49.77391" lon="5.99323"/><trkpt lat="49.77341" lon="5.99382"/><trkpt lat="49.77319" lon="5.99445"/><trkpt lat="49.77319" lon="5.9947"/><trkpt lat="49.7732" lon="5.99495"/><trkpt lat="49.77332" lon="5.99525"/><trkpt lat="49.77462" lon="5.99797"/><trkpt lat="49.77469" lon="5.99805"/><trkpt lat="49.77509" lon="5.99806"/><trkpt lat="49.77537" lon="5.99824"/><trkpt lat="49.77728" lon="5.99971"/><trkpt lat="49.77822" lon="5.99977"/><trkpt lat="49.77937" lon="5.99911"/><trkpt lat="49.77959" lon="5.99906"/><trkpt lat="49.77972" lon="5.99916"/><trkpt lat="49.7802" lon="6.00034"/><trkpt lat="49.7811" lon="5.999"/><trkpt lat="49.78251" lon="5.99644"/><trkpt lat="49.78318" lon="5.99576"/><trkpt lat="49.78359" lon="5.99554"/><trkpt lat="49.78411" lon="5.99507"/><trkpt lat="49.78442" lon="5.99491"/><trkpt lat="49.78479" lon="5.99482"/><trkpt lat="49.78491" lon="5.99472"/><trkpt lat="49.78571" lon="5.99284"/><trkpt lat="49.78604" lon="5.99263"/><trkpt lat="49.78634" lon="5.99209"/><trkpt lat="49.78685" lon="5.99053"/><trkpt lat="49.78751" lon="5.98889"/><trkpt lat="49.78765" lon="5.9876"/><trkpt lat="49.78835" lon="5.98532"/><trkpt lat="49.78836" lon="5.98516"/><trkpt lat="49.78798" lon="5.98435"/><trkpt lat="49.78795" lon="5.98403"/><trkpt lat="49.78844" lon="5.98318"/><trkpt lat="49.79013" lon="5.98099"/><trkpt lat="49.79065" lon="5.98038"/><trkpt lat="49.7913" lon="5.97979"/><trkpt lat="49.79218" lon="5.97841"/><trkpt lat="49.79222" lon="5.9782"/><trkpt lat="49.79216" lon="5.97782"/><trkpt lat="49.79172" lon="5.97677"/><trkpt lat="49.7918" lon="5.97636"/><trkpt lat="49.79219" lon="5.97557"/><trkpt lat="49.79196" lon="5.97513"/><trkpt lat="49.79153" lon="5.97453"/><trkpt lat="49.79132" lon="5.97363"/><trkpt lat="49.79074" lon="5.97266"/><trkpt lat="49.79039" lon="5.9724"/><trkpt lat="49.78995" lon="5.97151"/><trkpt lat="49.7889" lon="5.97022"/><trkpt lat="49.78865" lon="5.9698"/><trkpt lat="49.78775" lon="5.96917"/><trkpt lat="49.78758" lon="5.96892"/><trkpt lat="49.78728" lon="5.96725"/><trkpt lat="49.78671" lon="5.9652"/><trkpt lat="49.78657" lon="5.96448"/><trkpt lat="49.78648" lon="5.96307"/><trkpt lat="49.78581" lon="5.96077"/><trkpt lat="49.78547" lon="5.95929"/><trkpt lat="49.78449" lon="5.95894"/><trkpt lat="49.78317" lon="5.95858"/><trkpt lat="49.78232" lon="5.95811"/><trkpt lat="49.78127" lon="5.95727"/><trkpt lat="49.77959" lon="5.95577"/><trkpt lat="49.7792" lon="5.95536"/><trkpt lat="49.7787" lon="5.95463"/><trkpt lat="49.77803" lon="5.95391"/><trkpt lat="49.77761" lon="5.95335"/><trkpt lat="49.77701" lon="5.95299"/><trkpt lat="49.77672" lon="5.95297"/><trkpt lat="49.77632" lon="5.95309"/><trkpt lat="49.77623" lon="5.95268"/><trkpt lat="49.77609" lon="5.95252"/><trkpt lat="49.77574" lon="5.9526"/><trkpt lat="49.7756" lon="5.95271"/><trkpt lat="49.77553" lon="5.95292"/><trkpt lat="49.77542" lon="5.95285"/><trkpt lat="49.77447" lon="5.95316"/><trkpt lat="49.77389" lon="5.95405"/><trkpt lat="49.77354" lon="5.95475"/><trkpt lat="49.77327" lon="5.9551"/><trkpt lat="49.77318" lon="5.95514"/><trkpt lat="49.77266" lon="5.95506"/><trkpt lat="49.77224" lon="5.95548"/><trkpt lat="49.77147" lon="5.95658"/><trkpt lat="49.77085" lon="5.95799"/><trkpt lat="49.77071" lon="5.95916"/><trkpt lat="49.77063" lon="5.95934"/><trkpt lat="49.77071" lon="5.96046"/><trkpt lat="49.77069" lon="5.9615"/><trkpt lat="49.77027" lon="5.96322"/><trkpt lat="49.77029" lon="5.96345"/><trkpt lat="49.77074" lon="5.96354"/><trkpt lat="49.77084" lon="5.96352"/><trkpt lat="49.77097" lon="5.96336"/><trkpt lat="49.77107" lon="5.96344"/><trkpt lat="49.77118" lon="5.96339"/><trkpt lat="49.77151" lon="5.96375"/><trkpt lat="49.7715" lon="5.9639"/><trkpt lat="49.77141" lon="5.96394"/><trkpt lat="49.77133" lon="5.96464"/><trkpt lat="49.77133" lon="5.96473"/><trkpt lat="49.77142" lon="5.96471"/><trkpt lat="49.77149" lon="5.9652"/><trkpt lat="49.77144" lon="5.96574"/><trkpt lat="49.77099" lon="5.96676"/><trkpt lat="49.77092" lon="5.96704"/><trkpt lat="49.77051" lon="5.96721"/><trkpt lat="49.77038" lon="5.96757"/><trkpt lat="49.77045" lon="5.96907"/><trkpt lat="49.77088" lon="5.97033"/><trkpt lat="49.77095" lon="5.971"/><trkpt lat="49.77078" lon="5.97131"/><trkpt lat="49.76991" lon="5.97035"/><trkpt lat="49.76982" lon="5.97032"/><trkpt lat="49.76963" lon="5.97048"/><trkpt lat="49.76898" lon="5.97266"/><trkpt lat="49.76822" lon="5.97393"/><trkpt lat="49.76785" lon="5.9742"/><trkpt lat="49.76764" lon="5.97449"/><trkpt lat="49.7666" lon="5.97711"/><trkpt lat="49.76667" lon="5.97803"/><trkpt lat="49.7671" lon="5.97857"/><trkpt lat="49.76769" lon="5.97976"/><trkpt lat="49.76789" lon="5.97969"/><trkpt lat="49.76811" lon="5.97971"/><trkpt lat="49.76823" lon="5.97963"/><trkpt lat="49.76849" lon="5.98005"/><trkpt lat="49.76878" lon="5.98093"/></trkseg></trk>
</gpx>
