<?xml version="1.0" encoding="UTF-8"?>
<gpx version="1.1" creator="ian.lu/trails" xmlns="http://www.topografix.com/GPX/1/1">
<metadata><name>Auto-Pédestre Vianden</name><link href="https://ian.lu/trails/"/></metadata>
<trk><name>Auto-Pédestre Vianden</name><trkseg><trkpt lat="49.93827" lon="6.20398"/><trkpt lat="49.93823" lon="6.20388"/><trkpt lat="49.93837" lon="6.20383"/><trkpt lat="49.93882" lon="6.2039"/><trkpt lat="49.93805" lon="6.20338"/><trkpt lat="49.93709" lon="6.203"/><trkpt lat="49.9359" lon="6.20197"/><trkpt lat="49.93574" lon="6.20166"/><trkpt lat="49.93574" lon="6.20076"/><trkpt lat="49.93565" lon="6.20033"/><trkpt lat="49.93535" lon="6.20063"/><trkpt lat="49.9352" lon="6.20045"/><trkpt lat="49.9351" lon="6.20042"/><trkpt lat="49.93398" lon="6.20056"/><trkpt lat="49.93332" lon="6.20085"/><trkpt lat="49.93253" lon="6.20132"/><trkpt lat="49.93148" lon="6.20141"/><trkpt lat="49.93148" lon="6.20134"/><trkpt lat="49.93124" lon="6.2011"/><trkpt lat="49.93037" lon="6.19796"/><trkpt lat="49.92996" lon="6.19733"/><trkpt lat="49.92958" lon="6.19642"/><trkpt lat="49.9295" lon="6.19583"/><trkpt lat="49.92956" lon="6.19457"/><trkpt lat="49.92945" lon="6.19441"/><trkpt lat="49.929" lon="6.19412"/><trkpt lat="49.92887" lon="6.19393"/><trkpt lat="49.92865" lon="6.19337"/><trkpt lat="49.92847" lon="6.19263"/><trkpt lat="49.92779" lon="6.18864"/><trkpt lat="49.92781" lon="6.18732"/><trkpt lat="49.92791" lon="6.18704"/><trkpt lat="49.92819" lon="6.18661"/><trkpt lat="49.92907" lon="6.18558"/><trkpt lat="49.92959" lon="6.18484"/><trkpt lat="49.93" lon="6.18453"/><trkpt lat="49.9301" lon="6.18463"/><trkpt lat="49.93052" lon="6.18759"/><trkpt lat="49.9305" lon="6.18799"/><trkpt lat="49.93019" lon="6.1884"/><trkpt lat="49.93016" lon="6.18865"/><trkpt lat="49.93051" lon="6.19111"/><trkpt lat="49.9314" lon="6.19422"/><trkpt lat="49.9318" lon="6.19623"/><trkpt lat="49.93231" lon="6.19772"/><trkpt lat="49.93224" lon="6.1986"/><trkpt lat="49.93252" lon="6.19878"/><trkpt lat="49.93278" lon="6.19867"/><trkpt lat="49.93282" lon="6.1987"/><trkpt lat="49.93236" lon="6.19941"/><trkpt lat="49.93221" lon="6.1995"/><trkpt lat="49.93195" lon="6.19953"/><trkpt lat="49.93195" lon="6.1996"/><trkpt lat="49.93219" lon="6.19989"/><trkpt lat="49.93236" lon="6.19992"/><trkpt lat="49.93251" lon="6.19986"/><trkpt lat="49.93296" lon="6.19946"/><trkpt lat="49.93364" lon="6.1991"/><trkpt lat="49.93412" lon="6.19893"/><trkpt lat="49.93429" lon="6.19895"/><trkpt lat="49.9342" lon="6.19919"/><trkpt lat="49.93434" lon="6.19921"/><trkpt lat="49.93428" lon="6.19939"/><trkpt lat="49.9344" lon="6.19932"/><trkpt lat="49.93452" lon="6.19916"/><trkpt lat="49.9346" lon="6.19928"/><trkpt lat="49.93487" lon="6.19897"/><trkpt lat="49.93483" lon="6.1985"/><trkpt lat="49.93441" lon="6.19794"/><trkpt lat="49.93426" lon="6.1976"/><trkpt lat="49.93396" lon="6.19647"/><trkpt lat="49.93375" lon="6.1949"/><trkpt lat="49.93369" lon="6.19335"/><trkpt lat="49.93383" lon="6.19385"/><trkpt lat="49.93425" lon="6.19478"/><trkpt lat="49.93461" lon="6.19544"/><trkpt lat="49.93481" lon="6.19569"/><trkpt lat="49.93501" lon="6.19564"/><trkpt lat="49.93551" lon="6.19509"/><trkpt lat="49.93581" lon="6.19494"/><trkpt lat="49.93599" lon="6.19498"/><trkpt lat="49.93629" lon="6.19587"/><trkpt lat="49.93699" lon="6.19731"/><trkpt lat="49.93725" lon="6.19767"/><trkpt lat="49.93718" lon="6.19866"/><trkpt lat="49.93719" lon="6.20093"/><trkpt lat="49.93723" lon="6.20089"/><trkpt lat="49.9372" lon="6.20071"/><trkpt lat="49.93736" lon="6.20068"/><trkpt lat="49.9375" lon="6.20053"/><trkpt lat="49.93738" lon="6.20004"/><trkpt lat="49.93758" lon="6.20006"/><trkpt lat="49.93773" lon="6.2"/><trkpt lat="49.93814" lon="6.1994"/><trkpt lat="49.93832" lon="6.19844"/><trkpt lat="49.93919" lon="6.1962"/><trkpt lat="49.93918" lon="6.19552"/><trkpt lat="49.94059" lon="6.19543"/><trkpt lat="49.94098" lon="6.19527"/><trkpt lat="49.94107" lon="6.19513"/><trkpt lat="49.94122" lon="6.19512"/><trkpt lat="49.94129" lon="6.19521"/><trkpt lat="49.94162" lon="6.19518"/><trkpt lat="49.94199" lon="6.19549"/><trkpt lat="49.94215" lon="6.19551"/><trkpt lat="49.94244" lon="6.1957"/><trkpt lat="49.94254" lon="6.19588"/><trkpt lat="49.94278" lon="6.19583"/><trkpt lat="49.94308" lon="6.19598"/><trkpt lat="49.9432" lon="6.1962"/><trkpt lat="49.94394" lon="6.19678"/><trkpt lat="49.94395" lon="6.19692"/><trkpt lat="49.94284" lon="6.19712"/><trkpt lat="49.94259" lon="6.19756"/><trkpt lat="49.94306" lon="6.19789"/><trkpt lat="49.94423" lon="6.1996"/><trkpt lat="49.94428" lon="6.19984"/><trkpt lat="49.94404" lon="6.20013"/><trkpt lat="49.94406" lon="6.20028"/><trkpt lat="49.94338" lon="6.20152"/><trkpt lat="49.94233" lon="6.2041"/><trkpt lat="49.94211" lon="6.20422"/><trkpt lat="49.94192" lon="6.20411"/><trkpt lat="49.94181" lon="6.20412"/><trkpt lat="49.94137" lon="6.20436"/><trkpt lat="49.94095" lon="6.20449"/><trkpt lat="49.9408" lon="6.20451"/><trkpt lat="49.94056" lon="6.2044"/><trkpt lat="49.93983" lon="6.20454"/><trkpt lat="49.93969" lon="6.20463"/><trkpt lat="49.93951" lon="6.20451"/><trkpt lat="49.93925" lon="6.20454"/><trkpt lat="49.93826" lon="6.20398"/></trkseg></trk>
</gpx>
