<?xml version="1.0" encoding="UTF-8"?>
<gpx version="1.1" creator="ian.lu/trails" xmlns="http://www.topografix.com/GPX/1/1">
<metadata><name>Auto-Pédestre Wasserbillig</name><link href="https://ian.lu/trails/"/></metadata>
<trk><name>Auto-Pédestre Wasserbillig</name><trkseg><trkpt lat="49.71287" lon="6.49892"/><trkpt lat="49.7128" lon="6.49895"/><trkpt lat="49.7127" lon="6.4987"/><trkpt lat="49.71264" lon="6.49874"/><trkpt lat="49.7127" lon="6.4989"/><trkpt lat="49.71241" lon="6.49917"/><trkpt lat="49.71262" lon="6.49981"/><trkpt lat="49.71252" lon="6.49991"/><trkpt lat="49.71297" lon="6.50131"/><trkpt lat="49.71342" lon="6.50345"/><trkpt lat="49.71353" lon="6.50367"/><trkpt lat="49.71361" lon="6.50464"/><trkpt lat="49.71358" lon="6.506"/><trkpt lat="49.71368" lon="6.50615"/><trkpt lat="49.71378" lon="6.50619"/><trkpt lat="49.71425" lon="6.5062"/><trkpt lat="49.71432" lon="6.50612"/><trkpt lat="49.71522" lon="6.50627"/><trkpt lat="49.71558" lon="6.50622"/><trkpt lat="49.7159" lon="6.50609"/><trkpt lat="49.71629" lon="6.50586"/><trkpt lat="49.71651" lon="6.50562"/><trkpt lat="49.71665" lon="6.50543"/><trkpt lat="49.71893" lon="6.50092"/><trkpt lat="49.71941" lon="6.50017"/><trkpt lat="49.72055" lon="6.49874"/><trkpt lat="49.71961" lon="6.49886"/><trkpt lat="49.7194" lon="6.49799"/><trkpt lat="49.71935" lon="6.498"/><trkpt lat="49.7194" lon="6.49779"/><trkpt lat="49.71909" lon="6.49771"/><trkpt lat="49.71906" lon="6.4976"/><trkpt lat="49.71885" lon="6.49769"/><trkpt lat="49.71869" lon="6.49763"/><trkpt lat="49.71805" lon="6.49694"/><trkpt lat="49.71749" lon="6.4959"/><trkpt lat="49.71659" lon="6.49478"/><trkpt lat="49.7161" lon="6.49406"/><trkpt lat="49.71595" lon="6.4937"/><trkpt lat="49.71602" lon="6.49346"/><trkpt lat="49.71609" lon="6.49348"/><trkpt lat="49.71632" lon="6.49381"/><trkpt lat="49.71646" lon="6.49374"/><trkpt lat="49.71647" lon="6.49353"/><trkpt lat="49.71624" lon="6.49302"/><trkpt lat="49.71622" lon="6.49282"/><trkpt lat="49.71627" lon="6.49283"/><trkpt lat="49.71839" lon="6.49563"/><trkpt lat="49.71895" lon="6.49628"/><trkpt lat="49.71913" lon="6.49644"/><trkpt lat="49.71957" lon="6.49662"/><trkpt lat="49.71997" lon="6.49663"/><trkpt lat="49.71995" lon="6.4964"/><trkpt lat="49.72002" lon="6.49596"/><trkpt lat="49.71993" lon="6.49597"/><trkpt lat="49.72002" lon="6.49597"/><trkpt lat="49.71977" lon="6.49586"/><trkpt lat="49.71901" lon="6.49501"/><trkpt lat="49.71778" lon="6.49284"/><trkpt lat="49.71777" lon="6.49275"/><trkpt lat="49.71908" lon="6.49143"/><trkpt lat="49.71908" lon="6.49123"/><trkpt lat="49.71766" lon="6.48876"/><trkpt lat="49.71738" lon="6.48855"/><trkpt lat="49.7155" lon="6.48791"/><trkpt lat="49.71521" lon="6.48814"/><trkpt lat="49.71519" lon="6.48836"/><trkpt lat="49.71477" lon="6.48912"/><trkpt lat="49.71477" lon="6.49016"/><trkpt lat="49.71471" lon="6.49016"/><trkpt lat="49.71442" lon="6.4895"/><trkpt lat="49.71441" lon="6.48928"/><trkpt lat="49.71417" lon="6.489"/><trkpt lat="49.71407" lon="6.48836"/><trkpt lat="49.71327" lon="6.48659"/><trkpt lat="49.71277" lon="6.48604"/><trkpt lat="49.71059" lon="6.48401"/><trkpt lat="49.7094" lon="6.48212"/><trkpt lat="49.70848" lon="6.48133"/><trkpt lat="49.70792" lon="6.48102"/><trkpt lat="49.70755" lon="6.48088"/><trkpt lat="49.70552" lon="6.48043"/><trkpt lat="49.70532" lon="6.48059"/><trkpt lat="49.70529" lon="6.48069"/><trkpt lat="49.70534" lon="6.48074"/><trkpt lat="49.70587" lon="6.48088"/><trkpt lat="49.70672" lon="6.48179"/><trkpt lat="49.70743" lon="6.48201"/><trkpt lat="49.70767" lon="6.48216"/><trkpt lat="49.7086" lon="6.48323"/><trkpt lat="49.70934" lon="6.48424"/><trkpt lat="49.71064" lon="6.48545"/><trkpt lat="49.71204" lon="6.48659"/><trkpt lat="49.71236" lon="6.48694"/><trkpt lat="49.71276" lon="6.48745"/><trkpt lat="49.71318" lon="6.48818"/><trkpt lat="49.71358" lon="6.48893"/><trkpt lat="49.71374" lon="6.48953"/><trkpt lat="49.71388" lon="6.48981"/><trkpt lat="49.71423" lon="6.49029"/><trkpt lat="49.71469" lon="6.49074"/><trkpt lat="49.71479" lon="6.49098"/><trkpt lat="49.71543" lon="6.49186"/><trkpt lat="49.71549" lon="6.49215"/><trkpt lat="49.71547" lon="6.49288"/><trkpt lat="49.71535" lon="6.49371"/><trkpt lat="49.71547" lon="6.49466"/><trkpt lat="49.71548" lon="6.49533"/><trkpt lat="49.7154" lon="6.49615"/><trkpt lat="49.71531" lon="6.49621"/><trkpt lat="49.71481" lon="6.49561"/><trkpt lat="49.71317" lon="6.49791"/><trkpt lat="49.71292" lon="6.49795"/><trkpt lat="49.71314" lon="6.49871"/><trkpt lat="49.71287" lon="6.49892"/></trkseg></trk>
</gpx>
