<?xml version="1.0" encoding="UTF-8"?>
<gpx version="1.1" creator="ian.lu/trails" xmlns="http://www.topografix.com/GPX/1/1">
<metadata><name>Auto-Pédestre Weiswampach</name><link href="https://ian.lu/trails/"/></metadata>
<trk><name>Auto-Pédestre Weiswampach</name><trkseg><trkpt lat="50.14121" lon="6.07803"/><trkpt lat="50.14187" lon="6.07875"/><trkpt lat="50.14238" lon="6.07921"/><trkpt lat="50.14296" lon="6.0799"/><trkpt lat="50.14385" lon="6.08047"/><trkpt lat="50.14481" lon="6.08158"/><trkpt lat="50.14525" lon="6.08238"/><trkpt lat="50.1457" lon="6.08344"/><trkpt lat="50.14749" lon="6.0857"/><trkpt lat="50.14779" lon="6.08638"/><trkpt lat="50.14845" lon="6.08743"/><trkpt lat="50.14876" lon="6.08826"/><trkpt lat="50.14893" lon="6.08893"/><trkpt lat="50.14905" lon="6.08985"/><trkpt lat="50.1491" lon="6.0911"/><trkpt lat="50.14959" lon="6.09285"/><trkpt lat="50.15" lon="6.09594"/><trkpt lat="50.15048" lon="6.09802"/><trkpt lat="50.151" lon="6.09926"/><trkpt lat="50.15144" lon="6.09987"/><trkpt lat="50.15175" lon="6.10053"/><trkpt lat="50.15237" lon="6.10121"/><trkpt lat="50.15252" lon="6.1008"/><trkpt lat="50.15281" lon="6.09943"/><trkpt lat="50.15288" lon="6.09933"/><trkpt lat="50.15307" lon="6.09949"/><trkpt lat="50.15306" lon="6.09988"/><trkpt lat="50.15315" lon="6.10036"/><trkpt lat="50.15383" lon="6.10235"/><trkpt lat="50.15427" lon="6.10307"/><trkpt lat="50.15498" lon="6.10395"/><trkpt lat="50.15534" lon="6.10457"/><trkpt lat="50.15553" lon="6.1056"/><trkpt lat="50.15577" lon="6.10647"/><trkpt lat="50.15558" lon="6.10747"/><trkpt lat="50.15597" lon="6.10835"/><trkpt lat="50.1566" lon="6.10914"/><trkpt lat="50.1569" lon="6.10916"/><trkpt lat="50.15717" lon="6.10905"/><trkpt lat="50.158" lon="6.10834"/><trkpt lat="50.15835" lon="6.10793"/><trkpt lat="50.15854" lon="6.10738"/><trkpt lat="50.15866" lon="6.10658"/><trkpt lat="50.1588" lon="6.10629"/><trkpt lat="50.15925" lon="6.10635"/><trkpt lat="50.15938" lon="6.10643"/><trkpt lat="50.15977" lon="6.10722"/><trkpt lat="50.16009" lon="6.10772"/><trkpt lat="50.16028" lon="6.10824"/><trkpt lat="50.15982" lon="6.11133"/><trkpt lat="50.15987" lon="6.11169"/><trkpt lat="50.15994" lon="6.1118"/><trkpt lat="50.1602" lon="6.11195"/><trkpt lat="50.16021" lon="6.11219"/><trkpt lat="50.16004" lon="6.11235"/><trkpt lat="50.15975" lon="6.11236"/><trkpt lat="50.15913" lon="6.11201"/><trkpt lat="50.15845" lon="6.11177"/><trkpt lat="50.15751" lon="6.11175"/><trkpt lat="50.15701" lon="6.11218"/><trkpt lat="50.15614" lon="6.11315"/><trkpt lat="50.15589" lon="6.11334"/><trkpt lat="50.15533" lon="6.11353"/><trkpt lat="50.15516" lon="6.11372"/><trkpt lat="50.15462" lon="6.11268"/><trkpt lat="50.15407" lon="6.11191"/><trkpt lat="50.15336" lon="6.11058"/><trkpt lat="50.15304" lon="6.10983"/><trkpt lat="50.15247" lon="6.10811"/><trkpt lat="50.15236" lon="6.1075"/><trkpt lat="50.15239" lon="6.10714"/><trkpt lat="50.15201" lon="6.10693"/><trkpt lat="50.15178" lon="6.10727"/><trkpt lat="50.15162" lon="6.10669"/><trkpt lat="50.15144" lon="6.10476"/><trkpt lat="50.15131" lon="6.10433"/><trkpt lat="50.151" lon="6.10392"/><trkpt lat="50.15056" lon="6.10359"/><trkpt lat="50.14981" lon="6.10288"/><trkpt lat="50.1493" lon="6.1023"/><trkpt lat="50.14887" lon="6.1016"/><trkpt lat="50.14779" lon="6.09948"/><trkpt lat="50.14782" lon="6.09925"/><trkpt lat="50.14835" lon="6.0986"/><trkpt lat="50.14837" lon="6.09832"/><trkpt lat="50.14805" lon="6.09752"/><trkpt lat="50.14738" lon="6.09507"/><trkpt lat="50.14634" lon="6.09207"/><trkpt lat="50.14531" lon="6.08769"/><trkpt lat="50.14507" lon="6.08747"/><trkpt lat="50.1447" lon="6.08753"/><trkpt lat="50.14455" lon="6.08746"/><trkpt lat="50.14385" lon="6.08657"/><trkpt lat="50.14358" lon="6.08638"/><trkpt lat="50.14256" lon="6.08602"/><trkpt lat="50.14211" lon="6.08569"/><trkpt lat="50.14158" lon="6.08507"/><trkpt lat="50.14054" lon="6.08461"/><trkpt lat="50.14016" lon="6.08358"/><trkpt lat="50.13989" lon="6.08223"/><trkpt lat="50.13979" lon="6.08062"/><trkpt lat="50.13962" lon="6.07967"/><trkpt lat="50.14086" lon="6.07846"/><trkpt lat="50.14121" lon="6.07803"/><trkpt lat="50.14159" lon="6.07735"/><trkpt lat="50.1419" lon="6.07623"/><trkpt lat="50.142" lon="6.07628"/></trkseg></trk>
</gpx>
