<?xml version="1.0" encoding="UTF-8"?>
<gpx version="1.1" creator="ian.lu/trails" xmlns="http://www.topografix.com/GPX/1/1">
<metadata><name>Auto-Pédestre Wilwerwiltz</name><link href="https://ian.lu/trails/"/></metadata>
<trk><name>Auto-Pédestre Wilwerwiltz</name><trkseg><trkpt lat="49.98786" lon="5.9982"/><trkpt lat="49.9877" lon="5.99824"/><trkpt lat="49.98741" lon="5.9988"/><trkpt lat="49.98721" lon="5.99929"/><trkpt lat="49.98694" lon="6.00041"/><trkpt lat="49.98681" lon="6.00047"/><trkpt lat="49.98614" lon="6.00054"/><trkpt lat="49.98553" lon="6.00095"/><trkpt lat="49.98445" lon="6.00139"/><trkpt lat="49.98431" lon="6.0013"/><trkpt lat="49.98409" lon="6.00072"/><trkpt lat="49.9839" lon="6.00072"/><trkpt lat="49.98333" lon="6.00113"/><trkpt lat="49.98307" lon="6.00151"/><trkpt lat="49.98307" lon="6.00181"/><trkpt lat="49.98356" lon="6.00306"/><trkpt lat="49.984" lon="6.00381"/><trkpt lat="49.98442" lon="6.0049"/><trkpt lat="49.9845" lon="6.00519"/><trkpt lat="49.98451" lon="6.00568"/><trkpt lat="49.98475" lon="6.00602"/><trkpt lat="49.98484" lon="6.00656"/><trkpt lat="49.9855" lon="6.00898"/><trkpt lat="49.98543" lon="6.00997"/><trkpt lat="49.98475" lon="6.01053"/><trkpt lat="49.98428" lon="6.01112"/><trkpt lat="49.98385" lon="6.01146"/><trkpt lat="49.98306" lon="6.0125"/><trkpt lat="49.98315" lon="6.01303"/><trkpt lat="49.98327" lon="6.01336"/><trkpt lat="49.98366" lon="6.01389"/><trkpt lat="49.98375" lon="6.01414"/><trkpt lat="49.98377" lon="6.0137"/><trkpt lat="49.98387" lon="6.01359"/><trkpt lat="49.98407" lon="6.01421"/><trkpt lat="49.98415" lon="6.01426"/><trkpt lat="49.98436" lon="6.01352"/><trkpt lat="49.98446" lon="6.01349"/><trkpt lat="49.98463" lon="6.01447"/><trkpt lat="49.98454" lon="6.0148"/><trkpt lat="49.98455" lon="6.01522"/><trkpt lat="49.98464" lon="6.01572"/><trkpt lat="49.98479" lon="6.0159"/><trkpt lat="49.986" lon="6.01665"/><trkpt lat="49.98681" lon="6.01734"/><trkpt lat="49.98714" lon="6.01755"/><trkpt lat="49.98741" lon="6.01754"/><trkpt lat="49.98782" lon="6.01739"/><trkpt lat="49.98829" lon="6.01737"/><trkpt lat="49.98876" lon="6.01746"/><trkpt lat="49.98941" lon="6.01772"/><trkpt lat="49.98995" lon="6.01836"/><trkpt lat="49.9903" lon="6.01867"/><trkpt lat="49.99177" lon="6.01954"/><trkpt lat="49.99284" lon="6.02042"/><trkpt lat="49.99347" lon="6.02122"/><trkpt lat="49.99354" lon="6.02114"/><trkpt lat="49.99341" lon="6.02038"/><trkpt lat="49.99301" lon="6.01893"/><trkpt lat="49.99299" lon="6.01869"/><trkpt lat="49.99306" lon="6.01838"/><trkpt lat="49.99282" lon="6.01685"/><trkpt lat="49.99227" lon="6.01451"/><trkpt lat="49.99218" lon="6.0138"/><trkpt lat="49.99192" lon="6.01318"/><trkpt lat="49.99197" lon="6.01291"/><trkpt lat="49.9922" lon="6.01267"/><trkpt lat="49.99243" lon="6.01253"/><trkpt lat="49.99277" lon="6.01249"/><trkpt lat="49.99303" lon="6.01229"/><trkpt lat="49.99284" lon="6.01139"/><trkpt lat="49.99294" lon="6.01116"/><trkpt lat="49.99294" lon="6.01091"/><trkpt lat="49.99303" lon="6.01086"/><trkpt lat="49.99317" lon="6.01089"/><trkpt lat="49.99352" lon="6.01031"/><trkpt lat="49.99414" lon="6.01015"/><trkpt lat="49.9943" lon="6.01002"/><trkpt lat="49.99472" lon="6.0099"/><trkpt lat="49.99492" lon="6.00978"/><trkpt lat="49.99578" lon="6.00872"/><trkpt lat="49.99701" lon="6.00817"/><trkpt lat="49.99844" lon="6.00785"/><trkpt lat="49.99872" lon="6.00795"/><trkpt lat="50.00058" lon="6.00911"/><trkpt lat="50.00084" lon="6.00911"/><trkpt lat="50.00238" lon="6.00958"/><trkpt lat="50.00244" lon="6.00938"/><trkpt lat="50.00213" lon="6.00842"/><trkpt lat="50.00208" lon="6.00774"/><trkpt lat="50.00228" lon="6.00743"/><trkpt lat="50.00269" lon="6.00721"/><trkpt lat="50.00343" lon="6.0066"/><trkpt lat="50.00344" lon="6.00639"/><trkpt lat="50.00266" lon="6.00441"/><trkpt lat="50.00227" lon="6.00406"/><trkpt lat="50.00162" lon="6.0038"/><trkpt lat="50.00123" lon="6.00338"/><trkpt lat="49.99989" lon="5.99961"/><trkpt lat="49.99979" lon="5.99904"/><trkpt lat="49.99954" lon="5.99851"/><trkpt lat="49.99921" lon="5.99647"/><trkpt lat="49.99828" lon="5.99465"/><trkpt lat="49.99812" lon="5.99406"/><trkpt lat="49.998" lon="5.99397"/><trkpt lat="49.99789" lon="5.99403"/><trkpt lat="49.99739" lon="5.99476"/><trkpt lat="49.99715" lon="5.99499"/><trkpt lat="49.99703" lon="5.99496"/><trkpt lat="49.99691" lon="5.99477"/><trkpt lat="49.9969" lon="5.99467"/><trkpt lat="49.99762" lon="5.9931"/><trkpt lat="49.99842" lon="5.99195"/><trkpt lat="49.99866" lon="5.99073"/><trkpt lat="49.99859" lon="5.99015"/><trkpt lat="49.99844" lon="5.98987"/><trkpt lat="49.99833" lon="5.98919"/><trkpt lat="49.99827" lon="5.9892"/><trkpt lat="49.99808" lon="5.98881"/><trkpt lat="49.998" lon="5.98848"/><trkpt lat="49.99774" lon="5.98637"/><trkpt lat="49.99765" lon="5.98645"/><trkpt lat="49.99763" lon="5.98724"/><trkpt lat="49.99751" lon="5.98793"/><trkpt lat="49.99707" lon="5.98909"/><trkpt lat="49.99642" lon="5.99005"/><trkpt lat="49.99572" lon="5.99054"/><trkpt lat="49.99545" lon="5.9908"/><trkpt lat="49.99526" lon="5.99125"/><trkpt lat="49.99493" lon="5.99171"/><trkpt lat="49.99478" lon="5.99179"/><trkpt lat="49.99469" lon="5.99173"/><trkpt lat="49.99461" lon="5.99139"/><trkpt lat="49.99441" lon="5.99118"/><trkpt lat="49.99428" lon="5.99092"/><trkpt lat="49.99376" lon="5.98928"/><trkpt lat="49.9936" lon="5.98908"/><trkpt lat="49.99351" lon="5.98908"/><trkpt lat="49.99363" lon="5.9896"/><trkpt lat="49.99364" lon="5.99015"/><trkpt lat="49.993" lon="5.99207"/><trkpt lat="49.99284" lon="5.993"/><trkpt lat="49.9928" lon="5.99396"/><trkpt lat="49.99295" lon="5.99555"/><trkpt lat="49.99288" lon="5.99583"/><trkpt lat="49.99201" lon="5.9966"/><trkpt lat="49.99169" lon="5.99671"/><trkpt lat="49.99134" lon="5.99704"/><trkpt lat="49.99097" lon="5.99692"/><trkpt lat="49.99053" lon="5.99615"/><trkpt lat="49.98998" lon="5.99586"/><trkpt lat="49.98983" lon="5.9957"/><trkpt lat="49.98969" lon="5.99569"/><trkpt lat="49.98907" lon="5.99589"/><trkpt lat="49.98891" lon="5.99619"/><trkpt lat="49.98883" lon="5.99618"/><trkpt lat="49.98819" lon="5.99713"/><trkpt lat="49.98798" lon="5.99766"/><trkpt lat="49.98771" lon="5.99801"/><trkpt lat="49.9877" lon="5.99824"/><trkpt lat="49.98786" lon="5.9982"/></trkseg></trk>
</gpx>
