<?xml version="1.0" encoding="UTF-8"?>
<gpx version="1.1" creator="ian.lu/trails" xmlns="http://www.topografix.com/GPX/1/1">
<metadata><name>Auto-Pédestre Winseler</name><link href="https://ian.lu/trails/"/></metadata>
<trk><name>Auto-Pédestre Winseler</name><trkseg><trkpt lat="49.96709" lon="5.88985"/><trkpt lat="49.96718" lon="5.88987"/><trkpt lat="49.9672" lon="5.88951"/><trkpt lat="49.96722" lon="5.88748"/><trkpt lat="49.96762" lon="5.88613"/><trkpt lat="49.9679" lon="5.88451"/><trkpt lat="49.96895" lon="5.88402"/><trkpt lat="49.96977" lon="5.88375"/><trkpt lat="49.97024" lon="5.88349"/><trkpt lat="49.97082" lon="5.88349"/><trkpt lat="49.97134" lon="5.883"/><trkpt lat="49.97182" lon="5.88188"/><trkpt lat="49.9719" lon="5.88145"/><trkpt lat="49.97189" lon="5.88093"/><trkpt lat="49.97158" lon="5.87985"/><trkpt lat="49.97157" lon="5.87959"/><trkpt lat="49.97162" lon="5.87943"/><trkpt lat="49.97175" lon="5.87932"/><trkpt lat="49.97205" lon="5.87953"/><trkpt lat="49.9722" lon="5.87949"/><trkpt lat="49.9722" lon="5.87943"/><trkpt lat="49.97153" lon="5.87673"/><trkpt lat="49.97142" lon="5.87575"/><trkpt lat="49.97145" lon="5.87497"/><trkpt lat="49.97154" lon="5.87439"/><trkpt lat="49.9718" lon="5.87354"/><trkpt lat="49.97211" lon="5.87287"/><trkpt lat="49.97233" lon="5.87256"/><trkpt lat="49.97253" lon="5.87229"/><trkpt lat="49.9729" lon="5.87195"/><trkpt lat="49.97343" lon="5.8716"/><trkpt lat="49.97476" lon="5.8709"/><trkpt lat="49.97525" lon="5.87055"/><trkpt lat="49.97572" lon="5.87007"/><trkpt lat="49.97636" lon="5.86904"/><trkpt lat="49.97748" lon="5.866"/><trkpt lat="49.97809" lon="5.86485"/><trkpt lat="49.9829" lon="5.85885"/><trkpt lat="49.98376" lon="5.85817"/><trkpt lat="49.9857" lon="5.85718"/><trkpt lat="49.98826" lon="5.85682"/><trkpt lat="49.98896" lon="5.85687"/><trkpt lat="49.98982" lon="5.85667"/><trkpt lat="49.99008" lon="5.85719"/><trkpt lat="49.99027" lon="5.85723"/><trkpt lat="49.99038" lon="5.85715"/><trkpt lat="49.99083" lon="5.85623"/><trkpt lat="49.99112" lon="5.85606"/><trkpt lat="49.9918" lon="5.85641"/><trkpt lat="49.99227" lon="5.85673"/><trkpt lat="49.99242" lon="5.85693"/><trkpt lat="49.99246" lon="5.85713"/><trkpt lat="49.99212" lon="5.85858"/><trkpt lat="49.992" lon="5.85958"/><trkpt lat="49.99144" lon="5.86044"/><trkpt lat="49.99115" lon="5.86113"/><trkpt lat="49.99087" lon="5.86148"/><trkpt lat="49.9898" lon="5.86243"/><trkpt lat="49.98909" lon="5.86269"/><trkpt lat="49.98814" lon="5.86175"/><trkpt lat="49.98756" lon="5.86146"/><trkpt lat="49.98731" lon="5.86186"/><trkpt lat="49.9873" lon="5.86199"/><trkpt lat="49.98674" lon="5.86196"/><trkpt lat="49.98619" lon="5.86204"/><trkpt lat="49.98591" lon="5.86217"/><trkpt lat="49.98505" lon="5.8629"/><trkpt lat="49.98404" lon="5.86289"/><trkpt lat="49.98383" lon="5.86298"/><trkpt lat="49.98363" lon="5.86324"/><trkpt lat="49.98349" lon="5.86324"/><trkpt lat="49.9836" lon="5.8637"/><trkpt lat="49.98404" lon="5.86466"/><trkpt lat="49.98407" lon="5.86683"/><trkpt lat="49.984" lon="5.86718"/><trkpt lat="49.98377" lon="5.86754"/><trkpt lat="49.98349" lon="5.86748"/><trkpt lat="49.98304" lon="5.86765"/><trkpt lat="49.98292" lon="5.86783"/><trkpt lat="49.98289" lon="5.86806"/><trkpt lat="49.983" lon="5.86938"/><trkpt lat="49.98296" lon="5.86978"/><trkpt lat="49.98305" lon="5.87067"/><trkpt lat="49.98284" lon="5.8707"/><trkpt lat="49.98273" lon="5.87084"/><trkpt lat="49.98275" lon="5.87177"/><trkpt lat="49.98227" lon="5.87372"/><trkpt lat="49.98198" lon="5.87463"/><trkpt lat="49.9818" lon="5.87494"/><trkpt lat="49.9813" lon="5.87541"/><trkpt lat="49.98127" lon="5.87558"/><trkpt lat="49.98177" lon="5.87723"/><trkpt lat="49.98203" lon="5.87967"/><trkpt lat="49.98193" lon="5.88013"/><trkpt lat="49.98206" lon="5.88066"/><trkpt lat="49.98202" lon="5.88081"/><trkpt lat="49.98192" lon="5.8808"/><trkpt lat="49.98134" lon="5.87993"/><trkpt lat="49.98105" lon="5.87856"/><trkpt lat="49.98075" lon="5.87797"/><trkpt lat="49.98036" lon="5.87749"/><trkpt lat="49.97983" lon="5.87724"/><trkpt lat="49.97889" lon="5.87706"/><trkpt lat="49.97835" lon="5.87714"/><trkpt lat="49.97738" lon="5.8776"/><trkpt lat="49.97714" lon="5.8778"/><trkpt lat="49.9768" lon="5.8783"/><trkpt lat="49.97648" lon="5.87863"/><trkpt lat="49.97605" lon="5.87921"/><trkpt lat="49.97544" lon="5.88006"/><trkpt lat="49.97491" lon="5.88099"/><trkpt lat="49.97443" lon="5.88163"/><trkpt lat="49.97425" lon="5.88173"/><trkpt lat="49.97408" lon="5.88173"/><trkpt lat="49.97375" lon="5.88162"/><trkpt lat="49.9736" lon="5.88172"/><trkpt lat="49.97292" lon="5.883"/><trkpt lat="49.97266" lon="5.88394"/><trkpt lat="49.97172" lon="5.88589"/><trkpt lat="49.97133" lon="5.88622"/><trkpt lat="49.97091" lon="5.88638"/><trkpt lat="49.97032" lon="5.88674"/><trkpt lat="49.96908" lon="5.88786"/><trkpt lat="49.96867" lon="5.88902"/><trkpt lat="49.96857" lon="5.89027"/><trkpt lat="49.96842" lon="5.89087"/><trkpt lat="49.9675" lon="5.89009"/><trkpt lat="49.96709" lon="5.88985"/></trkseg></trk>
</gpx>
