<?xml version="1.0" encoding="UTF-8"?>
<gpx version="1.1" creator="ian.lu/trails" xmlns="http://www.topografix.com/GPX/1/1">
<metadata><name>Auto-Pédestre Wormeldange</name><link href="https://ian.lu/trails/"/></metadata>
<trk><name>Auto-Pédestre Wormeldange</name><trkseg><trkpt lat="49.61118" lon="6.40644"/><trkpt lat="49.6114" lon="6.40564"/><trkpt lat="49.61145" lon="6.40555"/><trkpt lat="49.61153" lon="6.40562"/><trkpt lat="49.6119" lon="6.40504"/><trkpt lat="49.61152" lon="6.40439"/><trkpt lat="49.6113" lon="6.4031"/><trkpt lat="49.61141" lon="6.40271"/><trkpt lat="49.61148" lon="6.4027"/><trkpt lat="49.61144" lon="6.4025"/><trkpt lat="49.61181" lon="6.40114"/><trkpt lat="49.61122" lon="6.40071"/><trkpt lat="49.61071" lon="6.40016"/><trkpt lat="49.61049" lon="6.40074"/><trkpt lat="49.61032" lon="6.40175"/><trkpt lat="49.61016" lon="6.40173"/><trkpt lat="49.60907" lon="6.40102"/><trkpt lat="49.60885" lon="6.40075"/><trkpt lat="49.60716" lon="6.39933"/><trkpt lat="49.60467" lon="6.39767"/><trkpt lat="49.60375" lon="6.39693"/><trkpt lat="49.6034" lon="6.39656"/><trkpt lat="49.60425" lon="6.39527"/><trkpt lat="49.60479" lon="6.39432"/><trkpt lat="49.60634" lon="6.39566"/><trkpt lat="49.60975" lon="6.39831"/><trkpt lat="49.60982" lon="6.39758"/><trkpt lat="49.60978" lon="6.39685"/><trkpt lat="49.61038" lon="6.39474"/><trkpt lat="49.61116" lon="6.39537"/><trkpt lat="49.61179" lon="6.39567"/><trkpt lat="49.61254" lon="6.39631"/><trkpt lat="49.61299" lon="6.39687"/><trkpt lat="49.6124" lon="6.39769"/><trkpt lat="49.61296" lon="6.39817"/><trkpt lat="49.61354" lon="6.39848"/><trkpt lat="49.61377" lon="6.39878"/><trkpt lat="49.61356" lon="6.39938"/><trkpt lat="49.61319" lon="6.40131"/><trkpt lat="49.61314" lon="6.40224"/><trkpt lat="49.61328" lon="6.40249"/><trkpt lat="49.61354" lon="6.40272"/><trkpt lat="49.61381" lon="6.40281"/><trkpt lat="49.61412" lon="6.4027"/><trkpt lat="49.6141" lon="6.40321"/><trkpt lat="49.61402" lon="6.40328"/><trkpt lat="49.61386" lon="6.40328"/><trkpt lat="49.61386" lon="6.40349"/><trkpt lat="49.6138" lon="6.40365"/><trkpt lat="49.61391" lon="6.40385"/><trkpt lat="49.61419" lon="6.40373"/><trkpt lat="49.6144" lon="6.4035"/><trkpt lat="49.61451" lon="6.4029"/><trkpt lat="49.61483" lon="6.40265"/><trkpt lat="49.61495" lon="6.40266"/><trkpt lat="49.61509" lon="6.40354"/><trkpt lat="49.61591" lon="6.40364"/><trkpt lat="49.61711" lon="6.40397"/><trkpt lat="49.61752" lon="6.40391"/><trkpt lat="49.61805" lon="6.40363"/><trkpt lat="49.61835" lon="6.40365"/><trkpt lat="49.6174" lon="6.40458"/><trkpt lat="49.61725" lon="6.40466"/><trkpt lat="49.61713" lon="6.40466"/><trkpt lat="49.61646" lon="6.40439"/><trkpt lat="49.61586" lon="6.40426"/><trkpt lat="49.61554" lon="6.40431"/><trkpt lat="49.61534" lon="6.4045"/><trkpt lat="49.61534" lon="6.40481"/><trkpt lat="49.61495" lon="6.40529"/><trkpt lat="49.61457" lon="6.40599"/><trkpt lat="49.61441" lon="6.40597"/><trkpt lat="49.61439" lon="6.40589"/><trkpt lat="49.61422" lon="6.4059"/><trkpt lat="49.61436" lon="6.40618"/><trkpt lat="49.6171" lon="6.40901"/><trkpt lat="49.61738" lon="6.40954"/><trkpt lat="49.61776" lon="6.41005"/><trkpt lat="49.61707" lon="6.40957"/><trkpt lat="49.61585" lon="6.40836"/><trkpt lat="49.61537" lon="6.40799"/><trkpt lat="49.61441" lon="6.40707"/><trkpt lat="49.61425" lon="6.40696"/><trkpt lat="49.61389" lon="6.40686"/><trkpt lat="49.61388" lon="6.407"/><trkpt lat="49.61402" lon="6.40739"/><trkpt lat="49.61426" lon="6.40783"/><trkpt lat="49.61505" lon="6.4089"/><trkpt lat="49.61469" lon="6.40967"/><trkpt lat="49.61496" lon="6.40999"/><trkpt lat="49.61471" lon="6.41055"/><trkpt lat="49.61509" lon="6.41106"/><trkpt lat="49.61472" lon="6.41156"/><trkpt lat="49.61411" lon="6.41063"/><trkpt lat="49.61327" lon="6.40954"/><trkpt lat="49.61265" lon="6.4084"/><trkpt lat="49.61234" lon="6.40775"/><trkpt lat="49.61212" lon="6.40655"/><trkpt lat="49.61178" lon="6.40669"/><trkpt lat="49.61154" lon="6.40693"/><trkpt lat="49.61138" lon="6.40694"/><trkpt lat="49.61129" lon="6.40693"/><trkpt lat="49.61127" lon="6.40641"/><trkpt lat="49.61117" lon="6.40648"/></trkseg></trk>
</gpx>
